AQS_Site_ID,SITE,Latitude,Longitude,noaa_region,poc,stat,val1990,val1991,val1992,val1993,val1994,val1995,val1996,val1997,val1998,val1999,val2000,val2001,val2002,val2003,val2004,val2005,val2006,val2007,val2008,val2009,val2010,val2011,val2012,val2013,val2014,val2015,trendsite,nyrs,region,State,CBSA,Parameter_Name
01-073-0028,10730028,33.529444,-86.850278,Southeast,1,MAX2V,7.2,7.9,7.5,7.5,6.5,6.7,5.7,6.1,4.4,5,4.5,4.8,4.1,3.2,2.9,3.1,3.2,2.3,2.3,2.4,1.9,5.5,1.6,1.2,,,1,24,6,Alabama,"Birmingham-Hoover, AL",CO
01-073-1003,10731003,33.485556,-86.915,Southeast,1,MAX2V,6.4,6.1,7.4,7.1,6.9,6.4,4.9,5.9,4.4,4.4,3.7,6.3,3.7,3.1,3.9,2.5,3.1,2,2.2,2.9,2.2,2.1,1.7,1.7,2.4,1.9,1,26,6,Alabama,"Birmingham-Hoover, AL",CO
02-020-0018,20200018,61.205861,-149.824602,Southeast,1,MAX2V,9.7,8.4,10.8,9.7,8.6,7.4,8.7,7.1,8.4,7.8,5.4,5.7,4.7,5.7,6.4,4.8,4.3,3.6,3.8,4.4,3.8,3.6,4.3,3.1,2.5,2.8,1,26,6,Alaska,"Anchorage, AK",CO
02-090-0002,20900002,64.845278,-147.721111,Southeast,1,MAX2V,10.2,9.1,9.1,10.1,10.2,11.8,8.6,12.1,10.2,10.3,8.9,6.4,5.6,5.2,5.4,4.5,3.7,3.2,3.6,3.1,,3.3,3.6,3.2,,,1,23,6,Alaska,"Fairbanks, AK",CO
04-013-0019,40130019,33.48385,-112.14257,Southwest,1,MAX2V,8.6,7.6,9.2,8,9.6,8.4,8.2,7,7.1,7.5,7.2,6.6,5.5,5.5,5.1,4.6,4.6,4.1,3,3.3,3.2,2.9,2.5,2.7,2.8,2.5,1,26,7,Arizona,"Phoenix-Mesa-Scottsdale, AZ",CO
04-013-1003,40131003,33.41045,-111.86507,Southwest,1,MAX2V,2.5,4.2,5.4,3.9,4.9,5,3.8,4.5,3.7,4,3.2,2.7,3.5,2.2,1.7,2.4,2,2,1.3,1.3,1.4,1.3,,1.2,1.2,1.3,1,25,7,Arizona,"Phoenix-Mesa-Scottsdale, AZ",CO
04-013-1004,40131004,33.56033,-112.06626,Southwest,1,MAX2V,5.5,5.2,4.6,5,4.9,3.8,3.7,3.4,5.6,3.5,3.1,2.5,2.7,2.1,2,2.2,1.9,1.6,1.3,1.3,1.6,1.5,1.1,1.2,1.1,1.3,1,26,7,Arizona,"Phoenix-Mesa-Scottsdale, AZ",CO
04-013-2001,40132001,33.57454,-112.19196,Southwest,1,MAX2V,4.8,4.1,4,4,4,3.7,3.7,3,3.4,3.5,3.2,2.8,2.7,2.3,2.1,2.3,1.8,1.6,1.5,1.2,1.5,1.2,1.3,1.2,1.3,1.3,1,26,7,Arizona,"Phoenix-Mesa-Scottsdale, AZ",CO
04-013-3002,40133002,33.45793,-112.04601,Southwest,1,MAX2V,8.8,8.2,8.2,7.3,7.8,8.8,7.5,7.2,6.3,6,5.2,4.1,4.1,3.8,3.3,3.8,3.2,2.9,2.2,2.1,2.2,2.1,2,2.1,2.4,1.9,1,26,7,Arizona,"Phoenix-Mesa-Scottsdale, AZ",CO
04-013-3003,40133003,33.47968,-111.91721,Southwest,1,MAX2V,7.7,5.3,6.1,6.2,5,5.1,4.9,4.2,3.5,4.1,3.1,3.1,2.8,2.2,2.4,2.4,1.9,1.6,1.4,1.4,1.6,1.3,1.3,1.2,1.3,1.4,1,26,7,Arizona,"Phoenix-Mesa-Scottsdale, AZ",CO
04-019-1011,40191011,32.2044107,-110.878067,Southwest,1,MAX2V,3.1,2.8,3.3,3.1,3.2,2.6,2.8,2.6,2.3,2,2.4,1.7,1.9,1.9,1.6,1.5,1.4,1.2,1.1,0.8,0.9,0.9,1,0.7,0.9,0.8,1,26,7,Arizona,"Tucson, AZ",CO
04-019-1014,40191014,32.20739,-110.910619,Southwest,1,MAX2V,6.5,5.7,5.8,6,5.5,5.9,5.1,4.4,4,3.8,4.7,2.9,2.5,2.6,2,2.1,1.8,1.9,1.3,1.1,1.1,1.6,1.2,1.1,1,1,1,26,7,Arizona,"Tucson, AZ",CO
04-019-1021,40191021,32.0475,-110.773889,Southwest,1,MAX2V,4.3,4.8,5,4.4,5.1,4.5,4,3.4,3.1,3.4,3.3,2.6,2.3,2.7,2.2,2.4,2,1.5,1.5,,1.3,1.2,1.2,1.1,1.1,1.4,1,25,7,Arizona,"Tucson, AZ",CO
06-013-0002,60130002,37.936013,-122.026154,West,1,MAX2V,5.5,5.3,4.8,4,4,2.7,2.7,3,3.1,2.7,2.6,2.4,2.1,1.8,1.8,1.4,1.1,1.3,1.1,1.1,0.9,1,0.7,0.9,1,1,1,26,8,California,"San Francisco-Oakland-Hayward, CA",CO
06-019-0007,60190007,36.7055057,-119.741966,West,1,MAX2V,6.5,7.3,5.1,4.4,5.7,4.7,3.6,3.8,3.6,4,3.2,3.3,2.6,2.4,2.2,2.1,2.6,2.1,1.9,1.9,1.4,1.7,1.6,2.2,1.5,1.5,1,26,8,California,"Fresno, CA",CO
06-019-0242,60190242,36.841389,-119.874444,West,1,MAX2V,3.3,3.4,2.7,2.3,2.8,2.3,2.8,2.2,2.4,1.9,1.8,1.8,1.8,1.5,2.1,1.2,1.9,1.2,1,1.1,0.8,1.6,1.3,1.7,0.7,0.7,1,26,8,California,"Fresno, CA",CO
06-019-5001,60195001,36.81911052,-119.7173558,West,1,MAX2V,,4.8,3.6,3.4,3.7,3.6,3.5,2.9,2.8,2.4,3.3,2.8,2.5,1.8,1.7,1.8,2.1,1.7,1.4,1.4,1.4,1.4,1.3,1.4,1.1,1,1,25,8,California,"Fresno, CA",CO
06-037-0002,60370002,34.1365,-117.92391,West,1,MAX2V,5,5.3,4.3,4,4.4,6.2,3.9,4.2,3.8,3.3,4.7,2.7,2.3,2.5,1.9,1.6,1.6,1.7,1.4,1.5,1.3,1.2,1.2,1.5,1.2,1.3,1,26,8,California,"Los Angeles-Long Beach-Anaheim, CA",CO
06-037-0113,60370113,34.05111,-118.45636,West,1,MAX2V,6.6,6,5.7,4.6,5.8,5.6,4.3,4.1,4.1,3.4,3.7,2.7,2.4,2.5,2,2,1.9,1.6,1.7,1.4,1.4,1.3,1.3,1.2,1.2,1.2,1,26,8,California,"Los Angeles-Long Beach-Anaheim, CA",CO
06-037-1002,60371002,34.17605,-118.31712,West,1,MAX2V,11.6,10.6,9.8,8.1,10.2,11,8.5,7.2,7.2,8.1,6.1,4.7,4.5,3.7,3.4,3.2,3.4,2.7,2.4,2.5,2.3,2.3,2.1,2.1,2.1,,1,25,8,California,"Los Angeles-Long Beach-Anaheim, CA",CO
06-037-1103,60371103,34.06659,-118.22688,West,1,MAX2V,8.8,8.7,8,6.7,8.4,7.9,7.5,5.9,5.9,5.4,5,4.3,3.7,3.5,3.1,2.7,2.5,2.1,1.9,1.8,2.1,2.2,1.9,1.8,1.9,1.8,1,26,8,California,"Los Angeles-Long Beach-Anaheim, CA",CO
06-037-1201,60371201,34.19925,-118.53276,West,1,MAX2V,13.4,12.3,8.1,8,9.9,9.4,6.7,7.7,7.5,6.6,7.4,4.8,4.7,3.9,3.4,3.4,3.4,2.7,2.8,2.6,2.5,2.6,2.6,2.2,2.5,2.3,1,26,8,California,"Los Angeles-Long Beach-Anaheim, CA",CO
06-037-1701,60371701,34.06703,-117.7514,West,1,MAX2V,6.4,6.8,6.9,5.1,6.3,6,4.7,4.9,5.7,6.5,4.2,3.4,3.1,3.5,2.8,2.4,2.2,2,1.8,1.8,1.7,1.5,1.3,1.5,1.3,1.4,1,26,8,California,"Los Angeles-Long Beach-Anaheim, CA",CO
06-037-2005,60372005,34.1326,-118.1272,West,1,MAX2V,8.7,9.4,7.1,6.3,7.7,8.6,6.9,5.4,6.3,5,6.3,4.9,3.6,3.6,3.4,2.8,2.7,2.2,2.1,2.1,1.8,1.8,1.6,1.7,1.4,1.4,1,26,8,California,"Los Angeles-Long Beach-Anaheim, CA",CO
06-037-4002,60374002,33.82376,-118.18921,West,1,MAX2V,8.9,7.8,7.3,6.9,7.6,6.2,6.5,6.4,6.1,5.4,4.8,4.6,4.4,4.1,3.2,3.1,3.3,2.4,2.5,2.1,2.1,2.4,2.2,1.9,,,1,24,8,California,"Los Angeles-Long Beach-Anaheim, CA",CO
06-041-0001,60410001,37.97231,-122.520004,West,1,MAX2V,4.8,5,4,3.6,2.8,2.9,3.4,2.6,3.2,2.9,2.1,2.3,1.8,1.8,1.6,1.5,1.4,1.3,1.1,1.1,1,1,1,0.9,1,0.9,1,26,8,California,"San Francisco-Oakland-Hayward, CA",CO
06-055-0003,60550003,38.310942,-122.296189,West,1,MAX2V,5.8,5.3,5,4.2,4.3,3.3,3.8,3.9,3.5,3.3,2.5,2.6,2.3,1.9,2,2,2.2,2,1.7,1.4,1.2,1.5,1.5,1.5,1.4,1.5,1,26,8,California,"Napa, CA",CO
06-059-1003,60591003,33.67464,-117.92568,West,1,MAX2V,9.9,7.1,8.3,6.7,7.8,5.3,6.6,5,6.6,6.2,5.4,4.1,3.5,4.4,3.1,3.1,2.5,2.6,2,2.1,1.9,2.2,1.6,1.7,1.6,1.8,1,26,8,California,"Los Angeles-Long Beach-Anaheim, CA",CO
06-059-5001,60595001,33.92513,-117.95264,West,1,MAX2V,9.4,7.6,8,6,8,6.4,6.3,5.7,5.9,5.2,6,4.4,4.4,4,3.8,3,2.9,2.7,2.5,2.4,1.8,2,2.1,1.9,1.9,1.5,1,26,8,California,"Los Angeles-Long Beach-Anaheim, CA",CO
06-065-1003,60651003,33.94603,-117.40063,West,1,MAX2V,7.3,6.8,6,5.8,6,5.8,5,4.8,4.6,4.1,4.2,3.6,3.5,2.9,2.2,2.2,2.1,2,1.9,1.7,1.6,1.4,1.4,1.4,1.3,,1,25,8,California,"Riverside-San Bernardino-Ontario, CA",CO
06-065-5001,60655001,33.85275,-116.54101,West,1,MAX2V,2,2.4,2,1.8,1.7,1.5,1.3,1.3,1.7,1.6,1.4,1.4,1.1,1.1,0.7,0.7,0.8,0.7,0.5,0.6,0.5,0.5,0.4,0.9,0.5,0.5,1,26,8,California,"Riverside-San Bernardino-Ontario, CA",CO
06-065-8001,60658001,33.99958,-117.41601,West,1,MAX2V,5.9,6.1,4.6,5.3,5.6,5.2,4.6,5.1,4.2,3.9,3.8,3.3,3,3.6,2.8,2.3,2.1,2.5,1.7,1.8,1.8,1.3,1.6,1.6,1.6,1.4,1,26,8,California,"Riverside-San Bernardino-Ontario, CA",CO
06-067-0002,60670002,38.71209,-121.38109,West,1,MAX2V,5,5.1,3.6,3.6,6.3,3.3,3.2,3.2,3.2,3.4,2.7,3.1,2.2,2,2.8,2.4,2.6,1.6,1.8,1.6,1.2,1.7,1.5,1.2,1.2,1.3,1,26,8,California,"Sacramento--Roseville--Arden-Arcade, CA",CO
06-067-0006,60670006,38.613779,-121.368014,West,1,MAX2V,9.7,7.8,6.9,7.4,7.4,5.4,5,5.7,5.5,5.6,4.6,5,3.5,3.8,2.8,3.3,3,2.8,2.1,2.2,1.5,2.2,1.8,2.1,1.7,1.9,1,26,8,California,"Sacramento--Roseville--Arden-Arcade, CA",CO
06-067-0007,60670007,38.61,-121.38,West,1,MAX2V,12.6,10.9,8.1,9,8,6.5,7.1,6.7,5.9,6.2,6.2,4.3,3.6,3.7,3.2,3.7,3.5,3,2.6,2.8,1.9,2.4,2.1,2.4,1.9,,1,25,8,California,"Sacramento--Roseville--Arden-Arcade, CA",CO
06-071-0001,60710001,34.89500729,-117.0244843,West,1,MAX2V,3.8,8.1,3.3,2.6,2.1,2.1,2.1,1.5,1.7,1.2,1.3,0.8,1,1.1,0.8,1.2,1.1,0.6,1.1,0.7,0.8,1,0.6,0.5,2.6,0.6,1,26,8,California,"Riverside-San Bernardino-Ontario, CA",CO
06-071-9004,60719004,34.10688,-117.27411,West,1,MAX2V,6,6.9,5.1,5,5.5,5.9,4.3,5.4,4.5,4,3.7,3.2,3.1,3.9,2.9,2.2,2,2.1,1.6,1.6,1.6,1.5,1.6,1.6,1.5,1.8,1,26,8,California,"Riverside-San Bernardino-Ontario, CA",CO
06-073-1002,60731002,33.127711,-117.075325,West,1,MAX2V,7.8,7.6,6.6,7.3,7.4,5.5,6,4.7,4.4,4.9,4.7,4.4,3.8,7.2,3.6,2.8,3.3,3.2,2.5,3,2.4,2.2,2.1,2.3,1.8,1.9,1,26,8,California,"San Diego-Carlsbad, CA",CO
06-075-0005,60750005,37.765946,-122.399044,West,1,MAX2V,5.6,6.5,4.8,4.8,3.9,3.2,3.7,3.1,3.4,3.4,2.6,2.8,2.3,2.5,1.9,1.7,1.9,1.5,2,1.9,1,1.1,1.1,1.3,1.1,1.2,1,26,8,California,"San Francisco-Oakland-Hayward, CA",CO
06-081-1001,60811001,37.482934,-122.20337,West,1,MAX2V,5.8,5.6,4.6,4.5,5.2,3.5,3.4,3.8,3.9,3.7,3.6,3.5,2.6,2.3,2,2.2,2.2,2.1,1.8,1.7,1.7,1.5,1.5,1.6,1.5,1.4,1,26,8,California,"San Francisco-Oakland-Hayward, CA",CO
06-083-1025,60831025,34.48974,-120.04692,West,1,MAX2V,0.9,0.7,0.8,0.9,1.1,0.9,0.8,0.7,0.7,0.7,0.8,0.5,0.6,0.8,0.5,0.5,1.7,0.9,1.2,0.6,0.5,0.3,0.5,0.5,0.4,0.3,1,26,8,California,"Santa Maria-Santa Barbara, CA",CO
06-083-2004,60832004,34.63782,-120.4575,West,1,MAX2V,2.3,1.9,2,2.3,2.3,1.4,1.5,1.5,1.4,1.5,1.4,1.6,1.8,1.2,1.2,1,0.9,1.2,1,0.7,0.5,0.8,0.6,0.7,0.8,0.7,1,26,8,California,"Santa Maria-Santa Barbara, CA",CO
06-083-4003,60834003,34.596111,-120.630278,West,1,MAX2V,0.7,0.9,0.7,0.6,1,1.2,0.6,0.6,0.7,0.5,0.5,0.6,0.6,0.3,0.3,0.6,0.3,0.8,0.7,0.3,0.5,0.3,0.4,0.4,0.4,0.4,1,26,8,California,"Santa Maria-Santa Barbara, CA",CO
06-095-0004,60950004,38.102507,-122.237976,West,1,MAX2V,7.9,7.9,6.1,6.9,6.1,5.1,4.5,4.9,4.9,5,5,4.1,3.7,2.9,3.1,3,2.7,2.6,2,2.2,1.9,2.4,2.1,2,2,1.8,1,26,8,California,"Vallejo-Fairfield, CA",CO
06-097-0003,60970003,38.443503,-122.710169,West,1,MAX2V,4.3,3.8,4,3.8,3.2,2.4,3,3.1,3,3.3,2.7,2.3,2,1.7,1.6,1.7,1.5,1.5,1.3,1.2,1.1,1.2,1.3,1.2,,,1,24,8,California,"Santa Rosa, CA",CO
06-099-0006,60990006,37.48798059,-120.837005,West,1,MAX2V,,,4.1,2.7,3.9,3,3,3.2,3.2,3.4,2.9,3.1,2.7,2,1.8,1.8,2,1.7,1.4,1.4,1.5,1.4,1.4,1.5,1.1,0.9,1,24,8,California,"Modesto, CA",CO
08-001-3001,80013001,39.838119,-104.94984,Southwest,1,MAX2V,7.2,6.4,8.2,4.9,6.3,5.1,3.9,4.3,3.5,3.6,2.9,3.3,2.6,3,2.8,2.2,2.5,2.1,2.4,1.9,1.8,1.6,1.3,2.1,1.7,1.8,1,26,7,Colorado,"Denver-Aurora-Lakewood, CO",CO
08-031-0002,80310002,39.751184,-104.987625,Southwest,2,MAX2V,11.4,9.9,13.3,10.4,8.2,9.5,7.3,5.5,4.7,5,5.4,4.1,3.7,4.5,4.1,2.5,3.1,2.8,3.1,2.2,2.4,1.8,2,2.5,2,2,1,26,7,Colorado,"Denver-Aurora-Lakewood, CO",CO
08-069-1004,80691004,40.57747,-105.07892,Southwest,1,MAX2V,7,9.8,6.9,6.6,6,5.2,5.1,5.2,4.1,5.1,3.8,3,2.9,2.5,3.1,2.4,2.7,2.4,3,1.8,1.7,1.3,1.7,1.4,1.4,1.4,1,26,7,Colorado,"Fort Collins, CO",CO
09-003-0017,90030017,41.769167,-72.670278,Northeast,1,MAX2V,8.6,8.9,7.7,7.2,7.9,7,,5.9,7.1,5.5,7.3,4.5,5.1,5.2,5.7,4.4,4,3.3,3.1,2.5,2.1,2.2,2.5,1.7,,,1,23,3,Connecticut,"Hartford-West Hartford-East Hartford, CT",CO
11-001-0023,110010023,38.903889,-77.046389,Northeast,1,MAX2V,7.2,8.2,5.5,7.6,5.1,6.2,4.5,5.2,4.4,3.5,3.3,4.7,3.2,3.2,2.4,1.9,2.3,1.9,1.8,1.9,2,1.9,1.9,2.5,1.5,1.7,1,26,3,District of Columbia,"Washington-Arlington-Alexandria, DC-VA-MD-WV",CO
12-011-0010,120110010,26.128611,-80.167222,Southeast,1,MAX2V,,,6.2,5.3,6.4,6.7,4.2,4.8,3.5,5.4,3.7,4.2,4,3.7,3.4,3.2,2.6,2.1,2.5,1.9,1.6,1.4,2,1.4,2,1.1,1,24,6,Florida,"Miami-Fort Lauderdale-West Palm Beach, FL",CO
12-031-0080,120310080,30.309119,-81.652341,Southeast,1,MAX2V,3,3.3,2.9,2.7,3.3,2.8,2.4,1.6,2.9,2.9,2.1,2.1,2,1.9,1.6,1.9,1.4,1.4,1.6,1.2,1.9,2.1,1.4,0.7,0.7,0.9,1,26,6,Florida,"Jacksonville, FL",CO
12-031-0084,120310084,30.320507,-81.68762,Southeast,1,MAX2V,5,4.3,4.8,5.6,4.5,4.6,3.8,3,3.3,4.1,3.8,3.4,2.6,2.4,2.3,2.2,1.3,1.9,1.1,0.6,0.7,1.5,1.3,0.7,0.9,0.9,1,26,6,Florida,"Jacksonville, FL",CO
12-086-0031,120860031,25.621667,-80.345278,Southeast,1,MAX2V,,2.8,3.8,,2.2,2.4,2,2.2,2,2.3,2.4,2.4,2.2,1.7,2.5,1.8,1.5,1.1,1.1,1.2,1,1.3,0.9,0.7,1.4,1.1,1,24,6,Florida,"Miami-Fort Lauderdale-West Palm Beach, FL",CO
12-086-4002,120864002,25.798333,-80.210278,Southeast,1,MAX2V,5.2,6.5,5.9,5,3.9,5.2,4.3,3.5,2.8,4,3.2,4,3.4,3,5.3,2.5,2.2,2,2.1,2.2,1.2,0.9,1.5,1,1.3,1.1,1,26,6,Florida,"Miami-Fort Lauderdale-West Palm Beach, FL",CO
12-095-2002,120952002,28.596389,-81.3625,Southeast,1,MAX2V,4.2,2.5,3.3,3.3,2.7,2.7,2.4,2.8,2.4,2.2,2.4,2,2.5,1.5,1.6,1.8,1.5,1,1,1.2,1.3,1,1.1,1,1.5,1.2,1,26,6,Florida,"Orlando-Kissimmee-Sanford, FL",CO
15-003-0010,150030010,21.32374479,-158.0886127,Southeast,1,MAX2V,,0.9,1.1,0.7,0.5,0.7,0.7,0.7,0.6,0.6,0.9,1.3,1.6,0.7,0.7,0.9,0.8,0.6,0.7,1.2,0.8,1,1.1,1,1.3,1.7,1,25,6,Hawaii,"Urban Honolulu, HI",CO
15-003-1001,150031001,21.30758,-157.85542,Southeast,1,MAX2V,2.5,2.3,2.6,3.3,3.3,2.3,1.8,2,2.3,1.8,1.9,1.6,1.6,1.4,1.3,1.3,1,1,1,0.9,0.8,0.8,0.7,1.2,1,1,1,26,6,Hawaii,"Urban Honolulu, HI",CO
18-089-0015,180890015,41.628611,-87.461389,Central,1,MAX2V,3.8,4.6,4.2,5,4.6,3.7,2.8,3.8,3.2,3.1,3.2,3.2,2.6,3.4,2.7,2.3,2.4,3,3,2.2,2.4,2.3,1.9,1.4,1.9,2.1,1,26,1,Indiana,"Chicago-Naperville-Elgin, IL-IN-WI",CO
18-097-0072,180970072,39.768056,-86.16,Central,1,MAX2V,4.5,5.9,4,4.4,3.9,4.2,3.1,3.9,2.8,2.6,2.8,2.2,5,2.7,2.2,2.4,2,3.6,2.1,2.5,2.8,2.3,2.4,2.2,3.1,2.5,1,26,1,Indiana,"Indianapolis-Carmel-Anderson, IN",CO
18-097-0073,180970073,39.78948561,-86.06084985,Central,1,MAX2V,3.4,4.4,3,3.6,3,3.5,2.4,2.4,2.5,2.2,3.8,2.5,1.6,2.3,1.8,1.8,2.1,2,1.6,1.3,1.3,0.9,1.3,1.2,0.9,,1,25,1,Indiana,"Indianapolis-Carmel-Anderson, IN",CO
20-173-0010,201730010,37.702066,-97.314847,South,1,MAX2V,5.8,5.9,5.8,5.6,6.5,5.4,6.1,5.3,5.3,4.5,3.7,4.1,3.7,3.1,3.3,4.9,4.8,2.9,2.1,1.7,1.9,3.4,1.4,1.3,,,1,24,5,Kansas,"Wichita, KS",CO
21-111-1019,211111019,38.229,-85.7018,Central,1,MAX2V,6.3,5.9,4.6,4.7,5.2,4.1,3.6,5.6,3.6,3.5,2.7,3.3,2.7,3.3,3.3,2.6,2.8,2.1,2.1,2.1,2.2,1.9,1.7,1.4,,,1,24,1,Kentucky,"Louisville/Jefferson County, KY-IN",CO
22-033-0009,220330009,30.46198,-91.17922,South,1,MAX2V,,,4.6,9,4.6,3.4,4.7,5.4,3.9,4.5,3.6,4.8,3.7,3.1,2.7,2.1,3.3,1.6,1.8,1.1,2,1.4,1.7,1.8,1.3,1.2,1,24,5,Louisiana,"Baton Rouge, LA",CO
24-510-0040,245100040,39.297733,-76.604603,Northeast,1,MAX2V,7.2,5.6,4.9,4.9,5.7,4.2,3.9,4.8,3.3,4.6,3.4,3.3,3,2.5,2.9,2.7,2.1,2.3,2,1.8,1.4,1.5,1.6,1.3,1,1.8,1,26,3,Maryland,"Baltimore-Columbia-Towson, MD",CO
25-013-0016,250130016,42.10899231,-72.59080252,Northeast,1,MAX2V,6.4,6.5,6.9,5.5,7.2,7.4,6.5,5.3,4.6,4,4,2.9,3.3,3,3.1,2.6,2.4,1.3,2.5,1.8,1.7,3,1.5,1.3,0.9,1.2,1,26,3,Massachusetts,"Springfield, MA",CO
25-025-0002,250250002,42.34887271,-71.09716279,Northeast,1,MAX2V,6.1,4.2,4.2,4,3.7,3.6,3.3,2.9,3.2,3.6,2.3,2.2,1.4,1.6,1.3,1.5,1.5,1.2,1.1,1,0.9,1.2,0.9,0.9,0.9,,1,25,3,Massachusetts,"Boston-Cambridge-Newton, MA-NH",CO
26-081-0020,260810020,42.98417304,-85.67133874,Upper Midwest,1,MAX2V,3.5,4,3.2,3.2,4,4.6,3.3,2.4,2.9,3.5,2.6,3.1,2.8,2,1.8,1.9,2,1.1,1.1,1.6,1.3,1.4,1.4,1,0.9,1.2,1,26,2,Michigan,"Grand Rapids-Wyoming, MI",CO
26-163-0001,261630001,42.22862014,-83.20820002,Upper Midwest,1,MAX2V,4.4,4.2,3.7,3.8,5.2,3.4,2.8,2.4,2.8,4.3,3.3,1.6,3.7,2.4,2.3,1.7,2.3,1.4,1.1,1.2,1.2,1.2,1.2,1.1,1.1,1.1,1,26,2,Michigan,"Detroit-Warren-Dearborn, MI",CO
27-053-0954,270530954,44.980995,-93.273719,Upper Midwest,1,MAX2V,5.4,4.6,4.6,4.1,5.7,3.5,3,3.2,3.9,2.9,2.7,2.9,3.1,2.3,1.8,1.8,2.4,1.4,0.8,1.9,1.8,1,1.1,0.6,0.9,0.9,1,26,2,Minnesota,"Minneapolis-St. Paul-Bloomington, MN-WI",CO
27-123-0050,271230050,44.9558,-93.14585,Upper Midwest,1,MAX2V,8.3,10.8,7.5,6.5,7.6,7,5.1,5.4,7,5.2,5.1,5.1,3.9,4.3,3.2,3,2.5,1.8,2.4,2,2.2,1.7,1.5,1.1,1.6,1.7,1,26,2,Minnesota,"Minneapolis-St. Paul-Bloomington, MN-WI",CO
27-137-0018,271370018,46.78362,-92.10251,Upper Midwest,1,MAX2V,4.4,5.2,4,4.1,4.3,4.5,4.5,3.2,3.7,2.9,2.1,2.5,2.1,1.7,1.5,1.6,1.4,1.5,1.5,1.5,1.9,1.5,1,1.4,0.8,,1,25,2,Minnesota,"Duluth, MN-WI",CO
32-031-0016,320310016,39.52508333,-119.8077167,West,1,MAX2V,7.1,9.4,7.2,5.6,6.8,5.1,5.9,5.5,5.7,7.1,3.7,3.7,4.1,2.6,2.5,2.9,2.6,2.2,1.6,2.1,1.8,1.4,1.2,1.9,1.6,1.5,1,26,8,Nevada,"Reno, NV",CO
32-031-0020,320310020,39.4692185,-119.7753541,West,1,MAX2V,4,3.7,3.7,3.6,3.5,2.5,3.2,2.7,2.8,3,2,2.4,2.1,2.1,1.9,2.1,1.9,1.8,1.3,1.5,1.4,1,0.8,1.4,1.2,,1,25,8,Nevada,"Reno, NV",CO
32-031-0022,320310022,39.53200401,-119.7849824,West,1,MAX2V,11.1,11.9,8,6.6,9.1,6,7.6,7.7,6.6,7.1,5,5.2,4.4,3.6,3.9,3.2,3.3,3.3,2.4,2.3,2.1,1.9,2,2.2,1.9,,1,25,8,Nevada,"Reno, NV",CO
32-031-1005,320311005,39.5409171,-119.7467605,West,1,MAX2V,9.5,8.9,7.6,6,7,5.5,5.9,6.4,5.8,6.8,5.2,4.6,4.4,3.8,3.9,3.2,3,3.1,2.9,2.6,2.6,2.6,2.3,2.4,2.4,2,1,26,8,Nevada,"Reno, NV",CO
32-031-2009,320312009,39.64526401,-119.840025,West,1,MAX2V,3.5,3.5,2.8,3.2,3.5,2.8,3.3,2.9,2.8,2.8,2.1,2.5,2.1,1.9,2.1,1.8,1.9,1.8,1.5,1.6,1.5,1.4,1.5,1.2,1.1,1,1,26,8,Nevada,"Reno, NV",CO
34-017-1002,340171002,40.731645,-74.066308,Northeast,1,MAX2V,7.2,7.5,6,5.6,5.9,6.2,4.9,4.3,4.1,3.9,3.8,3,2.8,2.9,3.2,2.8,2.5,1.9,1.7,1.8,1.6,1.8,2.5,1.8,1.8,1.6,1,26,3,New Jersey,"New York-Newark-Jersey City, NY-NJ-PA",CO
34-039-0003,340390003,40.662389,-74.214817,Northeast,1,MAX2V,8.8,10.7,6.8,6,11.3,7.7,6,5.1,5.1,6.6,4.7,4.8,4.4,3.3,3.3,3.4,2.9,,2.1,2.1,2.2,2.2,1.8,1.7,2.2,1.7,1,25,3,New Jersey,"New York-Newark-Jersey City, NY-NJ-PA",CO
35-001-0023,350010023,35.1343,-106.5852,Southwest,1,MAX2V,5.1,5.5,4.4,5,4.5,3.8,4.1,3.5,3.7,3.8,3.3,2.9,2.8,2.1,2.2,2,2,1.6,1.2,1.1,1.1,1.3,1.6,0.9,1.2,1.4,1,26,7,New Mexico,"Albuquerque, NM",CO
36-029-0005,360290005,42.87690667,-78.80952601,Northeast,1,MAX2V,3.5,3.8,6.1,4.4,4.2,3.1,3.7,3.3,3.1,2.2,2,1.9,1.8,2.4,1.4,1.6,1.7,1.1,1,1.1,1.3,1.4,1.1,1.3,1.3,1.5,1,26,3,New York,"Buffalo-Cheektowaga-Niagara Falls, NY",CO
37-067-0023,370670023,36.065833,-80.258333,Southeast,1,MAX2V,6.8,6.6,5.7,5.5,6,6.2,4.3,4.7,5.4,3.6,3.7,3.5,3.4,3.1,3.1,2.5,2.4,1.8,1.9,1.7,1.9,2.1,1.2,1.7,1.5,1.3,1,26,6,North Carolina,"Winston-Salem, NC",CO
39-035-0051,390350051,41.504661,-81.690186,Central,1,MAX2V,,,6.6,4.2,7.7,6.3,9.4,6.1,6.4,3.9,7.9,2.8,2,2.7,5.4,2.9,3.9,2.9,4.8,6.6,3.5,3.1,4.6,4.6,3.7,2.9,1,24,1,Ohio,"Cleveland-Elyria, OH",CO
39-049-0005,390490005,40.060124,-82.976857,Central,1,MAX2V,4.8,6.5,5.8,5.3,4.1,4.9,2.7,2.9,3.7,2.5,2.8,2.6,2.5,3,2.6,2,2.1,1.6,1.6,1.5,1.7,1.5,1.6,1,1.3,1.5,1,26,1,Ohio,"Columbus, OH",CO
39-153-0020,391530020,41.106486,-81.503547,Central,1,MAX2V,5.7,3.3,4.1,3.1,5.3,3.3,3.4,3.2,2.6,2.5,2.4,2.7,1.8,1.9,2.1,1.6,1.4,1.4,1.3,1.8,1.4,1,1.1,0.8,0.8,1,1,26,1,Ohio,"Akron, OH",CO
41-051-0080,410510080,45.496641,-122.602877,Northwest,1,MAX2V,6.3,8.1,5.6,6.7,5.7,4.7,5.2,3.6,3.2,4.4,3.8,3.2,3,3.1,3.7,2.5,2.7,2.7,2.5,2.3,2.4,2.4,2.1,1.8,1.3,1.9,1,26,4,Oregon,"Portland-Vancouver-Hillsboro, OR-WA",CO
42-003-0038,420030038,40.43835943,-79.99664033,Northeast,1,MAX2V,8.1,5.3,6.9,5.4,7,5.9,4.3,3.8,3.8,3.9,3.2,3.4,2.7,2.3,2.3,2.2,2,3.2,1.4,1.5,1.7,1.6,1.7,1.5,1.4,,1,25,3,Pennsylvania,"Pittsburgh, PA",CO
42-017-0012,420170012,40.107222,-74.882222,Northeast,1,MAX2V,5.4,6.1,5.7,4,5.2,5,4.7,3.8,3.5,3.7,3.6,3.1,2.4,2.8,2.2,2.3,2.1,1.2,1.9,2.3,1.7,1.8,1.2,1.8,1.4,,1,25,3,Pennsylvania,"Philadelphia-Camden-Wilmington, PA-NJ-DE-MD",CO
42-021-0011,420210011,40.309722,-78.915,Northeast,1,MAX2V,3.7,4.8,4.4,4.2,4.1,3.5,4.8,2.7,3.1,2.8,2,2.1,2.6,2.2,2.1,1.2,1.5,1.9,1.6,1.4,1.1,1.4,1.2,1.6,1.2,1.1,1,26,3,Pennsylvania,"Johnstown, PA",CO
42-069-2006,420692006,41.442778,-75.623056,Northeast,1,MAX2V,3.7,3.5,3.1,2.8,2.8,2.6,3.5,2.8,1.9,1.7,2.1,1.8,1.6,1.5,1.8,1.5,1.4,1.5,1,0.8,0.9,0.8,0.8,1.3,1,1.2,1,26,3,Pennsylvania,"Scranton--Wilkes-Barre--Hazleton, PA",CO
42-073-0015,420730015,40.99584839,-80.34644186,Northeast,1,MAX2V,4.4,3.7,3.4,2.9,3.7,4.3,3.5,3,2.4,2.5,1.9,2,1.8,1.8,1.9,1.5,2.2,1,0.7,1,1.7,1.5,1.6,0.9,0.6,,1,25,3,Pennsylvania,"New Castle, PA",CO
42-101-0004,421010004,40.008889,-75.09778,Northeast,1,MAX2V,6.8,5.6,6.4,6.6,8.3,4.5,5.6,5.3,4.6,4.9,3.3,4,2.9,2.4,3.1,2.1,2.3,2.6,1.5,2,1.8,1.7,1.5,1.7,1.3,1.6,1,26,3,Pennsylvania,"Philadelphia-Camden-Wilmington, PA-NJ-DE-MD",CO
42-125-0005,421250005,40.146667,-79.902222,Northeast,1,MAX2V,3,2.5,2.6,2,3.2,2.8,2.5,1.6,2,1.6,1.1,1.1,1,1,1.4,1.1,1.1,1.4,1.1,0.7,0.9,0.9,1.2,0.7,0.7,1,1,26,3,Pennsylvania,"Pittsburgh, PA",CO
42-133-0008,421330008,39.965278,-76.699444,Northeast,1,MAX2V,4.4,3.7,3.6,3.3,3.9,2.7,2.8,3.4,2.4,2.4,1.9,2.2,2.2,1.7,1.8,1.4,1.8,1.4,1.2,1.4,1.1,1.2,1.2,1.2,0.6,0.9,1,26,3,Pennsylvania,"York-Hanover, PA",CO
47-037-0021,470370021,36.159671,-86.781149,Central,1,MAX2V,5.8,4.9,5.8,6.5,5.4,4.8,4.1,5.1,4.7,5.3,3.6,3.7,3.5,3,2.7,2.4,2.7,2.1,1.9,1.7,2,1.5,1.5,1.2,,,1,24,1,Tennessee,"Nashville-Davidson--Murfreesboro--Franklin, TN",CO
47-157-0024,471570024,35.151194,-90.041559,Central,1,MAX2V,8.8,5.7,7.9,8.5,7.8,6.2,5,4.2,5.1,4.6,4.4,4.1,3.5,2.7,2.4,,2.5,1.7,1.5,2,1.8,2.2,1.5,1.9,0.9,1.5,1,25,1,Tennessee,"Memphis, TN-MS-AR",CO
47-163-0007,471630007,36.53480397,-82.5170779,Central,1,MAX2V,3.4,3.3,3,6.5,3.4,3.1,3,3.5,3.4,2.8,2.2,2.1,1.9,2.2,2.1,1.3,1.3,1.2,1,1,1,1,0.9,0.9,0.9,1,1,26,1,Tennessee,"Kingsport-Bristol-Bristol, TN-VA",CO
48-141-0002,481410002,31.757654,-106.482922,South,1,MAX2V,11.7,10.1,7.8,9,7.6,7.4,9.4,6.9,7.5,5.7,5.6,6.9,4.7,3.9,2.9,3.6,2.6,3,3.2,2.6,2.6,2.2,3.9,2.5,,,1,24,5,Texas,"El Paso, TX",CO
48-141-0029,481410029,31.785769,-106.323578,South,1,MAX2V,,5.8,4.5,4.4,,3.7,4.8,3.6,3.6,3.1,2.9,2.8,2.5,2.4,1.9,1.8,1.8,1.6,1.6,1.5,1.7,1.4,1.5,1.4,,,1,22,5,Texas,"El Paso, TX",CO
48-141-0037,481410037,31.768291,-106.50126,South,1,MAX2V,8.2,6.5,6.4,4.7,5,4.8,4.6,4.9,4.7,3.1,3.7,4.5,2.8,2.7,2.3,2.6,1.9,1.7,1.8,1.6,1.3,1.3,1.2,1.1,1.1,,1,25,5,Texas,"El Paso, TX",CO
48-201-0024,482010024,29.901036,-95.326137,South,1,MAX2V,6.6,7,8.2,4.8,4.3,4.3,4.6,3.2,3.5,3.6,3.8,4.4,2.8,2.6,2.6,2.3,1.9,1.5,1.7,1.3,1.5,1.3,1.5,1.5,1.4,,1,25,5,Texas,"Houston-The Woodlands-Sugar Land, TX",CO
48-201-0047,482010047,29.834167,-95.489167,South,1,MAX2V,7.2,7.4,8.3,7.3,6,5.2,7,6.7,5.2,4.1,4.2,4.2,3.3,3,2.9,2.6,2.7,2.3,2.4,1.9,1.5,1.8,1.9,1.9,2,,1,25,5,Texas,"Houston-The Woodlands-Sugar Land, TX",CO
48-201-1035,482011035,29.733726,-95.257593,South,1,MAX2V,5.3,4.7,5.4,4.7,4,3.3,5.1,3.7,3.4,3.1,2.6,2.3,2.8,4.2,1.8,1.7,1.8,1.5,1.3,1.1,1,1.1,1.1,1.1,1.1,1,1,26,5,Texas,"Houston-The Woodlands-Sugar Land, TX",CO
48-439-1002,484391002,32.805818,-97.356568,South,1,MAX2V,3.6,3.4,3.8,3.5,2.7,3.3,2.8,2.8,2.5,2.6,2.1,2,2.1,1.6,1.7,1.5,1.3,1.2,1.1,1,1,1,1.2,1,0.8,,1,25,5,Texas,"Dallas-Fort Worth-Arlington, TX",CO
49-049-0002,490490002,40.253611,-111.663056,Southwest,1,MAX2V,10,7.4,7.6,5.5,5.7,4,5.6,4.3,4.1,4.2,3.4,3.7,3.1,2.6,2.5,2.1,2.1,2.5,1.8,2.5,1.9,2,1.8,2.1,1.9,2.1,1,26,7,Utah,"Provo-Orem, UT",CO
50-021-0002,500210002,43.608056,-72.982778,Northeast,1,MAX2V,,4,3.6,3,4.1,4.6,3.6,3.3,2.4,2.3,2.5,2.2,2.3,1.9,1.8,1.8,1.4,1.7,1.8,1.5,1.2,1.7,1.5,1.3,0.9,1.4,1,25,3,Vermont,"Rutland, VT",CO
51-013-0020,510130020,38.8577,-77.05922,Southeast,1,MAX2V,4.5,4.3,3.8,4.9,4.1,4.6,4,2.4,2.3,3.8,2.7,2.7,2.6,2.5,2.2,1.6,2.3,1.5,1.1,1.3,1.7,1.4,1.4,1,1.1,1.7,1,26,6,Virginia,"Washington-Arlington-Alexandria, DC-VA-MD-WV",CO
54-029-0009,540290009,40.42737182,-80.59231781,Central,1,MAX2V,,,6.8,8.3,9.6,6,6.2,8.8,13.2,4.3,7.9,7.6,12.1,8.8,12,3.5,1.9,1.4,1.7,1,0.8,0.9,0.7,0.6,0.7,0.7,1,24,1,West Virginia,"Weirton-Steubenville, WV-OH",CO
54-029-1004,540291004,40.42153887,-80.58071745,Central,1,MAX2V,,8.2,7.1,6.8,8.2,5.9,3.5,3.4,4.7,2.6,4.9,4.9,6.3,7.3,4.5,2.2,1.7,1.6,2.2,1.1,0.8,0.9,1,1.3,0.7,,1,24,1,West Virginia,"Weirton-Steubenville, WV-OH",CO
