AQS_Site_ID,SITE,Latitude,Longitude,noaa_region,poc,stat,val1990,val1991,val1992,val1993,val1994,val1995,val1996,val1997,val1998,val1999,val2000,val2001,val2002,val2003,val2004,val2005,val2006,val2007,val2008,val2009,val2010,val2011,val2012,val2013,val2014,val2015,trendsite,nyrs,region,State,CBSA,Parameter_Name
01-073-1003,010731003,33.485556,-86.915,Southeast,1,P99V,75,81,89,113,85,65,54,60,82,92,149,63,50,,56,70,70,50,69,41,33,31,35.7,21.6,16.6,16.8,1,25,6,Alabama,"Birmingham-Hoover, AL",SO2
05-139-0006,051390006,33.22027354,-92.66961866,South,1,P99V,110,159,198,211,81,101,127,168,,91.4,122.3,54.1,,32,28,,46,25,29,25,26,25.1,27.2,20,32.4,20.3,1,23,5,Arkansas,"El Dorado, AR",SO2
06-013-0002,060130002,37.936013,-122.026154,West,1,P99V,20,30,20,20,26,27,18,15,22,28,15,15,22,14,21,16,21,19,15,8,7.5,7.6,7.3,9.3,8.6,6.2,1,26,8,California,"San Francisco-Oakland-Hayward, CA",SO2
06-013-0006,060130006,37.948172,-122.364852,West,1,P99V,40,20,20,30,23,32,24,35,26,25,24,27,17,15,18,15,22,17,20,17,,11.8,10.6,8.7,15,10.5,1,25,8,California,"San Francisco-Oakland-Hayward, CA",SO2
06-013-1001,060131001,38.05492,-122.233229,West,1,P99V,40,30,40,40,41,,35,39,35,56,42,32,41,29,20,,,27,31,18,10.9,21.3,12.1,7.4,15.7,12.1,1,23,8,California,"San Francisco-Oakland-Hayward, CA",SO2
06-059-1003,060591003,33.67464,-117.92568,West,1,P99V,,20,10,10,12,12,,12,11,13,12,10,19,14,12,10,10,8,8,6,5.5,,2,,3.7,3.1,1,22,8,California,"Los Angeles-Long Beach-Anaheim, CA",SO2
06-067-0006,060670006,38.613779,-121.368014,West,1,P99V,30,,20,10,,,11,11,15,18,,21,9,9,6,5,7,5,,3,1,2,,2.6,4.9,7.7,1,20,8,California,"Sacramento--Roseville--Arden-Arcade, CA",SO2
06-083-0008,060830008,34.46245,-120.02551,West,1,P99V,10,3,5,6,4,4,4,5,2,4,3,3,2,3,3,3,5,4,4,3,1,2,2,6,5,2,1,26,8,California,"Santa Maria-Santa Barbara, CA",SO2
06-083-1013,060831013,34.725556,-120.427778,West,1,P99V,8,6,8,5,5,9,7,8,5,5,7,7,7,8,8,6,6,2,3,2,2,2,2,3,,0,1,25,8,California,"Santa Maria-Santa Barbara, CA",SO2
06-083-1025,060831025,34.48974,-120.04692,West,1,P99V,13,5,6,5,19,24,19,6,7,7,10,6,6,8,5,6,11,7,5,5,5,7,63,38,15,5,1,26,8,California,"Santa Maria-Santa Barbara, CA",SO2
06-083-2004,060832004,34.63782,-120.4575,West,1,P99V,,13,15,13,6,3,7,9,7,6,4,8,7,5,11,7,5,5,4,3,3,4,3,3,4,2,1,25,8,California,"Santa Maria-Santa Barbara, CA",SO2
06-083-4003,060834003,34.596111,-120.630278,West,1,P99V,5,6,5,6,6,5,3,3,4,3,3,3,3,3,,3,3,2,4,4,2,3,4,3,9,3,1,25,8,California,"Santa Maria-Santa Barbara, CA",SO2
08-001-3001,080013001,39.838119,-104.94984,Southwest,2,P99V,,72,,92,76,100,71,94,69,81,56,75,78,58,46,43,,27,28,33,37,30,28,30,18,16,1,23,7,Colorado,"Denver-Aurora-Lakewood, CO",SO2
08-031-0002,080310002,39.751184,-104.987625,Southwest,1,P99V,96,97,152,117,107,95,101,78,79,,,71,68,57,33,34,31,33,,,32,34,39,38,14,14,1,22,7,Colorado,"Denver-Aurora-Lakewood, CO",SO2
09-001-0012,090010012,41.195,-73.163333,Northeast,1,P99V,123,109,79,91,92,56,68,77,81,70,45,65,47,47,36,42,37,28,23,22.3,17.8,21.1,10.9,11,8.3,6.5,1,26,3,Connecticut,"Bridgeport-Stamford-Norwalk, CT",SO2
12-031-0032,120310032,30.356339,-81.635396,Southeast,1,P99V,48,40,57,64,69,26,54,51,81,77,44,52,34,37,41,,33,19,17,13,16,20,,18,19,12,1,24,6,Florida,"Jacksonville, FL",SO2
12-031-0080,120310080,30.309119,-81.652341,Southeast,1,P99V,34,40,65,89,123,37,63,52,81,60,115,,31,30,30,27,19,18,18,15,17,12,9,12,29,9,1,25,6,Florida,"Jacksonville, FL",SO2
12-031-0081,120310081,30.42244827,-81.6209507,Southeast,1,P99V,69,84,84,130,89,,72,93,125,98,111,131,88,52,,76,73,58,32,24,22,39,,21,35,12,1,23,6,Florida,"Jacksonville, FL",SO2
12-031-0097,120310097,30.367222,-81.594167,Southeast,1,P99V,,,84,102,84,46,54,60,75,70,62,94,49,44,,51,42,33,25,13,17,22,16,24,24,21,1,23,6,Florida,"Jacksonville, FL",SO2
12-033-0004,120330004,30.525367,-87.20355,Southeast,1,P99V,314,237,391,172,185,96,99,91,106,107,140,100,84,76,85,69,79,81,119,74,45,22,14,29,33,9,1,26,6,Florida,"Pensacola-Ferry Pass-Brent, FL",SO2
12-047-0015,120470015,30.41133887,-82.78348442,Southeast,1,P99V,,,88,220,132,148,45,80,74,49,44,28,41,29,33,31,30,34,38,11,21,23,25,26,17,14,1,24,6,Florida,,SO2
12-057-0081,120570081,27.74003282,-82.46514565,Southeast,1,P99V,,,235,165,211,133,125,115,91,,123,104,94,100,48,55,44,43,25,18,25,22,17,19,17,13,1,23,6,Florida,"Tampa-St. Petersburg-Clearwater, FL",SO2
12-057-1035,120571035,27.928056,-82.454722,Southeast,1,P99V,154,167,157,141,169,147,112,135,122,131,100,91,135,75,70,76,71,67,49,35,57,38,35,,28,17,1,25,6,Florida,"Tampa-St. Petersburg-Clearwater, FL",SO2
12-086-0019,120860019,25.8975,-80.38,Southeast,1,P99V,,14,10,12,10,,13,12,10,11,6,10,6,5,,,1,3,1,3,1,1,1,1,1,1,1,22,6,Florida,"Miami-Fort Lauderdale-West Palm Beach, FL",SO2
12-089-0005,120890005,30.65855226,-81.46316773,Southeast,1,P99V,599,201,198,134,203,312,96,102,92,126,165,113,178,115,,,176,82,,73,216,,54,60,56,57,1,22,6,Florida,"Jacksonville, FL",SO2
12-095-2002,120952002,28.596389,-81.3625,Southeast,1,P99V,22,26,28,40,32,25,28,23,34,33,26,29,16,13,12,12,12,10,8,8,7,5,5,3,7,3,1,26,6,Florida,"Orlando-Kissimmee-Sanford, FL",SO2
12-103-0023,121030023,27.863333,-82.623333,Southeast,1,P99V,238,167,170,200,172,126,153,181,185,255,140,214,139,176,143,88,109,92,62,58,15,14,12,7,9,5,1,26,6,Florida,"Tampa-St. Petersburg-Clearwater, FL",SO2
12-107-1008,121071008,29.68774809,-81.65650891,Southeast,1,P99V,74,73,72,82,97,104,112,89,64,82,54,60,43,53,48,60,61,34,39,44,33,32,26,27,25,22,1,26,6,Florida,"Palatka, FL",SO2
13-115-0003,131150003,34.26054,-85.32333,Southeast,1,P99V,157,,131,107,81,72,73,121,86,106,89,68,68,73,69,98,95,137,,,49,96,75.9,28,33.9,42.5,1,23,6,Georgia,"Rome, GA",SO2
13-121-0055,131210055,33.7201924,-84.35705616,Southeast,1,P99V,,,105,91,78,,49,58,57,44,50,54,56,53,56,60,62,58,45,31,33,25,9.5,8.9,6.3,3.9,1,23,6,Georgia,"Atlanta-Sandy Springs-Roswell, GA",SO2
15-003-0010,150030010,21.32374479,-158.0886127,Southeast,1,P99V,,,26,,,29,23,26,26,10,9,7,6,6,10,18,4,10,16,9,18,6,7.4,9,,14.6,1,21,6,Hawaii,"Urban Honolulu, HI",SO2
17-031-1601,170311601,41.66812034,-87.99056969,Central,1,P99V,,109,112,106,102,107,92,81,91,107,78,81,76,64,54,96,97,119,97,114,90,90,108,73,16,20.3,1,25,1,Illinois,"Chicago-Naperville-Elgin, IL-IN-WI",SO2
17-031-4002,170314002,41.85524313,-87.7524697,Central,1,P99V,73,89,73,76,96,67,84,76,84,93,66,67,58,55,85,104,68,33,43,29,31,,,12,18,,1,23,1,Illinois,"Chicago-Naperville-Elgin, IL-IN-WI",SO2
17-115-0013,171150013,39.86683389,-88.92559445,Central,1,P99V,101,84,61,61,89,71,62,62,60,101,58,65,41,49,45,44,46,51,44,36,49,33,38,33,38,39.1,1,26,1,Illinois,"Decatur, IL",SO2
17-117-0002,171170002,39.39607533,-89.80973892,Central,1,P99V,71,68,93,62,80,46,44,37,44,31,27,29,29,36,23,21,40,20,20,16,15,8,8,7,10,6.8,1,26,1,Illinois,"St. Louis, MO-IL",SO2
17-119-1010,171191010,38.827665,-90.058116,Central,1,P99V,100,181,229,170,244,230,202,167,122,147,109,111,106,106,91,84,83,84,152,81,57,22,17,23,18,12.6,1,26,1,Illinois,"St. Louis, MO-IL",SO2
17-119-3007,171193007,38.86066947,-90.10585111,Central,3,P99V,124,114,129,118,143,217,108,106,107,178,82,96,61,82,44,67,42,68,67,46,54,28,30,29,30,20.4,1,26,1,Illinois,"St. Louis, MO-IL",SO2
17-143-0024,171430024,40.68742038,-89.60694277,Central,2,P99V,133,108,108,115,108,150,145,218,192,169,108,129,110,105,92,92,71,58,52,21,,45,44,32,38,22.2,1,25,1,Illinois,"Peoria, IL",SO2
17-157-0001,171570001,38.17627761,-89.78845862,Central,1,P99V,244,234,279,242,286,422,348,289,307,251,71,32,30,30,30,30,28,31,35,26,31,22,24,11,,11.6,1,25,1,Illinois,,SO2
17-163-0010,171630010,38.61203448,-90.16047663,Central,3,P99V,226,,210,139,163,144,129,120,162,127,161,228,173,184,98,194,47,33,35,30,31,22,24,19,25,18.9,1,25,1,Illinois,"St. Louis, MO-IL",SO2
17-167-0006,171670006,39.80061377,-89.59122532,Central,1,P99V,,216,203,194,223,243,223,216,245,215,165,114,106,129,111,102,91,139,131,24,24,27,15,12,21,7.1,1,25,1,Illinois,"Springfield, IL",SO2
17-179-0004,171790004,40.55646017,-89.65402807,Central,2,P99V,290,272,247,210,238,335,275,309,227,238,206,276,192,200,255,195,252,220,243,233,228,172,245,195,190,116.1,1,26,1,Illinois,"Peoria, IL",SO2
17-185-0001,171850001,38.39727594,-87.77363136,Central,1,P99V,230,220,232,159,205,212,164,188,,,179,,131,125,,187,161,109,90,69,66,47,89,55,53,43,1,22,1,Illinois,,SO2
18-027-0002,180270002,38.57325347,-87.21461256,Central,1,P99V,279,272,306,269,258,183,155,147,124,130,120,119,119,107,131,91,135,112,122,138,115,100,78,150,107,93,1,26,1,Indiana,"Washington, IN",SO2
18-043-1004,180431004,38.308056,-85.834167,Central,1,P99V,188,220,153,179,135,161,153,127,130,149,163,151,119,173,174,158,177,194,138,124.6,122.5,38.4,32,20.5,43.8,,1,25,1,Indiana,"Louisville/Jefferson County, KY-IN",SO2
18-045-0001,180450001,39.96420017,-87.42139829,Central,1,P99V,244,230,220,204,196,176,177,225,187,,104,118,,,125,180,169,200,236,38,26,,30,34,22,19,1,22,1,Indiana,,SO2
18-051-0002,180510002,38.39283201,-87.74835255,Central,1,P99V,302,313,257,240,209,295,289,220,208,,,203,,266,226,,265,136,90,65,74,68,76,64,77,59,1,22,1,Indiana,"Evansville, IN-KY",SO2
18-073-0002,180730002,41.18785354,-87.05357132,Central,1,P99V,71,58,66,53,53,56,51,56,52,62,74,60,44,66,44,58,64,49,61,88,39,32,33,40,18,10,1,26,1,Indiana,"Chicago-Naperville-Elgin, IL-IN-WI",SO2
18-089-2008,180892008,41.6394601,-87.49362295,Central,1,P99V,234,111,232,166,166,151,111,107,191,93,105,115,53,,39,42,36,50,37,36.5,34.3,40.4,,23.7,20.2,,1,23,1,Indiana,"Chicago-Naperville-Elgin, IL-IN-WI",SO2
18-091-0005,180910005,41.71702191,-86.90774268,Central,1,P99V,55,63,45,87,58,49,51,56,44,35,32,37,33,31,31,29,27,26,29,23,30,19,21,,15,,1,24,1,Indiana,"Michigan City-La Porte, IN",SO2
18-097-0057,180970057,39.749019,-86.186314,Central,1,P99V,112,136,94,132,131,103,94,98,96,91,89,98,111,122,116,103,127,122,79,75,103.4,63,91.5,78.1,105.6,54.3,1,26,1,Indiana,"Indianapolis-Carmel-Anderson, IN",SO2
18-097-0073,180970073,39.78948561,-86.06084985,Central,1,P99V,,84,86,113,72,73,54,62,64,57,66,73,82,78,92,79,69,51,28.9,61.2,,59.5,56.1,42.3,59.1,,1,23,1,Indiana,"Indianapolis-Carmel-Anderson, IN",SO2
18-127-0011,181270011,41.63410887,-87.10147818,Central,1,P99V,145,76,66,71,67,62,57,73,70,69,62,53,57,53,59,74,55,62,82,51,,44,36,36,27,38.8,1,25,1,Indiana,"Chicago-Naperville-Elgin, IL-IN-WI",SO2
18-167-0018,181670018,39.48615002,-87.40139757,Central,2,P99V,133,142,105,138,119,95,107,84,120,120,99,104,69,83,130,100,99,90,120,114.5,61.4,95.2,72.5,79.1,85,71.3,1,26,1,Indiana,"Terre Haute, IN",SO2
18-167-1014,181671014,39.51476066,-87.40778678,Central,1,P99V,175,153,215,129,199,128,149,92,131,,143,204,129,143,134,138,104,133,137,142,169,139,128,103,120,103,1,25,1,Indiana,"Terre Haute, IN",SO2
19-045-0019,190450019,41.82328269,-90.21198242,Upper Midwest,1,P99V,363,338,,176,,72,51,70,52,55.9,81.9,36.2,23.5,30.2,29.4,52.7,50.4,41.8,28.8,44,,17.7,60.3,34.5,22,33,1,23,2,Iowa,"Clinton, IA",SO2
19-163-0015,191630015,41.53001062,-90.58761081,Upper Midwest,1,P99V,64,,,55,,51,42,53,51.5,45.2,46.4,36.1,24.9,29.9,,37.4,28.9,16.5,11.6,,,19,11.6,14.6,10.1,7.4,1,20,2,Iowa,"Davenport-Moline-Rock Island, IA-IL",SO2
21-059-0005,210590005,37.780776,-87.075307,Central,1,P99V,188,167,211,168,181,99,88,92,119,98,73,72,89,98,81,91,58,64,,43,68,40,37,45,48,,1,24,1,Kentucky,"Owensboro, KY",SO2
21-067-0012,210670012,38.06503,-84.49761,Central,1,P99V,44,68,67,72,63,54,39,39,45,45,48,70,32,43,42,39,,52,35,42,40,23,15,12,13,9,1,25,1,Kentucky,"Lexington-Fayette, KY",SO2
21-089-0007,210890007,38.548136,-82.731163,Central,1,P99V,,,130,141,147,58,54,55,71,78,59,54,45,46,57,54,43,41,35,28,41,49,14,12,16,13,1,24,1,Kentucky,"Huntington-Ashland, WV-KY-OH",SO2
21-111-1041,211111041,38.23158,-85.82678,Central,1,P99V,171,119,,120,162,93,97,90,136,107,,,128,119,111,143,138,171,122,96,100,35.4,,,41.6,24.9,1,21,1,Kentucky,"Louisville/Jefferson County, KY-IN",SO2
22-121-0001,221210001,30.500643,-91.213556,South,1,P99V,104,128,142,116,128,136,139,197,141,143,151,126,137,114,137,167,137,,133,140,87,48,32.2,27,25,17.8,1,25,5,Louisiana,"Baton Rouge, LA",SO2
25-005-1004,250051004,41.68570672,-71.16923467,Northeast,1,P99V,127,124,131,105,122,53,100,80,81,88,88,87,,61,58,70,67,56,55,53,84.3,64.9,65.4,61.9,13.4,9.9,1,25,3,Massachusetts,"Providence-Warwick, RI-MA",SO2
25-013-0016,250130016,42.10899231,-72.59080252,Northeast,1,P99V,70,77,88,60,77,54,52,39,,34,52,47,38,43,45,53,32,32,26,30,13,22,13.9,11,6.7,4.8,1,25,3,Massachusetts,"Springfield, MA",SO2
25-015-4002,250154002,42.29849268,-72.33407864,Northeast,1,P99V,49,33,31,24,81,21,22,,26,28,23,23,22,24,19,21,15,15,13,10.6,5.8,8.8,5.4,6.3,5.2,4.6,1,25,3,Massachusetts,"Springfield, MA",SO2
25-025-0002,250250002,42.34887271,-71.09716279,Northeast,1,P99V,90,63,86,82,75,,28,56,60,55,53,38,,,32,29,26,25,24,,21.1,19.3,13.2,12.2,9.7,5.5,1,22,3,Massachusetts,"Boston-Cambridge-Newton, MA-NH",SO2
26-163-0015,261630015,42.30278647,-83.10653043,Upper Midwest,1,P99V,,97,78,77,97,106,122,110,109,123,114,129,,122,130,125,130,,101,79,107,,80.2,65.6,71.5,55.2,1,22,2,Michigan,"Detroit-Warren-Dearborn, MI",SO2
27-037-0423,270370423,44.77553,-93.06299,Upper Midwest,1,P99V,,76,,,30,42,58,46,,18,15,10,9,11,10,15,15,12,15,7,13,9,9,5,7,4,1,22,2,Minnesota,"Minneapolis-St. Paul-Bloomington, MN-WI",SO2
27-163-0436,271630436,44.84737,-92.9954,Upper Midwest,1,P99V,128,210,197,125,108,88,93,43,,38,41,32,19,17,19,23,20,,19,14,17,9,7,14,9,7,1,24,2,Minnesota,"Minneapolis-St. Paul-Bloomington, MN-WI",SO2
29-077-0026,290770026,37.12263038,-93.26335336,Central,1,P99V,273,202,225,208,285,163,240,115,109,70,123,100,86,63,54,59,68,76,88,66,62,59.3,40.6,30.6,,13.9,1,25,1,Missouri,"Springfield, MO",SO2
29-095-0034,290950034,39.10475837,-94.57079559,Central,1,P99V,59.8,26.7,72,62.1,54.9,77.8,62,39,17,29,71,29,79,,143,139,170,160,177,175,,161.9,167,156.3,125.2,142,1,24,1,Missouri,"Kansas City, MO-KS",SO2
30-111-0066,301110066,45.786579,-108.45878,Northern Rockies,1,P99V,,335,336,349,,193,186,94,93,98,100,107,107,96,105,76,71,,89,72,91,,70,48,93,48,1,22,9,Montana,"Billings, MT",SO2
34-017-0006,340170006,40.67025,-74.126081,Northeast,1,P99V,64,57,62,39,63,46,43,49,41,46,41,55,38,47,52,59,37,,,33,26,27,,,10,5,1,22,3,New Jersey,"New York-Newark-Jersey City, NY-NJ-PA",SO2
34-017-1002,340171002,40.731645,-74.066308,Northeast,2,P99V,83,72,70,58,64,45,48,53,46,60,50,60,,61,65,64,49,30,28,22,19,22,11,8,9,4,1,25,3,New Jersey,"New York-Newark-Jersey City, NY-NJ-PA",SO2
34-027-3001,340273001,40.787628,-74.676301,Northeast,1,P99V,63,64,69,43,52,46,62,56,46,46,44,52,39,43,30,36,34,38,26,29,26,25,11,6,12,7,1,26,3,New Jersey,"New York-Newark-Jersey City, NY-NJ-PA",SO2
34-039-0003,340390003,40.662389,-74.214817,Northeast,2,P99V,70,58,53,43,49,41,42,35,34,37,42,39,34,43,38,36,27,,,22,11,,9,6,7,4,1,23,3,New Jersey,"New York-Newark-Jersey City, NY-NJ-PA",SO2
34-039-0004,340390004,40.64144,-74.208365,Northeast,2,P99V,88,74,67,58,60,44,,77,51,59,52,53,61,57,64,56,52,45,41,34,30,32,32,14,13,15,1,25,3,New Jersey,"New York-Newark-Jersey City, NY-NJ-PA",SO2
35-045-1005,350451005,36.796667,-108.4725,Southwest,1,P99V,185,163,216,243,,228,,319,339,204,,86,73,96,,82,74,75,20,25,14,20,24,25,14,,1,21,7,New Mexico,"Farmington, NM",SO2
36-029-0005,360290005,42.87690667,-78.80952601,Northeast,3,P99V,89,218,86,72,63,63,70,67,67,60,81,69,50,63,44,37,28,27,20,20,15,22.4,13.6,,8.3,11.1,1,25,3,New York,"Buffalo-Cheektowaga-Niagara Falls, NY",SO2
36-059-0005,360590005,40.74316,-73.58549,Northeast,3,P99V,82,75,76,51,72,45,62,65,47,59,55,43,44,44,40,,42,33,45,41,18,27.6,,,9.6,6,1,23,3,New York,"New York-Newark-Jersey City, NY-NJ-PA",SO2
36-067-1015,360671015,43.05235,-76.05921,Northeast,1,P99V,,,30,24,,24,23,21,21,21,26,19,16,20,22,19,16,16,13,14,10,8.6,7.1,5.1,5.1,4.4,1,23,3,New York,"Syracuse, NY",SO2
37-067-0022,370670022,36.110556,-80.226667,Southeast,1,P99V,70.5,97.2,60.6,84.6,72.4,70.5,62.5,80.4,89,59,67,73,107,71,98,,,67,27,18,15,9,11,4.9,12.7,,1,23,6,North Carolina,"Winston-Salem, NC",SO2
38-025-0003,380250003,47.3132,-102.5273,Northern Rockies,1,P99V,,11,18,20,21,23,,14,21,17,21,17,14,18,14,12,13,10,16,9.5,,,10,6.5,4.6,6,1,22,9,North Dakota,,SO2
38-057-0102,380570102,47.325,-101.765833,Northern Rockies,1,P99V,26,49,110,70,83,87,80,70,56,68,48,47,39,35,39,41,28,37,29,38,46,31,37,17,33,17,1,26,9,North Dakota,,SO2
38-057-0118,380570118,47.371667,-101.780833,Northern Rockies,1,P99V,,76,73,127,133,103,85,89,69,42,45,52,47,34,32,41,26,36,26,27,54,32,27,22,26,25,1,25,9,North Dakota,,SO2
38-065-0002,380650002,47.185833,-101.428056,Northern Rockies,1,P99V,,,68,,50,69,66,55,,88,65,,59,69,69,61,45,63,55,42,59,52,40,24,9.2,9,1,21,9,North Dakota,"Bismarck, ND",SO2
38-105-0105,381050105,48.392644,-102.910233,Northern Rockies,1,P99V,298,271,142,99,63,37,42,96,46,170,59,69,89,63,82,105,,,50,65,77,68,161,264,180,74,1,24,9,North Dakota,"Williston, ND",SO2
39-001-0001,390010001,38.79471,-83.53398,Central,1,P99V,136,132,126,146,132,85,69,77,85,115,77,82,89,99,102,121,70,74,59,80,43,30,29,24,24,12,1,26,1,Ohio,,SO2
39-007-1001,390071001,41.959695,-80.572808,Central,1,P99V,95,112,106,109,115,52,,96,68,86,50,56,55,44,36,39,40,31,36,34,20,19,53,29,17,37,1,25,1,Ohio,"Ashtabula, OH",SO2
39-023-0003,390230003,39.85567,-83.99773,Central,1,P99V,60,55,67,59,66.3,39.7,49,48,39,39,45,44,43,47,42,50,39,31,24,27,28,22,18,17,19,13,1,26,1,Ohio,"Springfield, OH",SO2
39-035-0038,390350038,41.477011,-81.682383,Central,2,P99V,183,243,209,213,225,123,150,133,,130,102,75,53,85,76,88,75,,81,60,76,78,83,63,65,59,1,24,1,Ohio,"Cleveland-Elyria, OH",SO2
39-035-0045,390350045,41.471782,-81.656792,Central,1,P99V,143,155,103,140,85,88,71,60,50,100,48,65,51,68,46,66,65,64,43,50,38,38,88,18,17,32,1,26,1,Ohio,"Cleveland-Elyria, OH",SO2
39-085-0003,390850003,41.673006,-81.422455,Central,1,P99V,101,91,110,95,115,,90,81,58,65,45,51,49,56,42,74,45,41,42,37,31,32,38,32,33,36,1,25,1,Ohio,"Cleveland-Elyria, OH",SO2
39-145-0013,391450013,38.75465,-82.917,Central,1,P99V,114,130,133,102,119,41,40,47,45,68,52,74,50,49,42,39,39,32,30,22,24,23,10,10,8,15,1,26,1,Ohio,"Portsmouth, OH",SO2
39-153-0017,391530017,41.063526,-81.468956,Central,1,P99V,161,183,181,209,132,123,133,155,143,158,163,132,145,167,172,140,138,46,34,31,27,24,22,23,21,14,1,26,1,Ohio,"Akron, OH",SO2
40-101-0167,401010167,35.793134,-95.302235,South,1,P99V,,89,105,92,96,76,115,70,59,75,69,84,62,75,85,68,84,45,70,40,30,94,,37,48,35,1,24,5,Oklahoma,"Muskogee, OK",SO2
40-143-0175,401430175,36.149877,-96.011664,South,2,P99V,129,,157,,,69,84,74,72,86,72,96,58,60,103,70,66,60,85,63,63,68,55,42,14,11,1,23,5,Oklahoma,"Tulsa, OK",SO2
42-003-0064,420030064,40.32376755,-79.8680624,Northeast,1,P99V,179,127,131,152,169,218,160,108,119,108,102,98,127,153,99,114,120,192,111,131,141,153,117,81,105,112,1,26,3,Pennsylvania,"Pittsburgh, PA",SO2
42-003-0067,420030067,40.37564363,-80.16994346,Northeast,1,P99V,120,110,134,125,153,83,76,112,100,75,102,,96,63,103,68,59,74,52,53,39,28,20,19,21,19,1,25,3,Pennsylvania,"Pittsburgh, PA",SO2
42-007-0002,420070002,40.56252018,-80.50394848,Northeast,1,P99V,,,210,,211,135,121,141,182,164,161,147,152,152,124,158,109,153,122,109,72,58,,21,29,24,1,22,3,Pennsylvania,"Pittsburgh, PA",SO2
42-013-0801,420130801,40.535278,-78.370833,Northeast,1,P99V,119,100,94,76,103,70,75,73,59,71,62,68,51,62,61,72,48,56,55,51,36,32,28,,,31,1,24,3,Pennsylvania,"Altoona, PA",SO2
42-017-0012,420170012,40.107222,-74.882222,Northeast,1,P99V,,59,51,59,68,46,48,41,47,37,43,38,45,46,34,43,35,34,26,32,24,22,15,,,8,1,23,3,Pennsylvania,"Philadelphia-Camden-Wilmington, PA-NJ-DE-MD",SO2
42-021-0011,420210011,40.309722,-78.915,Northeast,1,P99V,182,162,147,159,143,102,85,86,110,84,88,92,82,90,86,97,94,68,75,68,56,39,,,54,34,1,24,3,Pennsylvania,"Johnstown, PA",SO2
42-045-0002,420450002,39.835556,-75.3725,Northeast,1,P99V,88,72,72,67,85,70,63,63,64,55,69,52,65,63,49,54,49,,47,32,34,13,15,15,,9,1,24,3,Pennsylvania,"Philadelphia-Camden-Wilmington, PA-NJ-DE-MD",SO2
42-049-0003,420490003,42.14175,-80.038611,Northeast,1,P99V,203,134,,179,143,124,,120,151,171,96,124,88,85,72,80,44,38,38,36,28,20,,12,,17,1,22,3,Pennsylvania,"Erie, PA",SO2
42-073-0015,420730015,40.99584839,-80.34644186,Northeast,1,P99V,118,123,96,100,95,92,77,132,102,107,99,138,95,94,91,108,74,103,60,81,53,47,,,40,29,1,24,3,Pennsylvania,"New Castle, PA",SO2
42-079-1101,420791101,41.265556,-75.846389,Northeast,1,P99V,79,50,49,40,71,46,40,44,50,46,36,49,40,42,39,42,,40,36,26,17,13,,7,9,10,1,24,3,Pennsylvania,"Scranton--Wilkes-Barre--Hazleton, PA",SO2
42-091-0013,420910013,40.112222,-75.309167,Northeast,1,P99V,,68,42,56,66,,47,40,35,36,37,46,37,41,28,36,35,26,25,28,15,12,,8,5,6,1,23,3,Pennsylvania,"Philadelphia-Camden-Wilmington, PA-NJ-DE-MD",SO2
42-099-0301,420990301,40.456944,-77.165556,Northeast,1,P99V,41,45,49,44,47,50,43,40,33,34,38,33,30,38,34,37,35,29,45,27,18,10,9,9,,,1,24,3,Pennsylvania,"Harrisburg-Carlisle, PA",SO2
42-101-0004,421010004,40.008889,-75.09778,Northeast,4,P99V,90,70,80,80,80,60,60,54,53,58,44,48,49,52,47,,40,38,32.5,,17.9,12.8,7,7.5,,,1,22,3,Pennsylvania,"Philadelphia-Camden-Wilmington, PA-NJ-DE-MD",SO2
42-125-0005,421250005,40.146667,-79.902222,Northeast,1,P99V,102,127,140,90,154,115,67,81,73,81,77,123,88,95,88,75,74,90,75,100,26,22,,21,40,39,1,25,3,Pennsylvania,"Pittsburgh, PA",SO2
42-133-0008,421330008,39.965278,-76.699444,Northeast,1,P99V,109,103,115,101,88,74,74,105,97,83,78,48,58,52,108,112,93,107,96,89,27,34,19,,,30,1,24,3,Pennsylvania,"York-Hanover, PA",SO2
45-019-0046,450190046,32.941023,-79.657187,Southeast,2,P99V,,16.7,12.2,13.7,12.5,,20.9,23.2,20,,,21,29,26,28,28,27,16,26,15,13,7,9,5,,3.8,1,21,6,South Carolina,"Charleston-North Charleston, SC",SO2
45-063-0008,450630008,34.051017,-81.15495,Southeast,1,P99V,,154.8,117.8,101.4,,86.5,93.4,117.4,121,,67,86,108,112,90,102,92,95,95,59,85,47,33,31,62,21.2,1,23,6,South Carolina,"Columbia, SC",SO2
47-011-0102,470110102,35.28316433,-84.75937093,Central,1,P99V,102,83,,,79,64,80,94,158,115,92,127,124,,,81,107,68,161,,102,50,37,33,22.6,19.8,1,21,1,Tennessee,"Cleveland, TN",SO2
47-037-0011,470370011,36.205,-86.744722,Central,1,P99V,90,95,75,75,65,75,65,105,61,61,42,39,27,24,25,26,20,25,17,13,14,12,,,13,7,1,24,1,Tennessee,"Nashville-Davidson--Murfreesboro--Franklin, TN",SO2
47-107-0101,471070101,35.29733003,-84.75075965,Central,1,P99V,109,85,,,96,78,95,128,154,151,108,146,174,,118,107,,91,145,,73,65,75,43.6,28.4,12.1,1,21,1,Tennessee,"Athens, TN",SO2
47-125-0106,471250106,36.5051853,-87.39770812,Central,1,P99V,152,170,,286,150,48,73,63,58,44,45,78,46,72,52,58,184,105,31,24,51,,29,15,17,27,1,24,1,Tennessee,"Clarksville, TN-KY",SO2
47-163-0007,471630007,36.53480397,-82.5170779,Central,1,P99V,,230.8,,,206,192.6,165.5,,208.9,195.5,266.9,236.6,170,178.6,250.2,187.8,186.8,137.3,183.3,158.5,231.5,198.8,163.4,84.5,159.1,97.9,1,22,1,Tennessee,"Kingsport-Bristol-Bristol, TN-VA",SO2
48-201-0046,482010046,29.828086,-95.284096,South,1,P99V,80,50,60,74,48,69,57,51,43,46,,28,,50,34,41,37,24,40,19.1,9.6,11.1,8.2,9.8,7.1,8,1,24,5,Texas,"Houston-The Woodlands-Sugar Land, TX",SO2
48-201-0051,482010051,29.623889,-95.474167,South,2,P99V,50,50,,45,43,50,43,45,42,45,,35,,41,32,30,35,28,22,20,22.1,24.2,12.9,17.4,25.4,23.1,1,23,5,Texas,"Houston-The Woodlands-Sugar Land, TX",SO2
48-201-0062,482010062,29.625556,-95.267222,South,1,P99V,60,70,60,55,56,58,65,48,44,48,46,48,,50,46,58,61,47,37,18,26.2,21.2,11.7,14.7,11.4,5,1,25,5,Texas,"Houston-The Woodlands-Sugar Land, TX",SO2
48-201-1035,482011035,29.733726,-95.257593,South,2,P99V,130,110,110,97,90,98,93,125,83,97,111,92,,89,91,94,69,61,39,41,42.6,41.1,29.2,21.4,18.6,7.4,1,25,5,Texas,"Houston-The Woodlands-Sugar Land, TX",SO2
48-245-0009,482450009,30.036422,-94.071061,South,1,P99V,,210,130,,254,124,140,128,115,92,171,115,109,84,107,84,195,90,60,90.4,81.3,26.3,44.2,16.7,15.6,12.6,1,24,5,Texas,"Beaumont-Port Arthur, TX",SO2
48-245-0011,482450011,29.897516,-93.991084,South,1,P99V,190,190,110,110,,83,106,118,115,99,98,66,49,71,53,73,127,84,83.3,73.5,69.5,62.3,,50.3,57.2,63.4,1,24,5,Texas,"Beaumont-Port Arthur, TX",SO2
48-355-0025,483550025,27.76534,-97.434262,South,1,P99V,70,70,,110,93,96,50,39,47,40,33,28,28,39,40,33,22,17,23.5,12.1,16,8.6,4.7,,,3.4,1,23,5,Texas,"Corpus Christi, TX",SO2
49-035-1001,490351001,40.708611,-112.094722,Southwest,4,P99V,199,,73,,75,62,35,29,28,28,27,35,22,25,33,32,31,33,29,28,26,18,20,26,,,1,22,7,Utah,"Salt Lake City, UT",SO2
50-021-0002,500210002,43.608056,-72.982778,Northeast,1,P99V,,95,101,89,,62,63,83,64,41,57,43.3,55.9,,,53.8,43.8,47.2,32.8,27.1,21.4,26.7,16.1,9.9,14.1,2.3,1,22,3,Vermont,"Rutland, VT",SO2
51-036-0002,510360002,37.34438,-77.25925,Southeast,1,P99V,,,83,110,109,83,94,78,80,66,75,80,92,84,79,94,78,94,58,47,44,37.7,20.8,29.9,,28.7,1,23,6,Virginia,"Richmond, VA",SO2
51-161-1004,511611004,37.28342,-79.88452,Southeast,1,P99V,30,30,32,37,26,23,19,22,24,21,19,18,19,17,16,15,22,,12,10,10,8.6,4.5,,5.5,4.5,1,24,6,Virginia,"Roanoke, VA",SO2
54-009-0005,540090005,40.34102279,-80.59663523,Central,1,P99V,246,235,253,312,226,146,156,228,228,226,142,169,145,189,153,189,131,131,168,82,131,143,71,49,33,49,1,26,1,West Virginia,"Weirton-Steubenville, WV-OH",SO2
54-011-0006,540110006,38.424133,-82.4259,Central,1,P99V,,155,98,100,111,45,60,59,60,57,49,56,42,45,48,44,38,43,50,25,31,,16,,,15,1,22,1,West Virginia,"Huntington-Ashland, WV-KY-OH",SO2
54-029-0005,540290005,40.52902068,-80.57606696,Central,1,P99V,304,,273,317,,140,162,169,208,177,198,174,207,271,193,148,136,208,154,139,85,33,24,29,34,39,1,24,1,West Virginia,"Weirton-Steubenville, WV-OH",SO2
54-029-0007,540290007,40.46013843,-80.57656719,Central,1,P99V,,268,311,300,,166,166,172,157,191,186,164,139,187,169,121,142,134,147,113,50,,34,23,29,,1,22,1,West Virginia,"Weirton-Steubenville, WV-OH",SO2
54-029-1004,540291004,40.42153887,-80.58071745,Central,1,P99V,486,357,353,443,809,303,193,237,225,193,194,156,127,165,160,129,138,140,144,97,51,63,45,26,28,,1,25,1,West Virginia,"Weirton-Steubenville, WV-OH",SO2
54-051-1002,540511002,39.91596097,-80.73385802,Central,1,P99V,,,286,299,,278,241,309,290,284,177,191,137,154,175,157,147,161,113,61,101,79,55,,43,38,1,22,1,West Virginia,"Wheeling, WV-OH",SO2
54-061-0003,540610003,39.649367,-79.920867,Central,1,P99V,171,246,,,174,148,165,158,209,200,186,197,282,176,182,140,181,193,130,182,24,22,16,14,15,16,1,24,1,West Virginia,"Morgantown, WV",SO2
54-107-1002,541071002,39.323533,-81.552367,Central,1,P99V,,265,276,233,303,232,244,269,373,329,193,163,125,131,171,167,97,128,149,119,84,,24,25,31,28,1,24,1,West Virginia,"Parkersburg-Vienna, WV",SO2
55-009-0005,550090005,44.50729,-87.99344,Upper Midwest,1,P99V,106,128,111,69,71,74,66,96,61,65,87,67,,,53,78,68,77,78,67,69,72.2,71.6,76.1,78.8,68.9,1,24,2,Wisconsin,"Green Bay, WI",SO2
55-085-0996,550850996,45.64505,-89.41848,Upper Midwest,1,P99V,214,237,,191,184,172,153,185,175,187,179,153,160,135,154,165,146,226,217,145,162,146.7,174,153.1,162.2,156.2,1,25,2,Wisconsin,,SO2
