AQS_Site_ID,SITE,Latitude,Longitude,noaa_region,poc,stat,val2000,val2001,val2002,val2003,val2004,val2005,val2006,val2007,val2008,val2009,val2010,val2011,val2012,val2013,val2014,val2015,trendsite,nyrs,region,State,CBSA,Parameter_Name
01-003-0010,10030010,30.49800105,-87.88141232,Southeast,0,P98V,36,21.5,22.9,29.1,27.5,26,25.7,22.4,20.2,,20,20.3,18.4,16.8,17.3,18,1,15,6,Alabama,"Daphne-Fairhope-Foley, AL",PM2.5
01-027-0001,10270001,33.28126104,-85.80218174,Southeast,0,P98V,43.1,28.5,27,30.5,31.4,35.5,28.7,39.7,21.2,20.7,21.7,22.3,19.8,16.3,17.2,25.1,1,16,6,Alabama,,PM2.5
01-033-1002,10331002,34.75878062,-87.65056202,Southeast,0,P98V,32.4,28.7,33.5,29.1,30.6,31.7,28.9,34.9,25.4,20.7,19,21.3,18.2,17.3,21.2,16.2,1,16,6,Alabama,"Florence-Muscle Shoals, AL",PM2.5
01-049-1003,10491003,34.28762655,-85.96829849,Southeast,0,P98V,50.8,31.1,31.8,31.4,33,33.1,31.7,30,26,21.1,21.5,23.4,16.8,18.6,19.2,18.5,1,16,6,Alabama,"Fort Payne, AL",PM2.5
01-055-0010,10550010,33.9937492,-85.99107201,Southeast,0,P98V,50.5,,33.7,29.4,35.2,39.2,32.9,37.8,28.3,21.4,23.6,24.7,16.5,18.8,19.1,18.2,1,15,6,Alabama,"Gadsden, AL",PM2.5
01-073-0023,10730023,33.553056,-86.815,Southeast,0,P98V,52.5,42.8,37.6,39.1,42.3,50.3,39.6,49.4,33.5,24.4,28.7,27.9,22.6,20.3,25.9,22.5,1,16,6,Alabama,"Birmingham-Hoover, AL",PM2.5
01-073-1005,10731005,33.331111,-87.003611,Southeast,0,P98V,38.1,32.9,35.7,33.7,37.3,35.5,33.9,42.1,25.8,21.3,22.7,26.2,20.8,19.6,,18.5,1,15,6,Alabama,"Birmingham-Hoover, AL",PM2.5
01-073-2003,10732003,33.499722,-86.924167,Southeast,0,P98V,50.4,42.7,35.8,35.3,37.8,44.5,40.3,44.2,33.5,25.2,25.4,25.9,22.7,20.6,21.5,18.6,1,16,6,Alabama,"Birmingham-Hoover, AL",PM2.5
01-089-0014,10890014,34.68767,-86.58637,Southeast,0,P98V,41.5,29.7,34.1,26.9,32.2,40.4,29.8,34,27.5,20.5,20.2,25.1,18.5,16.2,21.2,17.2,1,16,6,Alabama,"Huntsville, AL",PM2.5
01-103-0011,11030011,34.51873526,-86.97693915,Southeast,0,P98V,,,30.9,29.5,28.7,36.1,29.3,40.3,27.3,19.3,18.9,23.9,18.2,15.8,21.1,17.4,1,14,6,Alabama,"Decatur, AL",PM2.5
01-113-0001,11130001,32.4722,-85.0051,Southeast,0,P98V,41.6,33.8,35,32,40.1,38.8,29.3,53,34.3,26.7,26.3,29.5,24.2,22,20.4,17,1,16,6,Alabama,"Columbus, GA-AL",PM2.5
01-117-0006,11170006,33.3129265,-86.821104,Southeast,0,P98V,39.1,29.6,32.7,30.8,35.6,32.9,30,39.7,24.8,21.2,20,25,18.2,17.3,20.4,,1,15,6,Alabama,"Birmingham-Hoover, AL",PM2.5
01-121-0002,11210002,33.27974688,-86.34943848,Southeast,0,P98V,44.7,31.1,30.4,31,35.4,34,,34.5,28.5,23.9,20.9,24.9,20.6,16.8,18.5,21.6,1,15,6,Alabama,"Talladega-Sylacauga, AL",PM2.5
02-020-0018,20200018,61.205861,-149.824602,Southeast,0,P98V,12.2,20,15.8,16,31.9,17.9,26.9,14.5,17.3,24.6,23.9,17.3,28.4,15.7,19.2,18.4,1,16,6,Alaska,"Anchorage, AK",PM2.5
02-090-0010,20900010,64.84067202,-147.7224613,Southeast,0,P98V,63.5,43.4,43.4,32.7,468.6,,42.2,33.1,46.7,89.7,51.8,38,49.6,39.4,34.5,57.1,1,15,6,Alaska,"Fairbanks, AK",PM2.5
02-110-0004,21100004,58.38849712,-134.5672365,Southeast,0,P98V,24.1,25.9,19.8,,26.1,35.4,33,39.6,30.2,29,27.3,24.8,23.5,22.7,27.5,21,1,15,6,Alaska,"Juneau, AK",PM2.5
02-170-0008,21700008,61.534163,-149.031655,Southeast,0,P98V,27.8,29.3,34.6,30.3,,25.2,40,20.1,30.8,,37.5,30.2,33.4,27.9,39.5,37.9,1,14,6,Alaska,"Anchorage, AK",PM2.5
04-003-1005,40031005,31.3492,-109.539683,Southwest,0,P98V,38.5,,13.9,,22.5,16,14,10.7,13.6,13.5,13.5,13,12.1,12.2,15.9,10.5,1,14,7,Arizona,"Sierra Vista-Douglas, AZ",PM2.5
04-013-0019,40130019,33.48385,-112.14257,Southwest,0,P98V,,30.4,36.2,25.9,31.5,40.5,28.8,27.2,24.3,29.4,21.8,30.5,26.1,28.5,28.3,27.5,1,15,7,Arizona,"Phoenix-Mesa-Scottsdale, AZ",PM2.5
04-013-9997,40139997,33.503833,-112.095767,Southwest,0,P98V,32.1,25,31.9,24.2,27.6,28.2,24.6,23.5,17.8,24,15.9,27,19,21.6,22.5,23.2,1,16,7,Arizona,"Phoenix-Mesa-Scottsdale, AZ",PM2.5
04-019-0011,40190011,32.32266142,-111.0383893,Southwest,0,P98V,12.8,20.4,16.7,13.7,12.4,12,11.2,13.6,11.7,10.8,10.1,12,12.5,12.2,16.7,9.8,1,16,7,Arizona,"Tucson, AZ",PM2.5
04-019-1028,40191028,32.29515,-110.9823,Southwest,0,P98V,11.1,15.1,20.2,13.2,10.3,10.7,12.1,12,11.7,12,11.5,13.1,10.4,15.5,12.6,10.4,1,16,7,Arizona,"Tucson, AZ",PM2.5
04-021-0001,40210001,32.877583,-111.752222,Southwest,0,P98V,18.9,16.7,20.8,26.7,13.7,16.9,15.4,22.4,22,17.3,21.4,22.3,18.5,16.6,16.8,16.8,1,16,7,Arizona,"Phoenix-Mesa-Scottsdale, AZ",PM2.5
04-021-3002,40213002,33.421194,-111.503222,Southwest,0,P98V,18,13.1,13.1,21.1,10.3,10.6,9.3,14.6,15.4,11.9,11.9,41.9,14,12.5,11.8,8.9,1,16,7,Arizona,"Phoenix-Mesa-Scottsdale, AZ",PM2.5
04-023-0004,40230004,31.337204,-110.936718,Southwest,0,P98V,34.4,25.7,25.4,35,25.1,33,56.2,28.2,35.8,29.7,31.6,27.2,25.9,27.2,29,27.2,1,16,7,Arizona,"Nogales, AZ",PM2.5
05-001-0011,50010011,34.51851484,-91.5589605,South,0,P98V,,,31.2,24.9,26.1,36.3,23.9,28.7,27.4,21.1,23.4,22.2,18.5,22.1,22.4,19.7,1,14,5,Arkansas,,PM2.5
05-003-0005,50030005,33.13686247,-91.95037704,South,0,P98V,,,27.4,22.6,23.4,36.7,27.7,25.3,23.5,18.5,20.4,26.9,21,20.6,22.6,17.3,1,14,5,Arkansas,,PM2.5
05-113-0002,51130002,34.58369859,-94.22623447,South,0,P98V,26.3,25.5,28.9,22.7,22.9,29.9,23.8,29.4,21.7,20.4,21.6,22.2,22.6,22.6,22,17.7,1,16,5,Arkansas,,PM2.5
05-119-0007,51190007,34.7561888,-92.28129586,South,0,P98V,33.5,32,31.9,26.1,28,39.3,25.5,29.5,25.6,22.8,22.2,24.9,22.6,20.7,21.9,20.4,1,16,5,Arkansas,"Little Rock-North Little Rock-Conway, AR",PM2.5
05-119-1004,51191004,34.72960343,-92.24358667,South,0,P98V,,32.7,32.5,29.1,30.4,37.7,25.1,34.2,29.4,24.2,22.8,25.8,25.8,28.6,22.1,21.4,1,15,5,Arkansas,"Little Rock-North Little Rock-Conway, AR",PM2.5
06-001-0007,60010007,37.687526,-121.784217,West,0,P98V,49.7,77.7,51.6,27.1,38.1,29.2,49.7,49.2,34.5,33.6,28.4,27,22.2,32.3,25.3,26.5,1,16,8,California,"San Francisco-Oakland-Hayward, CA",PM2.5
06-009-0001,60090001,38.20185228,-120.6815666,West,0,P98V,30,18,30,19,21,18,23,24,48.8,9.7,14.7,25.5,15.5,24.4,18.1,22.7,1,16,8,California,,PM2.5
06-011-1002,60111002,39.20293486,-122.0177276,West,0,P98V,26,31,54,27,34,16,30,28,35.2,14.6,,29.3,20.8,23,19.5,23.6,1,15,8,California,,PM2.5
06-013-0002,60130002,37.936013,-122.026154,West,0,P98V,45.8,67.2,63,36.1,42.5,40.5,38.5,37.8,31.1,32.5,30.9,27.6,22.5,21.7,20.5,28,1,16,8,California,"San Francisco-Oakland-Hayward, CA",PM2.5
06-019-5001,60195001,36.81911052,-119.7173558,West,0,P98V,72.5,76.2,53.5,,56,67.1,60.5,61.2,49.7,49,44.3,68.5,48,56.2,64.5,45.7,1,15,8,California,"Fresno, CA",PM2.5
06-019-5025,60195025,36.72639,-119.733,West,0,P98V,65.1,72.1,73,52,52.1,74.1,65,57.9,46.4,52.3,40.2,67.5,51.3,71.6,61.8,42,1,16,8,California,"Fresno, CA",PM2.5
06-023-1002,60231002,40.80178,-124.1621,West,0,P98V,21.5,29,22.6,,23.1,,25.7,27.2,21.5,23.2,17.4,18.7,17.3,24,,,1,12,8,California,"Eureka-Arcata-Fortuna, CA",PM2.5
06-025-0005,60250005,32.67618614,-115.484144,West,0,P98V,56,50.4,44.1,44.3,31.9,41.1,46,38.5,24,,31.7,32.4,30.7,27.4,36.3,34.6,1,15,8,California,"El Centro, CA",PM2.5
06-025-1003,60251003,32.79222,-115.56306,West,0,P98V,,17.6,23.4,21,25.1,22.1,27.1,18.2,17,17.9,13.4,29.4,18.3,19,19.6,14.1,1,15,8,California,"El Centro, CA",PM2.5
06-027-1003,60271003,36.487823,-117.871036,West,0,P98V,,23,62,15,22,13,22,35,44,36,28,43.7,28.1,39,28.6,23.9,1,15,8,California,"Bishop, CA",PM2.5
06-029-0011,60290011,35.05055135,-118.1472936,West,0,P98V,,13.9,27.3,15,,15.7,12.5,19.9,17.8,11.2,9,17.6,21.8,33.7,25.4,12.7,1,14,8,California,"Bakersfield, CA",PM2.5
06-029-0014,60290014,35.35609233,-119.0412095,West,0,P98V,92.7,94.9,73,48.3,61.5,63.2,60.5,73,64.5,66.7,53.3,65.5,56.4,71.8,79.9,57.2,1,16,8,California,"Bakersfield, CA",PM2.5
06-029-0015,60290015,35.62109,-117.67296,West,0,P98V,25.4,,28,11.9,15.2,16.2,13,22.4,17.2,12.6,12,,,10.9,,11.2,1,12,8,California,"Bakersfield, CA",PM2.5
06-029-0016,60290016,35.32292838,-118.9991668,West,0,P98V,76.5,90.6,66.8,47.5,47.6,66.4,64.7,72.2,72.3,65.5,56.2,43.2,40.6,96.7,76.7,56.5,1,16,8,California,"Bakersfield, CA",PM2.5
06-031-0004,60310004,36.10218017,-119.566954,West,0,P98V,55.1,120.6,77.4,48.5,49.6,77.8,63.8,59.5,47.9,53.4,47.2,,,66,71,,1,13,8,California,"Hanford-Corcoran, CA",PM2.5
06-037-0002,60370002,34.1365,-117.92391,West,0,P98V,61.6,61.4,52.6,55.5,53.8,53.2,38.4,49.2,34.8,42.9,35.4,30.6,25.6,26.4,29.9,30,1,16,8,California,"Los Angeles-Long Beach-Anaheim, CA",PM2.5
06-037-1002,60371002,34.17605,-118.31712,West,0,P98V,,69.4,55.2,60.1,49.3,50.5,43.4,50.3,34.6,36.9,31.8,33.5,28.2,30.4,,,1,13,8,California,"Los Angeles-Long Beach-Anaheim, CA",PM2.5
06-037-1103,60371103,34.06659,-118.22688,West,0,P98V,72.8,58.1,55.3,61.3,54.3,53.3,38.9,51.2,40.3,33.9,27.1,31.5,32,29,34.5,38,1,16,8,California,"Los Angeles-Long Beach-Anaheim, CA",PM2.5
06-037-1201,60371201,34.19925,-118.53276,West,0,P98V,50,56.9,45.4,44.7,53.2,35.7,31.9,33.3,26.1,27.2,33.8,23.6,31.2,23,,28.4,1,15,8,California,"Los Angeles-Long Beach-Anaheim, CA",PM2.5
06-037-2005,60372005,34.1326,-118.1272,West,0,P98V,54,55.3,49.1,48.4,46.5,43,32,45.4,32.1,35.6,24,29.8,25.7,,26.2,32.4,1,15,8,California,"Los Angeles-Long Beach-Anaheim, CA",PM2.5
06-037-4002,60374002,33.82376,-118.18921,West,0,P98V,64.3,49.2,47.1,46.5,45.8,41.4,34.9,40.7,38.8,34.1,28.3,27.8,26.5,26.1,31.3,32.1,1,16,8,California,"Los Angeles-Long Beach-Anaheim, CA",PM2.5
06-045-0006,60450006,39.15047,-123.20655,West,0,P98V,18.7,27,39.7,15.2,14.4,15.2,17.4,13.3,31,19.6,14,15.4,15.4,,14.4,21.9,1,15,8,California,"Ukiah, CA",PM2.5
06-047-2510,60472510,37.30853718,-120.4809933,West,0,P98V,68.4,49.3,57.6,44.7,46.9,48.6,52.5,53,,49.8,39.1,38.5,41.8,67.3,45.9,39,1,15,8,California,"Merced, CA",PM2.5
06-053-1003,60531003,36.69676011,-121.6371823,West,0,P98V,21.5,21.7,22.8,14,15.5,14.2,13,15.6,13.8,13.6,14.3,13.6,13.2,15.8,11.8,11.9,1,16,8,California,"Salinas, CA",PM2.5
06-059-0007,60590007,33.83062,-117.93845,West,0,P98V,,,48.1,51.8,48.2,41.8,36.9,46.5,31.2,32.1,25.2,28.1,25,22.7,30.8,29.8,1,14,8,California,"Los Angeles-Long Beach-Anaheim, CA",PM2.5
06-059-2022,60592022,33.63003,-117.67593,West,0,P98V,36.5,45.6,45.8,37.6,38.5,31.4,25.7,35.7,27,23.8,17.3,28.8,17.6,17.5,21.6,15.1,1,16,8,California,"Los Angeles-Long Beach-Anaheim, CA",PM2.5
06-061-0006,60610006,38.74572642,-121.2663119,West,0,P98V,43,49,40,26,30,28,36,27,26.6,21.3,20.3,23,14.9,18.9,20.6,20.1,1,16,8,California,"Sacramento--Roseville--Arden-Arcade, CA",PM2.5
06-065-1003,60651003,33.94603,-117.40063,West,0,P98V,66.8,65.8,63.7,56.2,53.7,41,47.7,58,39,33.9,27.3,28,26.8,29.2,26,,1,15,8,California,"Riverside-San Bernardino-Ontario, CA",PM2.5
06-065-2002,60652002,33.70853,-116.21537,West,0,P98V,26.2,29.8,22.2,24.9,26.8,25,19,26.5,18.7,17,12.2,15.6,16.4,15.9,16.5,19.7,1,16,8,California,"Riverside-San Bernardino-Ontario, CA",PM2.5
06-065-5001,60655001,33.85275,-116.54101,West,0,P98V,22.6,33,23.3,20,23.3,,15.8,20.5,17.1,14.6,12.6,12.5,13.7,13.8,13.2,17.1,1,15,8,California,"Riverside-San Bernardino-Ontario, CA",PM2.5
06-065-8001,60658001,33.99958,-117.41601,West,0,P98V,77.1,74.3,66.3,76.6,59.5,58.3,53.7,54.3,41,39.6,32,31,33.7,34.6,34.3,38.1,1,16,8,California,"Riverside-San Bernardino-Ontario, CA",PM2.5
06-067-0010,60670010,38.55822772,-121.4929812,West,0,P98V,49,53,63,38,37,47,39,43,46.4,27.2,27.3,45.1,20.5,33.4,23.4,32.5,1,16,8,California,"Sacramento--Roseville--Arden-Arcade, CA",PM2.5
06-067-4001,60674001,38.556326,-121.458499,West,0,P98V,,,62,37,36,46,40,47,47.6,34.9,26.5,44.8,20.5,35.9,24,29.1,1,14,8,California,"Sacramento--Roseville--Arden-Arcade, CA",PM2.5
06-071-0025,60710025,34.037222,-117.69,West,0,P98V,64.5,64.5,57.4,66.9,59.9,49.5,41.5,48.9,45,35.9,31.2,35.3,28.6,26.8,,,1,14,8,California,"Riverside-San Bernardino-Ontario, CA",PM2.5
06-071-2002,60712002,34.10002,-117.49201,West,0,P98V,64.7,69.5,56.5,53.6,62.6,48.2,43.7,64.9,47.1,32.6,30.8,28.2,35.6,33.1,34.5,37.7,1,16,8,California,"Riverside-San Bernardino-Ontario, CA",PM2.5
06-071-9004,60719004,34.10688,-117.27411,West,0,P98V,70.3,68.4,66.3,58.4,72.4,43.4,47.7,70.7,40,35.2,29.7,32.5,27.1,33.4,28.1,33.6,1,16,8,California,"Riverside-San Bernardino-Ontario, CA",PM2.5
06-073-0001,60730001,32.631231,-117.059075,West,0,P98V,32.5,31,36,39.2,30.7,30.2,24,36.1,28.4,22.2,19.4,18.6,24.3,18,19.3,18.9,1,16,8,California,"San Diego-Carlsbad, CA",PM2.5
06-073-0003,60730003,32.791194,-116.942092,West,0,P98V,48.8,41.9,36.7,36.9,43.1,29.7,30.8,31.8,30.2,22.9,22.6,21.7,22.4,21.5,,,1,14,8,California,"San Diego-Carlsbad, CA",PM2.5
06-073-1002,60731002,33.127711,-117.075325,West,0,P98V,50.7,43.9,43.5,35.8,41.1,39.5,31.8,52.7,33.7,25.2,21.7,22,19.9,24.3,25.9,,1,15,8,California,"San Diego-Carlsbad, CA",PM2.5
06-075-0005,60750005,37.765946,-122.399044,West,0,P98V,,55.4,66.2,36.3,36.1,39.4,32.7,35.7,26.8,29.4,24.4,26.4,21.5,27.8,20.3,26.6,1,15,8,California,"San Francisco-Oakland-Hayward, CA",PM2.5
06-077-1002,60771002,37.9507409,-121.2685227,West,0,P98V,55,58,50,41,36,44,42,48,61.6,40.4,29.7,44.8,33.9,56.3,44.5,39.1,1,16,8,California,"Stockton-Lodi, CA",PM2.5
06-079-8001,60798001,35.49158,-120.66804,West,0,P98V,41,50.7,25.7,21.4,19.6,25.2,22.2,22.7,20.2,26.4,16,22.2,15.7,23.2,20.2,,1,15,8,California,"San Luis Obispo-Paso Robles-Arroyo Grande, CA",PM2.5
06-081-1001,60811001,37.482934,-122.20337,West,0,P98V,44,50.9,37.8,30.6,29.1,29.4,34.8,33,26.8,28,24.8,24.2,20.9,28.5,20.7,22,1,16,8,California,"San Francisco-Oakland-Hayward, CA",PM2.5
06-083-1008,60831008,34.94914718,-120.4376299,West,0,P98V,19.3,23.4,19.4,16.1,12.9,,12.7,16,15.1,14,13.4,14.5,16.8,15.9,15.2,16.3,1,15,8,California,"Santa Maria-Santa Barbara, CA",PM2.5
06-087-0007,60870007,36.98392099,-121.9893282,West,0,P98V,17.9,23.1,22,13.6,,,12.5,15.7,12.5,12,12.7,14,11.8,14.3,12.2,10.1,1,14,8,California,"Santa Cruz-Watsonville, CA",PM2.5
06-089-0004,60890004,40.54998468,-122.3820114,West,0,P98V,,29,40,16,18,19,29,16.8,97.1,19.5,10.3,15.5,17,17.5,13.8,19.7,1,15,8,California,"Redding, CA",PM2.5
06-095-0004,60950004,38.102507,-122.237976,West,0,P98V,60.1,78,71.2,27.3,38.6,41,40.5,40,40.5,37.1,25.5,31,21.4,32.8,24.4,30.7,1,16,8,California,"Vallejo-Fairfield, CA",PM2.5
06-097-0003,60970003,38.443503,-122.710169,West,0,P98V,39.5,41.9,47.4,30.8,25.2,32.6,32.4,30.5,29.8,25.9,22.2,23.4,19,23.3,,,1,14,8,California,"Santa Rosa, CA",PM2.5
06-099-0005,60990005,37.64158322,-120.9946222,West,0,P98V,71,69,69,47,45,55,52,57.4,53.9,54.5,37.3,54.7,40.8,56.4,49.5,30.8,1,16,8,California,"Modesto, CA",PM2.5
06-101-0003,61010003,39.13877254,-121.618549,West,0,P98V,38,54,34,29,38,42,41,34,64.6,27.5,17.1,37.1,23.7,25.1,24.8,31.4,1,16,8,California,"Yuba City, CA",PM2.5
06-107-2002,61072002,36.33217931,-119.2912276,West,0,P98V,103,96,70,47,54,65,50,59.7,62.1,53.9,36.3,50.7,53.8,62.5,75.4,45.8,1,16,8,California,"Visalia-Porterville, CA",PM2.5
06-111-0007,61110007,34.210154,-118.870496,West,0,P98V,42.4,41.7,28.8,27.9,35.4,22.5,23.4,24.9,20.7,21.1,21.3,18.8,21.3,19.5,19,21.5,1,16,8,California,"Oxnard-Thousand Oaks-Ventura, CA",PM2.5
06-111-0009,61110009,34.404268,-118.809946,West,0,P98V,,32.6,28.9,23,22.4,20.3,21.4,22.3,17,18.8,16.3,16.6,19.1,17.4,18.1,19.8,1,15,8,California,"Oxnard-Thousand Oaks-Ventura, CA",PM2.5
06-111-2002,61112002,34.276362,-118.683757,West,0,P98V,42.4,40,35.2,33.4,36.7,26.3,27.6,31.8,25.7,20.5,17.4,19.5,17.5,23,20,22,1,16,8,California,"Oxnard-Thousand Oaks-Ventura, CA",PM2.5
06-111-3001,61113001,34.252378,-119.143176,West,0,P98V,31.8,32.4,27.9,28.7,27,23.8,23.5,27.5,19.7,18.9,16.5,17.4,17,17.7,17.8,21.5,1,16,8,California,"Oxnard-Thousand Oaks-Ventura, CA",PM2.5
06-113-1003,61131003,38.66121,-121.73269,West,0,P98V,38,35,31,28,31,24,36,39.5,23.7,27.4,18.6,25.8,14.2,22,13.2,20.8,1,16,8,California,"Sacramento--Roseville--Arden-Arcade, CA",PM2.5
08-001-0006,80010006,39.826007,-104.937438,Southwest,0,P98V,,30.9,24.5,25,23,21.9,25.7,40.1,24.9,21.7,22.2,19.5,25.4,23,28.2,,1,14,7,Colorado,"Denver-Aurora-Lakewood, CO",PM2.5
08-005-0005,80050005,39.604399,-105.019526,Southwest,0,P98V,21.4,25.2,23.4,24,20.6,22,19.2,21.9,16.2,16.4,15,12.2,28.1,21.8,17.2,22.9,1,16,7,Colorado,"Denver-Aurora-Lakewood, CO",PM2.5
08-013-0003,80130003,40.164576,-105.100856,Southwest,0,P98V,21.1,26.5,21.6,28.6,21.7,16.7,20,28,23,19,23,18.8,27.6,22.7,26.2,23.4,1,16,7,Colorado,"Boulder, CO",PM2.5
08-013-0012,80130012,40.021097,-105.263382,Southwest,0,P98V,19.1,19.2,24.3,19.3,18.7,18.4,15.7,25,17.1,15.1,22.2,12.8,17.1,17,15.8,18.4,1,16,7,Colorado,"Boulder, CO",PM2.5
08-031-0002,80310002,39.751184,-104.987625,Southwest,0,P98V,27.9,37.2,24.5,26.3,22.9,29.4,24.3,29.1,20.4,18,19,19.4,18.8,20.3,22.6,22.5,1,16,7,Colorado,"Denver-Aurora-Lakewood, CO",PM2.5
08-069-0009,80690009,40.571288,-105.079693,Southwest,0,P98V,19.7,24.7,18,15.8,20,16.2,20.2,19.9,18.2,16.6,21.5,15.1,26.2,17.7,20,26.5,1,16,7,Colorado,"Fort Collins, CO",PM2.5
08-123-0006,81230006,40.414877,-104.70693,Southwest,0,P98V,21.7,32.7,20.7,20.7,24.7,20.7,22.7,28.5,20,25.7,20.4,22.5,32,20.5,26.5,25.8,1,16,7,Colorado,"Greeley, CO",PM2.5
08-123-0008,81230008,40.209387,-104.82405,Southwest,0,P98V,20.4,35.7,25.9,18.8,16.8,17.8,22.3,31,23.2,23,17.2,20.4,21.5,19.7,32.3,29.2,1,16,7,Colorado,"Greeley, CO",PM2.5
09-001-0010,90010010,41.170833,-73.194722,Northeast,0,P98V,41.5,40.1,35.3,39.6,34.2,38.3,36.7,30.2,32.3,29.3,23.3,23.7,21.5,22.5,25,23.9,1,16,3,Connecticut,"Bridgeport-Stamford-Norwalk, CT",PM2.5
09-001-1123,90011123,41.399167,-73.443056,Northeast,0,P98V,32.9,35.2,33,37.3,27.5,33.4,33.8,30.4,27.5,27.6,25.7,24.8,21.6,27.4,22.1,25.6,1,16,3,Connecticut,"Bridgeport-Stamford-Norwalk, CT",PM2.5
09-001-9003,90019003,41.118333,-73.336667,Northeast,0,P98V,33.4,34.5,33.1,44,30.9,35.2,31.3,29,30.7,26.4,24.2,28.7,19.5,21.2,21.1,23.8,1,16,3,Connecticut,"Bridgeport-Stamford-Norwalk, CT",PM2.5
09-003-1003,90031003,41.784722,-72.631667,Northeast,0,P98V,32.3,32.8,38.4,35,28.9,34,31.2,29.3,24.6,24.6,24.2,24.3,18,23.6,17.4,19.2,1,16,3,Connecticut,"Hartford-West Hartford-East Hartford, CT",PM2.5
09-009-1123,90091123,41.310833,-72.916944,Northeast,0,P98V,37.2,39.5,35.3,44,36.2,40.8,38,30.6,32.1,30.8,23.9,26.6,22,21.9,,,1,14,3,Connecticut,"New Haven-Milford, CT",PM2.5
09-009-2123,90092123,41.550556,-73.043611,Northeast,0,P98V,34.4,35.4,33.3,37.7,30.4,35.9,35.6,32.7,28.4,28.1,25.7,24.3,20.6,23.8,26.2,22.3,1,16,3,Connecticut,"New Haven-Milford, CT",PM2.5
09-011-3002,90113002,41.524167,-72.076667,Northeast,0,P98V,27.6,34.4,29.6,38.4,30.1,34.8,28.3,28.7,25,24.2,21.3,22.6,19.7,18.8,,,1,14,3,Connecticut,"Norwich-New London, CT",PM2.5
10-001-0002,100010002,38.986672,-75.5568,Northeast,0,P98V,34.4,34.4,47.2,31.2,31,34.6,30.7,30.9,27.6,20.7,21,23.6,20.6,22.8,21.7,21,1,16,3,Delaware,"Dover, DE",PM2.5
10-001-0003,100010003,39.155,-75.518056,Northeast,0,P98V,27.8,38.3,45.5,34.9,28.9,33.6,29.9,30.2,28.7,19.4,24.9,24.1,21.4,22.2,19.7,21.5,1,16,3,Delaware,"Dover, DE",PM2.5
10-003-1003,100031003,39.761111,-75.491944,Northeast,0,P98V,38.2,40.7,39,35.8,32.5,34.8,30.9,32.3,31.6,23.2,24.3,22.4,21.5,24.9,23,24.9,1,16,3,Delaware,"Philadelphia-Camden-Wilmington, PA-NJ-DE-MD",PM2.5
10-003-1007,100031007,39.5513,-75.732,Northeast,0,P98V,36.4,35.9,42.1,36.5,30.8,36.2,28.8,29.6,28.1,20.6,27.5,21,21.1,21.9,19.7,21.7,1,16,3,Delaware,"Philadelphia-Camden-Wilmington, PA-NJ-DE-MD",PM2.5
10-003-1012,100031012,39.69196235,-75.76129861,Northeast,0,P98V,39.1,40.9,42.4,36.4,29.1,35,30.5,31,28.6,23.4,24.9,22.2,21.3,27.4,23.9,26.7,1,16,3,Delaware,"Philadelphia-Camden-Wilmington, PA-NJ-DE-MD",PM2.5
10-003-2004,100032004,39.739444,-75.558056,Northeast,0,P98V,39.3,43.2,46.1,38.3,33.8,37.7,38.7,33.6,34.8,28.4,27.9,24.7,24.2,24.8,24.8,26.4,1,16,3,Delaware,"Philadelphia-Camden-Wilmington, PA-NJ-DE-MD",PM2.5
10-005-1002,100051002,38.6539,-75.6106,Northeast,0,P98V,36,41.6,44,30.7,35.1,34.7,33.3,32.5,27,20.2,26.5,24.2,22.1,23,18.4,22.8,1,16,3,Delaware,"Salisbury, MD-DE",PM2.5
11-001-0041,110010041,38.895572,-76.958072,Northeast,0,P98V,41.2,44.8,47.8,39,38.4,36.2,35,32.8,29.2,24.3,28.3,24.7,27.8,22.6,,,1,14,3,District of Columbia,"Washington-Arlington-Alexandria, DC-VA-MD-WV",PM2.5
11-001-0042,110010042,38.87625509,-77.03405915,Northeast,0,P98V,43.9,35.1,35.9,38.7,36,36.4,33,28.7,31.4,22.7,23.2,26.2,24.3,18.6,21.1,21.6,1,16,3,District of Columbia,"Washington-Arlington-Alexandria, DC-VA-MD-WV",PM2.5
11-001-0043,110010043,38.921847,-77.013178,Northeast,0,P98V,38.6,43.7,40,35.2,34.8,34.4,33.2,33.1,28.4,24,26.2,24.8,23.8,22.9,20,21.8,1,16,3,District of Columbia,"Washington-Arlington-Alexandria, DC-VA-MD-WV",PM2.5
12-001-0023,120010023,29.706111,-82.387778,Southeast,0,P98V,26.5,24.2,24.4,18.5,19.9,24.7,20.1,38.1,15,17.1,16.4,,,16.5,16.3,11.9,1,14,6,Florida,"Gainesville, FL",PM2.5
12-009-0007,120090007,28.053611,-80.628611,Southeast,0,P98V,,20.2,17.7,16.4,19.7,18.3,28,19.9,17.7,15.3,14.1,,16.2,20.6,13.8,12.4,1,14,6,Florida,"Palm Bay-Melbourne-Titusville, FL",PM2.5
12-011-1002,120111002,26.08314346,-80.23758564,Southeast,0,P98V,23.3,20.4,18,15.6,19.1,17.1,20.2,23.8,18,16.4,13.5,,16.7,,14.8,,1,13,6,Florida,"Miami-Fort Lauderdale-West Palm Beach, FL",PM2.5
12-017-0005,120170005,28.980556,-82.7,Southeast,0,P98V,31,23.8,19.4,19,24.9,21.8,17.9,25.5,16.2,14.6,16.2,,18.7,16.2,15.9,10.4,1,15,6,Florida,"Homosassa Springs, FL",PM2.5
12-031-0098,120310098,30.135556,-81.634167,Southeast,0,P98V,30.1,26.2,22.3,20.5,25.3,26.5,20.1,30.8,17.5,18.7,17.3,,22.6,15.1,16.7,14.5,1,15,6,Florida,"Jacksonville, FL",PM2.5
12-031-0099,120310099,30.354722,-81.547778,Southeast,0,P98V,31.5,27.8,24.6,21,26.3,25.8,21.6,32.8,18.4,18.6,17.8,,18.6,15.9,16.9,16.1,1,15,6,Florida,"Jacksonville, FL",PM2.5
12-033-0004,120330004,30.525367,-87.20355,Southeast,0,P98V,31.8,22.2,22.4,31.3,31.8,28.7,26.6,25.2,20.1,19.3,18.2,,20.2,16,16.2,16.7,1,15,6,Florida,"Pensacola-Ferry Pass-Brent, FL",PM2.5
12-071-0005,120710005,26.60201575,-81.87790816,Southeast,0,P98V,24.5,21.9,16.4,16.2,17.6,18.6,17.6,18.6,15.3,13,12.8,,14.9,14.6,12.5,13.4,1,15,6,Florida,"Cape Coral-Fort Myers, FL",PM2.5
12-073-0012,120730012,30.439722,-84.346389,Southeast,0,P98V,29.5,31.4,28.4,23.8,27.7,30.5,26.5,37.6,22.6,24.5,23,,,20.1,20.7,16.9,1,14,6,Florida,"Tallahassee, FL",PM2.5
12-086-1016,120861016,25.794222,-80.2155556,Southeast,0,P98V,23.9,19,18.3,18.3,21.2,18.8,18.4,21.4,18.3,14.3,13.1,,16,14.6,13.6,14.7,1,15,6,Florida,"Miami-Fort Lauderdale-West Palm Beach, FL",PM2.5
12-086-6001,120866001,25.471944,-80.482778,Southeast,0,P98V,21.4,17.9,17.1,16.3,21.2,18.2,18,21.8,16.7,14.2,12.3,,15.2,14,14.1,15.8,1,15,6,Florida,"Miami-Fort Lauderdale-West Palm Beach, FL",PM2.5
12-095-2002,120952002,28.596389,-81.3625,Southeast,0,P98V,30.9,26.2,21.5,18.5,20.4,25,17.8,24.7,15.6,16.9,14.1,,15.2,13.5,13.5,14.4,1,15,6,Florida,"Orlando-Kissimmee-Sanford, FL",PM2.5
12-099-0009,120990009,26.7308333,-80.2338889,Southeast,0,P98V,23.4,18,16.1,16.1,21.2,17.7,18.2,20.9,14.1,13.2,11.7,17.8,15,12.1,12.3,13.7,1,16,6,Florida,"Miami-Fort Lauderdale-West Palm Beach, FL",PM2.5
12-099-2005,120992005,26.4569444,-80.0927778,Southeast,0,P98V,,,18.5,17.3,21.6,18.9,18.4,25.2,19.1,16.2,12.7,,,11.7,12.8,10.5,1,12,6,Florida,"Miami-Fort Lauderdale-West Palm Beach, FL",PM2.5
12-103-0018,121030018,27.78586555,-82.73987536,Southeast,0,P98V,29.3,27.5,21.7,18.2,19.9,24.9,20.6,23.7,16.6,16.1,15.8,,14.7,15.1,14.7,15.4,1,15,6,Florida,"Tampa-St. Petersburg-Clearwater, FL",PM2.5
12-105-6006,121056006,28.028889,-81.972222,Southeast,0,P98V,28.1,25.9,24.4,16.4,19.8,21.6,18.3,18.8,16.6,13.4,15.3,,15,13.3,14.6,13.4,1,15,6,Florida,"Lakeland-Winter Haven, FL",PM2.5
12-115-0013,121150013,27.290556,-82.507222,Southeast,0,P98V,30.1,27.9,23.6,17.5,20.1,19.9,19.8,21.3,16,17.6,14.2,,18.3,15.5,18.4,13.8,1,15,6,Florida,"North Port-Sarasota-Bradenton, FL",PM2.5
12-117-1002,121171002,28.746111,-81.310556,Southeast,0,P98V,26.5,20.4,21.4,18.6,27.4,23.2,18.1,26,19,15.1,14.4,,23.2,16.2,17.6,14.5,1,15,6,Florida,"Orlando-Kissimmee-Sanford, FL",PM2.5
12-127-5002,121275002,29.206667,-81.0525,Southeast,0,P98V,26,21.7,21.6,17.9,21.5,23.2,18.9,35.3,,,16.9,,13.7,16.2,15.3,13.3,1,13,6,Florida,"Deltona-Daytona Beach-Ormond Beach, FL",PM2.5
13-021-0007,130210007,32.77745466,-83.64109572,Southeast,0,P98V,37.3,34.7,,29.5,38.4,32.6,29.6,41.6,29.2,25.2,28.3,29.7,24.5,20.5,21.9,20.6,1,15,6,Georgia,"Macon, GA",PM2.5
13-021-0012,130210012,32.80540788,-83.54352078,Southeast,0,P98V,35.6,27.3,28.8,26.6,34.8,32.1,27.5,31.1,31.2,24.6,22.4,23.9,18.2,18.3,17.8,17.7,1,16,6,Georgia,"Macon, GA",PM2.5
13-051-0091,130510091,32.11075898,-81.16184729,Southeast,0,P98V,32.1,30.5,27.3,24.6,30.7,29.6,25.6,27.5,21.2,24.5,22.3,44.6,20.3,17.8,21.7,18.1,1,16,6,Georgia,"Savannah, GA",PM2.5
13-063-0091,130630091,33.60986701,-84.39102829,Southeast,0,P98V,52.8,39.5,33.5,36.7,39.4,37.1,31.2,37.2,24.4,23.3,25.2,25.5,20.8,18.1,22.2,17.8,1,16,6,Georgia,"Atlanta-Sandy Springs-Roswell, GA",PM2.5
13-067-0003,130670003,34.01548174,-84.60740744,Southeast,0,P98V,50.2,34.9,31.7,39.9,32.8,36.2,33.1,35.7,29.2,24.1,22.6,24.5,18.9,19.5,20.5,17.2,1,16,6,Georgia,"Atlanta-Sandy Springs-Roswell, GA",PM2.5
13-089-0002,130890002,33.68797,-84.29048,Southeast,0,P98V,39.5,42.5,31.6,32.5,35.4,33.3,32.1,34.3,26.9,25.8,22.5,23.4,19.5,18.7,20.1,17.5,1,16,6,Georgia,"Atlanta-Sandy Springs-Roswell, GA",PM2.5
13-095-0007,130950007,31.576917,-84.100194,Southeast,0,P98V,37.7,36.1,30.5,26.9,36.2,34.9,34.6,42.5,32.3,31.6,29.8,28.8,24.9,25.7,23,21.2,1,16,6,Georgia,"Albany, GA",PM2.5
13-127-0006,131270006,31.16973486,-81.49588081,Southeast,0,P98V,30.7,26.7,23,22.8,27.6,26.2,26.4,41.9,22.6,26.4,22.4,26.9,14.5,18.7,21.3,15.5,1,16,6,Georgia,"Brunswick, GA",PM2.5
13-135-0002,131350002,33.96127,-84.06901,Southeast,0,P98V,44,,32.6,38.3,35.1,31.7,30.7,30.3,24.9,22.1,22,25.9,20,18.3,17.2,18.3,1,15,6,Georgia,"Atlanta-Sandy Springs-Roswell, GA",PM2.5
13-139-0003,131390003,34.30008,-83.81217,Southeast,0,P98V,39.1,33.4,28.9,33.2,27.6,34.4,28.9,29.2,32.3,20,23.1,24.8,16.6,16.9,18.1,18.1,1,16,6,Georgia,"Gainesville, GA",PM2.5
13-153-0001,131530001,32.6056,-83.597907,Southeast,0,P98V,,,26.8,25.9,33.6,27.9,26,42.5,27,23.5,26.2,22.9,19.4,18.3,19.7,18.4,1,14,6,Georgia,"Warner Robins, GA",PM2.5
13-215-0001,132150001,32.483543,-84.980977,Southeast,0,P98V,31.4,34.3,30.8,32.4,37.4,29.1,27.8,36.2,30.6,22.8,27.1,24.2,24,20,18.2,19.5,1,16,6,Georgia,"Columbus, GA-AL",PM2.5
13-215-0011,132150011,32.42905,-84.9316,Southeast,0,P98V,51.4,46.4,31.2,28.8,36,28,28.4,38.1,30.3,23.8,28.8,26.2,27.5,26.8,19.8,19,1,16,6,Georgia,"Columbus, GA-AL",PM2.5
13-223-0003,132230003,33.9285,-85.04534,Southeast,0,P98V,46,34.7,31.5,35,29.8,35.1,32.4,34.5,29.1,22.4,21,22.4,17.1,19.1,18.5,15.9,1,16,6,Georgia,"Atlanta-Sandy Springs-Roswell, GA",PM2.5
13-245-0091,132450091,33.433349,-82.022217,Southeast,0,P98V,41.8,32.3,27,31.4,35.8,30.8,29.2,34,25.6,24.2,25.9,27.6,22,17.7,19.2,18.3,1,16,6,Georgia,"Augusta-Richmond County, GA-SC",PM2.5
13-295-0002,132950002,34.97889,-85.30098,Southeast,0,P98V,,32.8,31.6,36.8,28.3,32.6,27.3,,29.6,23.6,20.3,24.5,19,22.9,23,17.7,1,14,6,Georgia,"Chattanooga, TN-GA",PM2.5
13-303-0001,133030001,32.97488098,-82.80875965,Southeast,0,P98V,31.2,,24.8,28.9,33,31.6,29.8,28.2,29.3,30.9,23.1,27.2,20.7,21.8,18.3,19,1,15,6,Georgia,,PM2.5
13-319-0001,133190001,32.88182879,-83.33377543,Southeast,0,P98V,38.7,39,30.6,28.6,35.2,36.5,29.5,35.1,30,27.4,23,24.7,22.3,21.6,23.2,20.2,1,16,6,Georgia,,PM2.5
15-003-0010,150030010,21.32374479,-158.0886127,Southeast,0,P98V,,10.8,9,9.1,7.4,11,7.3,7.3,21.4,11.9,11.8,12.6,14.8,11.7,10.7,13.4,1,15,6,Hawaii,"Urban Honolulu, HI",PM2.5
15-003-1001,150031001,21.30758,-157.85542,Southeast,0,P98V,9.4,9.1,9.1,9.8,8.8,,,7.9,12.7,12.4,12.2,9.4,12.8,12.4,8.9,10.4,1,14,6,Hawaii,"Urban Honolulu, HI",PM2.5
15-003-1004,150031004,21.3033819,-157.8711711,Southeast,0,P98V,9.8,,10.2,11.7,8.1,10.3,9.9,9.7,13,12.6,17.3,19.8,13.1,11.9,10,11.4,1,15,6,Hawaii,"Urban Honolulu, HI",PM2.5
15-003-2004,150032004,21.39283293,-157.969126,Southeast,0,P98V,14.7,8.2,9.1,9.1,7.9,10.2,8.9,7.4,12.6,12.4,13.1,10.1,13.4,13.2,10.3,11.4,1,16,6,Hawaii,"Urban Honolulu, HI",PM2.5
15-009-0006,150090006,20.78099679,-156.4463732,Southeast,0,P98V,9,10.7,8.8,12.9,8.8,8.3,9.5,10.4,14.5,16.2,13.8,13,14.4,13.1,10.4,12.9,1,16,6,Hawaii,"Kahului-Wailuku-Lahaina, HI",PM2.5
16-079-0017,160790017,47.536389,-116.236667,Northwest,0,P98V,29.4,36.6,48.2,36.1,35.7,45.7,33.5,31.9,36.2,34.7,37.2,43.8,,43.1,41.8,45.7,1,15,4,Idaho,,PM2.5
18-003-0004,180030004,41.0949655,-85.10181631,Central,0,P98V,34.5,32,32.1,34.6,31,38.4,26.2,33.7,30.7,23.6,30.5,22.8,25.8,20.1,28.2,27.7,1,16,1,Indiana,"Fort Wayne, IN",PM2.5
18-035-0006,180350006,40.201141,-85.38799856,Central,0,P98V,34.8,35.7,30,36.5,27.2,37.3,27.4,32.9,25.6,21,31.8,26.5,22.1,20.3,31.5,18.4,1,16,1,Indiana,"Muncie, IN",PM2.5
18-037-2001,180372001,38.39144308,-86.92916033,Central,0,P98V,40,,36.3,39.5,30,41.2,31.6,34.7,27.2,24.7,27.2,27.7,21.7,22.4,29.4,22.8,1,15,1,Indiana,"Jasper, IN",PM2.5
18-043-1004,180431004,38.308056,-85.834167,Central,0,P98V,36.5,38.2,40.8,33.9,26.7,40.1,28.2,35.4,26.8,23.6,29.7,25.9,19.7,21.2,23.5,21.5,1,16,1,Indiana,"Louisville/Jefferson County, KY-IN",PM2.5
18-065-0003,180650003,40.009525,-85.5234553,Central,0,P98V,,30.7,29.7,31.4,26.9,37.3,27.2,32.4,24.8,21,30.6,24.8,20.5,20.6,25.7,18.1,1,15,1,Indiana,"New Castle, IN",PM2.5
18-089-0006,180890006,41.63612714,-87.44084318,Central,0,P98V,34.2,39.8,37.4,33.1,33,39.9,29.4,37.2,26.6,25.8,29.5,24.4,27.8,19,24.8,26.5,1,16,1,Indiana,"Chicago-Naperville-Elgin, IL-IN-WI",PM2.5
18-089-2004,180892004,41.58549644,-87.47448613,Central,0,P98V,32.8,36,33.9,32.3,31.9,37.6,26.2,34.9,28.4,,28.9,23.3,27.7,20.4,28.8,25.5,1,15,1,Indiana,"Chicago-Naperville-Elgin, IL-IN-WI",PM2.5
18-091-0011,180910011,41.70721161,-86.8912157,Central,0,P98V,28.5,33.7,31.3,31.8,31.6,37.5,28.1,31.5,27.7,24.2,29.4,21.1,26,19,23.5,23.5,1,16,1,Indiana,"Michigan City-La Porte, IN",PM2.5
18-097-0078,180970078,39.811097,-86.114469,Central,0,P98V,36.5,37.2,35,39.3,31,42.5,31.7,37.6,28.9,26.5,29.7,28,24,22.9,29.8,21.7,1,16,1,Indiana,"Indianapolis-Carmel-Anderson, IN",PM2.5
18-097-0081,180970081,39.788903,-86.214628,Central,0,P98V,36.3,38.5,,36.2,31.9,45.7,34.8,37.1,30.5,27.1,32,28.2,25.5,24.9,30.9,23.6,1,15,1,Indiana,"Indianapolis-Carmel-Anderson, IN",PM2.5
18-097-0083,180970083,39.7749793,-86.12201986,Central,0,P98V,35.7,39.5,36.7,36.7,31.8,40.3,33.5,37.2,29,23.7,36.5,30.4,22.5,21,27,22.5,1,16,1,Indiana,"Indianapolis-Carmel-Anderson, IN",PM2.5
18-127-0024,181270024,41.61755833,-87.19924836,Central,0,P98V,32,34.8,32.9,30.7,29.1,37.5,26.1,33.3,28.3,27.1,29,26.1,28.6,19.6,26.3,22.1,1,16,1,Indiana,"Chicago-Naperville-Elgin, IL-IN-WI",PM2.5
18-147-0009,181470009,38.16752303,-86.98321416,Central,0,P98V,,,27.8,34.6,25.2,39.7,27.7,31.4,22.9,24.3,26.7,31,19.8,21.3,26.7,22.2,1,14,1,Indiana,,PM2.5
18-163-0016,181630016,37.97443645,-87.53228857,Central,0,P98V,33.5,37.9,46.2,35.9,28.3,37,29.5,31.5,26.5,25.5,29.2,28,20.8,24.3,25.5,21.4,1,16,1,Indiana,"Evansville, IN-KY",PM2.5
18-167-0018,181670018,39.48615002,-87.40139757,Central,0,P98V,34.2,38.4,40.2,35.3,26.9,43.1,31,31,26.3,24.9,29.2,26.5,24.1,23,27.6,19.5,1,16,1,Indiana,"Terre Haute, IN",PM2.5
19-045-0021,190450021,41.87499893,-90.1775739,Upper Midwest,0,P98V,29.1,33.4,29.4,33.5,34.5,39.7,27.2,29.6,28.3,27.2,33.5,26.3,22.9,22.6,24.8,23.1,1,16,2,Iowa,"Clinton, IA",PM2.5
19-103-2001,191032001,41.65723238,-91.50347761,Upper Midwest,0,P98V,28.4,34.5,25.6,27.3,37.4,41,27.1,32.8,28.3,25.8,33.1,26.4,21.8,20.5,23.8,21.1,1,16,2,Iowa,"Iowa City, IA",PM2.5
19-139-0015,191390015,41.40096793,-91.06795668,Upper Midwest,0,P98V,,40.4,27.9,37.9,38.4,36.8,27.6,44,33.7,35.1,40.7,28.8,26.6,27.7,32.7,22.3,1,15,2,Iowa,"Muscatine, IA",PM2.5
19-153-0030,191530030,41.603159,-93.643118,Upper Midwest,0,P98V,,,25.1,28,24.7,34.4,23.6,27.9,24.2,22.9,30.7,23.7,21.2,21.7,21,18.1,1,14,2,Iowa,"Des Moines-West Des Moines, IA",PM2.5
19-153-2510,191532510,41.60351667,-93.7479,Upper Midwest,0,P98V,27.3,27.9,23.9,30.5,29.1,28.9,22.4,25.2,22.6,26.8,33.4,20.9,21.3,20.2,19.4,18,1,16,2,Iowa,"Des Moines-West Des Moines, IA",PM2.5
19-155-0009,191550009,41.26417099,-95.896124,Upper Midwest,0,P98V,27.3,24.7,23.7,25.2,31.5,30,23.1,33,20.2,21.1,32.3,20.8,28.5,22.4,19.6,18.8,1,16,2,Iowa,"Omaha-Council Bluffs, NE-IA",PM2.5
19-163-0015,191630015,41.53001062,-90.58761081,Upper Midwest,0,P98V,30.3,33,29.5,32.4,27.2,36.7,25.9,30.4,28.2,26.7,32.7,27,22,23.4,24.3,23,1,16,2,Iowa,"Davenport-Moline-Rock Island, IA-IL",PM2.5
19-163-0018,191630018,41.55000548,-90.6001154,Upper Midwest,0,P98V,29.2,32.8,27,30.9,32.2,36.8,26.3,32.8,27.5,26.3,34.4,26.5,21.7,22.4,24.8,26.5,1,16,2,Iowa,"Davenport-Moline-Rock Island, IA-IL",PM2.5
20-091-0007,200910007,38.974457,-94.687013,South,0,P98V,25.2,27.3,30,26.8,22.5,30.2,20.8,24.4,18.4,21.3,,21.3,15.6,17.8,18.3,17,1,15,5,Kansas,"Kansas City, MO-KS",PM2.5
20-107-0002,201070002,38.135882,-94.731988,South,0,P98V,24.8,24.6,25.3,25.8,21.9,31,21,23.9,18.8,20.8,22.4,21.8,17.3,18.1,,,1,14,5,Kansas,"Kansas City, MO-KS",PM2.5
20-173-0009,201730009,37.651114,-97.362212,South,0,P98V,25.3,25.2,27.9,25.3,23.4,30.7,17.1,26.7,22.1,18.7,19.7,27.6,18,22.2,27.9,24.9,1,16,5,Kansas,"Wichita, KS",PM2.5
20-173-0010,201730010,37.702066,-97.314847,South,0,P98V,26.4,24.8,27.9,25.6,24.8,30.7,17.8,25.5,21.8,18.5,19,25.8,18,18.3,28.8,22.4,1,16,5,Kansas,"Wichita, KS",PM2.5
20-191-0002,201910002,37.47689,-97.366399,South,0,P98V,23,21.6,24.1,21.9,22.9,26.4,17.6,23.5,22.2,18.5,18.8,26.2,17.3,18.3,27.3,20.7,1,16,5,Kansas,"Wichita, KS",PM2.5
20-209-0021,202090021,39.117219,-94.635605,South,0,P98V,28,30.5,31.7,32.8,28.2,35.3,23.7,23.8,20.8,22.7,23.8,24.3,20.1,18.9,20.9,20.2,1,16,5,Kansas,"Kansas City, MO-KS",PM2.5
21-013-0002,210130002,36.60843,-83.73694,Central,0,P98V,,36.8,25.9,32.7,29.5,,25.7,40.7,24.4,23.1,28.3,26,19.8,16.5,16.6,19.3,1,14,1,Kentucky,"Middlesborough, KY",PM2.5
21-019-0017,210190017,38.45934,-82.64041,Central,0,P98V,34.1,37.7,39.4,33.8,30.3,36.1,28.6,38.5,24.3,23.5,26.2,22.5,22.4,19.5,20.3,23.5,1,16,1,Kentucky,"Huntington-Ashland, WV-KY-OH",PM2.5
21-043-0500,210430500,38.23887,-82.9881,Central,0,P98V,28.9,28.9,29.8,26.7,24.5,37.2,25.5,30.9,22.6,16.9,20.2,19.6,17.6,14.1,19.7,19.8,1,16,1,Kentucky,,PM2.5
21-047-0006,210470006,36.91171,-87.323337,Central,0,P98V,38.3,27.2,29.3,36.8,26.2,35,30.3,35.5,27.2,24,21.8,23.2,19.6,21.6,23.4,22.2,1,16,1,Kentucky,"Clarksville, TN-KY",PM2.5
21-067-0012,210670012,38.06503,-84.49761,Central,0,P98V,38.5,35.8,41.6,28.3,29.1,35.6,30.4,35.1,23.5,21.4,22.8,24,19.1,20,21.8,18.6,1,16,1,Kentucky,"Lexington-Fayette, KY",PM2.5
21-093-0006,210930006,37.705612,-85.852629,Central,0,P98V,39.4,30.7,32.2,32.4,27.8,35.1,31.8,38.4,25.2,22.3,21.1,24.7,,20.5,22.5,20.5,1,15,1,Kentucky,"Elizabethtown-Fort Knox, KY",PM2.5
21-151-0003,211510003,37.738458,-84.284952,Central,0,P98V,31.2,29.9,33.7,28.1,28.4,32.6,28.2,31.9,23.5,18.5,20.8,21.8,17.5,16.7,17.3,15.6,1,16,1,Kentucky,"Richmond-Berea, KY",PM2.5
21-195-0002,211950002,37.4826,-82.53532,Central,0,P98V,31.5,31.9,29.7,30.5,28.2,32,29.4,38.1,21.2,23.5,23.6,23.7,18.9,14,18.6,16.6,1,16,1,Kentucky,,PM2.5
22-019-0009,220190009,30.227778,-93.578333,South,0,P98V,33.5,25.6,27.2,19.4,20.2,26.5,28.4,22.5,19.3,16.7,18,21.8,17.8,16.9,14.7,15.4,1,16,5,Louisiana,"Lake Charles, LA",PM2.5
22-019-0010,220190010,30.177143,-93.214514,South,0,P98V,34,35.5,33.5,22.8,29.5,27.4,24.9,23.7,20.9,20,21.5,19.7,19.7,16.9,16.7,,1,15,5,Louisiana,"Lake Charles, LA",PM2.5
22-033-0009,220330009,30.46198,-91.17922,South,0,P98V,35.2,31.5,24.6,27.1,28.5,29.4,33.8,24.4,22.6,19.9,19.7,23,21.7,19.9,18.2,19,1,16,5,Louisiana,"Baton Rouge, LA",PM2.5
22-047-0005,220470005,30.21909747,-91.0625466,South,0,P98V,32.9,29.7,27.2,27.6,30.2,28.1,29.8,25.7,24.5,18.8,22,20.7,20,20.8,19.9,20.5,1,16,5,Louisiana,"Baton Rouge, LA",PM2.5
22-047-0009,220470009,30.220556,-91.316111,South,0,P98V,28.7,34.2,18.9,23.4,26.3,24.8,32.4,20.1,19.4,18.2,17.5,19.9,19.3,18.1,16.4,,1,15,5,Louisiana,"Baton Rouge, LA",PM2.5
22-051-1001,220511001,30.04357266,-90.27509091,South,0,P98V,35.1,27.1,20.4,24.2,25.8,29.1,29,22.5,18.5,18,18.5,20.4,18.2,15.9,16.3,20.4,1,16,5,Louisiana,"New Orleans-Metairie, LA",PM2.5
22-051-2001,220512001,29.883056,-90.083333,South,0,P98V,31.7,24.8,,23.9,28.4,,30,20.7,18.5,18.4,17.1,20.8,18.9,17.9,17.3,20.5,1,14,5,Louisiana,"New Orleans-Metairie, LA",PM2.5
22-073-0004,220730004,32.509713,-92.046093,South,0,P98V,27.2,27.2,32.9,25.5,21.6,33.6,32.5,25.7,20,17.3,18.9,20.8,20.4,21.4,16.3,17.8,1,16,5,Louisiana,"Monroe, LA",PM2.5
22-105-0001,221050001,30.503056,-90.376944,South,0,P98V,34.9,25.8,20.9,23,28.2,35.2,27.6,26.3,21.2,19.8,17,19.7,18.3,15.6,15.9,16.5,1,16,5,Louisiana,"Hammond, LA",PM2.5
22-109-0001,221090001,29.678883,-90.779967,South,0,P98V,28.7,26.2,17.8,24.2,25.7,28.3,28,23,17.9,16.5,17.4,19.1,17.4,14.6,15.7,16.1,1,16,5,Louisiana,"Houma-Thibodaux, LA",PM2.5
22-121-0001,221210001,30.500643,-91.213556,South,0,P98V,35.9,28.9,23,27.9,28.4,29.6,31.5,25.3,22.8,20.2,20.7,24.6,21.5,18.7,19.4,20,1,16,5,Louisiana,"Baton Rouge, LA",PM2.5
24-003-1003,240031003,39.169533,-76.627933,Northeast,0,P98V,33.8,38.3,46.3,39.2,37,36.2,31.7,34.8,34.4,24.8,27.5,24.4,23,22.1,22.9,23.5,1,16,3,Maryland,"Baltimore-Columbia-Towson, MD",PM2.5
24-005-1007,240051007,39.462029,-76.631673,Northeast,0,P98V,33.8,36.7,46.2,35.1,33.4,34,32.3,31.5,30.7,22.1,21.1,22.8,21.5,19.9,20.8,22.8,1,16,3,Maryland,"Baltimore-Columbia-Towson, MD",PM2.5
24-005-3001,240053001,39.310833,-76.474444,Northeast,0,P98V,35.8,41.7,46.1,38.6,36.3,36.2,34.3,34.2,29.8,30.8,28.6,26.3,24.7,26.8,21.6,26.2,1,16,3,Maryland,"Baltimore-Columbia-Towson, MD",PM2.5
24-015-0003,240150003,39.701444,-75.860051,Northeast,0,P98V,32.1,38,31,,29.8,31.6,28.3,30.2,25.1,21.9,32.2,28.5,22.2,24.6,23.7,25.6,1,15,3,Maryland,"Philadelphia-Camden-Wilmington, PA-NJ-DE-MD",PM2.5
24-025-1001,240251001,39.410191,-76.296946,Northeast,0,P98V,38.3,34.4,45.3,37.5,30.3,35.1,28.8,29.2,28.1,21.5,21.6,24.3,24.3,26.9,21.1,21.6,1,16,3,Maryland,"Baltimore-Columbia-Towson, MD",PM2.5
24-031-3001,240313001,39.114313,-77.106876,Northeast,0,P98V,36.2,37.5,36.3,32.1,31.7,31.7,29.3,29.2,26.7,21.5,28.5,25.2,22.7,21.3,19.7,21.5,1,16,3,Maryland,"Washington-Arlington-Alexandria, DC-VA-MD-WV",PM2.5
24-043-0009,240430009,39.564178,-77.720244,Northeast,0,P98V,39.9,41.6,42.7,34.3,39.2,33.2,29.8,29,29.7,23.2,30.6,27.5,27.4,25.1,26.6,24.8,1,16,3,Maryland,"Hagerstown-Martinsburg, MD-WV",PM2.5
24-510-0007,245100007,39.34465,-76.68538,Northeast,0,P98V,39.6,38.7,44.7,39.5,33.5,35.5,32.7,34.3,30.7,24,21.5,24.2,22.1,20.4,20.3,25.6,1,16,3,Maryland,"Baltimore-Columbia-Towson, MD",PM2.5
24-510-0008,245100008,39.28777,-76.546861,Northeast,0,P98V,,,35,35.4,37,39.4,35.5,36.3,32.7,27.6,30.4,24.5,22.5,24.3,22,25.9,1,14,3,Maryland,"Baltimore-Columbia-Towson, MD",PM2.5
24-510-0040,245100040,39.297733,-76.604603,Northeast,0,P98V,40.8,45,42.2,42.2,40.6,40.1,36.1,35.2,30.6,27.5,30.2,28,23.2,26,23,28,1,16,3,Maryland,"Baltimore-Columbia-Towson, MD",PM2.5
25-003-5001,250035001,42.4480094,-73.25410776,Northeast,0,P98V,28.8,33.8,36.2,37.2,29.8,33.5,26.7,28.9,26.6,24.5,25.4,28.8,19.8,16.2,17.3,19.4,1,16,3,Massachusetts,"Pittsfield, MA",PM2.5
25-009-2006,250092006,42.47464214,-70.97081559,Northeast,0,P98V,27.2,31.5,52.9,,25.5,27.1,25.2,28.2,24.8,20.2,18.9,18.6,19.2,14.9,15.4,17,1,15,3,Massachusetts,"Boston-Cambridge-Newton, MA-NH",PM2.5
25-009-5005,250095005,42.77083658,-71.10229032,Northeast,0,P98V,27.3,,,34.6,27,27.3,27.2,25.1,24.1,20.2,19.7,17.8,18.4,14.7,14.6,15,1,14,3,Massachusetts,"Boston-Cambridge-Newton, MA-NH",PM2.5
25-009-6001,250096001,42.69821539,-71.16441299,Northeast,0,P98V,,,26.8,,27.2,27.5,29,26.6,25.2,20.8,20.1,18.8,18.1,16.2,11.5,14.6,1,13,3,Massachusetts,"Boston-Cambridge-Newton, MA-NH",PM2.5
25-013-0008,250130008,42.19438047,-72.5551117,Northeast,0,P98V,29.4,32.6,36.8,32.6,24.8,26.1,28.9,28.8,26.2,25,24.5,21.2,17.1,16.9,16.5,16.3,1,16,3,Massachusetts,"Springfield, MA",PM2.5
25-013-0016,250130016,42.10899231,-72.59080252,Northeast,0,P98V,36.7,36.8,45.9,38.8,32,29.9,34.1,30,28.4,26.8,25.8,27.6,21,18.7,17.5,19.2,1,16,3,Massachusetts,"Springfield, MA",PM2.5
25-013-2009,250132009,42.10579237,-72.59713275,Northeast,0,P98V,,,37.1,37.5,31.4,33.6,35.1,30,27,29.7,23.5,26.7,19.2,18.7,,,1,12,3,Massachusetts,"Springfield, MA",PM2.5
25-023-0004,250230004,42.081936,-71.014739,Northeast,0,P98V,,31.9,37.2,34.5,24.7,27.4,31.1,28.1,23.9,21.8,22.6,18.8,17.3,16.7,,,1,13,3,Massachusetts,"Boston-Cambridge-Newton, MA-NH",PM2.5
25-025-0002,250250002,42.34887271,-71.09716279,Northeast,0,P98V,,,29.6,29.7,30,28.9,28.5,31.7,26,,21.9,21.2,22.1,17.5,14.6,14.5,1,13,3,Massachusetts,"Boston-Cambridge-Newton, MA-NH",PM2.5
25-025-0027,250250027,42.37212236,-71.06174143,Northeast,0,P98V,38,,47.6,31.3,29.8,29.5,27.4,31.8,23.2,22,24.5,21.3,22.6,18,14.4,,1,14,3,Massachusetts,"Boston-Cambridge-Newton, MA-NH",PM2.5
25-025-0042,250250042,42.3295,-71.0826,Northeast,0,P98V,31.9,32.3,33,30.6,28.3,28.6,27.3,31.5,25.7,21.3,22.5,20.9,20.6,15.9,16.2,17.6,1,16,3,Massachusetts,"Boston-Cambridge-Newton, MA-NH",PM2.5
25-025-0043,250250043,42.3631,-71.0543,Northeast,0,P98V,35.2,,29.8,35.5,29.6,36.6,27.4,30.3,26.2,24.1,23.5,23.9,20.1,19.9,14.5,16.6,1,15,3,Massachusetts,"Boston-Cambridge-Newton, MA-NH",PM2.5
25-027-0016,250270016,42.26010163,-71.79837542,Northeast,0,P98V,26.6,33.1,33.7,,31.1,30.6,28.3,31.2,27.7,23.1,21.2,22,19.9,15,13.1,16,1,15,3,Massachusetts,"Worcester, MA-CT",PM2.5
26-005-0003,260050003,42.76778555,-86.14857722,Upper Midwest,0,P98V,31.9,37,36.7,35.6,30.3,36.1,34.1,31.7,24.5,25.4,24.6,25.6,23.4,17.7,23.4,21.2,1,16,2,Michigan,"Holland, MI",PM2.5
26-017-0014,260170014,43.57139061,-83.89072068,Upper Midwest,0,P98V,,34.2,32,26.7,28,40.5,27.9,25.2,23.6,23.3,31.1,20.9,22,16,21.1,23.3,1,15,2,Michigan,"Bay City, MI",PM2.5
26-021-0014,260210014,42.19778954,-86.30969398,Upper Midwest,0,P98V,29.7,32.3,30.6,34.1,29,33.8,27.7,33,24.8,22.2,23.3,20.5,21.6,17.4,19.8,19.4,1,16,2,Michigan,"Niles-Benton Harbor, MI",PM2.5
26-049-0021,260490021,43.04722419,-83.67015909,Upper Midwest,0,P98V,32.2,38,30.8,32.2,27.9,35.9,26.7,25.1,25.8,26.2,24.7,20.7,21.2,16.6,24.3,22.3,1,16,2,Michigan,"Flint, MI",PM2.5
26-065-0012,260650012,42.73861787,-84.53463315,Upper Midwest,0,P98V,37.2,37.2,32.8,29,29.4,38.1,28.3,29,24,27.1,23.7,20.6,24.3,17.4,22.1,24.5,1,16,2,Michigan,"Lansing-East Lansing, MI",PM2.5
26-077-0008,260770008,42.27806667,-85.54188992,Upper Midwest,0,P98V,35.5,40,32.3,36.9,28.2,33.3,29.1,29.2,26,29,21.5,20.3,26.5,17.7,27.8,22.3,1,16,2,Michigan,"Kalamazoo-Portage, MI",PM2.5
26-081-0020,260810020,42.98417304,-85.67133874,Upper Midwest,0,P98V,35.1,40.2,35.1,35,31.8,44.7,33.2,29.7,24.9,30,24.3,22.8,26,18.3,23,25.6,1,16,2,Michigan,"Grand Rapids-Wyoming, MI",PM2.5
26-099-0009,260990009,42.73139412,-82.79346283,Upper Midwest,0,P98V,33.2,42,35.6,31.8,31.9,41.5,34.4,29,28.9,26.2,25.5,24.1,22.2,18.3,27,31.6,1,16,2,Michigan,"Detroit-Warren-Dearborn, MI",PM2.5
26-125-0001,261250001,42.46306341,-83.18319868,Upper Midwest,0,P98V,40.7,39.4,38.4,36.6,32.5,52.2,33,35.3,30.4,30.1,27.1,23.4,25.2,18.9,23.3,29.6,1,16,2,Michigan,"Detroit-Warren-Dearborn, MI",PM2.5
26-139-0005,261390005,42.89445066,-85.85273402,Upper Midwest,0,P98V,33.7,35,36.8,31,30.9,42.3,30.2,28.1,27.1,26.5,22.7,23.5,27.2,18.2,,,1,14,2,Michigan,"Grand Rapids-Wyoming, MI",PM2.5
26-147-0005,261470005,42.95333627,-82.45622878,Upper Midwest,0,P98V,33.1,40.5,35.3,37.2,32.2,47.6,37.9,36,30.3,28.2,25.8,23.7,22.3,18.9,25.2,28.7,1,16,2,Michigan,"Detroit-Warren-Dearborn, MI",PM2.5
26-161-0008,261610008,42.24056548,-83.59960223,Upper Midwest,0,P98V,30.3,39.7,30.9,38.8,31.5,52.1,31.3,34.5,28.2,28.2,23.3,23.9,22.6,18.5,24.5,25.9,1,16,2,Michigan,"Ann Arbor, MI",PM2.5
26-163-0001,261630001,42.22862014,-83.20820002,Upper Midwest,0,P98V,38.6,42.1,39.6,40.5,36.9,43,33,31.2,30.3,29.2,27.8,25.3,23.2,22.8,26.4,23.1,1,16,2,Michigan,"Detroit-Warren-Dearborn, MI",PM2.5
26-163-0015,261630015,42.30278647,-83.10653043,Upper Midwest,0,P98V,44.5,42.9,38.2,33.6,36,49.7,36.2,34,34.3,30.9,26.6,25.1,24.5,21.2,23.8,27.1,1,16,2,Michigan,"Detroit-Warren-Dearborn, MI",PM2.5
26-163-0016,261630016,42.35780806,-83.09603295,Upper Midwest,0,P98V,40.3,40.9,42.7,46.2,38.3,51.8,36.9,34.3,30,31,27.9,24.8,24.6,20,23.6,27.1,1,16,2,Michigan,"Detroit-Warren-Dearborn, MI",PM2.5
26-163-0019,261630019,42.43084042,-83.00013754,Upper Midwest,0,P98V,,42,34.4,37.1,35,52.3,36.2,31.9,31.9,29.2,28.6,24,32.5,19.9,22,25.6,1,15,2,Michigan,"Detroit-Warren-Dearborn, MI",PM2.5
26-163-0025,261630025,42.42306297,-83.426263,Upper Midwest,0,P98V,35.9,44.7,32.7,38.1,32.2,40.2,30.4,32.8,28.3,29.3,25.3,22.8,22.7,19.6,25.7,26.8,1,16,2,Michigan,"Detroit-Warren-Dearborn, MI",PM2.5
26-163-0033,261630033,42.30667449,-83.14875385,Upper Midwest,0,P98V,45.1,43.2,45.7,42.8,39.4,50.2,43.1,36.6,31.7,35.7,29,29.9,24.3,24.1,26.5,28.1,1,16,2,Michigan,"Detroit-Warren-Dearborn, MI",PM2.5
26-163-0036,261630036,42.18728938,-83.15390528,Upper Midwest,0,P98V,42.7,46.6,34.1,34.8,32.3,46.7,33.2,28.6,26.3,26.9,24.4,21.4,20.9,17.7,25.6,21.1,1,16,2,Michigan,"Detroit-Warren-Dearborn, MI",PM2.5
27-037-0470,270370470,44.73846,-93.23725,Upper Midwest,0,P98V,,28.1,23.2,22.6,26.2,27.6,23.1,24.8,22.1,39.1,31.9,21.2,23,21,18.7,16.4,1,15,2,Minnesota,"Minneapolis-St. Paul-Bloomington, MN-WI",PM2.5
27-053-0963,270530963,44.95366,-93.25821,Upper Midwest,0,P98V,,33.4,26,25,28.6,30,19.4,23.7,25.9,38.7,28.4,23.3,22.3,21.9,20.5,16,1,15,2,Minnesota,"Minneapolis-St. Paul-Bloomington, MN-WI",PM2.5
27-053-2006,270532006,44.94805,-93.34315,Upper Midwest,0,P98V,33.4,28.8,25.1,25.9,27.1,29.6,21.3,25,26.2,32.2,27.3,23.7,24.6,21,21.9,15.7,1,16,2,Minnesota,"Minneapolis-St. Paul-Bloomington, MN-WI",PM2.5
27-109-5008,271095008,43.996908,-92.450366,Upper Midwest,0,P98V,35.9,30.4,24.4,26.9,27.5,33.3,,26.6,26.9,35.8,28.9,26.3,19.3,21.3,19.9,17.2,1,15,2,Minnesota,"Rochester, MN",PM2.5
27-123-0868,271230868,44.95072,-93.09827,Upper Midwest,0,P98V,47.1,32.5,25.9,28.2,35.2,28.2,23.2,25.9,32,39.7,35.9,25.6,22.8,22.8,28.2,16.7,1,16,2,Minnesota,"Minneapolis-St. Paul-Bloomington, MN-WI",PM2.5
27-123-0871,271230871,44.95939,-93.03587,Upper Midwest,0,P98V,33.7,34.9,28.3,23.1,25,29.6,24.4,26.6,,37.5,35.6,25.5,20.5,21.5,20.5,18.9,1,15,2,Minnesota,"Minneapolis-St. Paul-Bloomington, MN-WI",PM2.5
27-137-7001,271377001,47.523355,-92.536305,Upper Midwest,0,P98V,23.9,18.3,24.3,19.7,18.3,21.8,23.7,13.7,14.2,20.6,14.7,15,15.7,18.2,17.9,17.8,1,16,2,Minnesota,"Duluth, MN-WI",PM2.5
27-137-7550,271377550,46.81826,-92.08936,Upper Midwest,0,P98V,19.3,17.2,18.3,18,18.2,21.3,18.3,20.7,21.7,24.5,15.8,17.8,18.3,17.1,17.3,14.8,1,16,2,Minnesota,"Duluth, MN-WI",PM2.5
27-139-0505,271390505,44.791437,-93.512534,Upper Midwest,0,P98V,37.4,25.4,25.5,22.1,28.1,27.2,21,23,23.9,34.5,28.8,21.1,24.1,20.2,20.3,15.7,1,16,2,Minnesota,"Minneapolis-St. Paul-Bloomington, MN-WI",PM2.5
27-145-3052,271453052,45.549839,-94.13345,Upper Midwest,0,P98V,,26.4,23.8,22.8,27,25.2,17.5,20.1,23.4,28.4,27.6,24.7,20.4,21.9,18.8,16.9,1,15,2,Minnesota,"St. Cloud, MN",PM2.5
28-033-0002,280330002,34.82166,-89.98783,South,0,P98V,30.8,30,31.8,27.2,26.4,40.3,24.9,26.7,25.7,20.8,18.5,19.2,17.5,20.1,23,17.3,1,16,5,Mississippi,"Memphis, TN-MS-AR",PM2.5
28-035-0004,280350004,31.323639,-89.287167,South,0,P98V,29.6,30,31.5,26.8,30,31.4,32.1,29.2,25.9,21.2,23.3,21.7,20.6,21.2,19.6,18.8,1,16,5,Mississippi,"Hattiesburg, MS",PM2.5
28-047-0008,280470008,30.39036918,-89.04977762,South,0,P98V,27.7,25.8,21.1,27.2,32.6,28.6,28.4,25,21,18.7,16.4,18.3,20.5,17.6,20.3,17.6,1,16,5,Mississippi,"Gulfport-Biloxi-Pascagoula, MS",PM2.5
28-049-0010,280490010,32.38573097,-90.14120021,South,0,P98V,38.6,26.9,32.6,28.5,24.2,34.7,26.7,26,23.7,23.1,21.6,21.7,19.1,22,17.7,,1,15,5,Mississippi,"Jackson, MS",PM2.5
28-059-0006,280590006,30.37828672,-88.53392961,South,0,P98V,31.4,24.5,23,25.8,32,27.3,27.6,24.5,21.1,24.6,18.6,19.8,21.7,19.3,19.5,19,1,16,5,Mississippi,"Gulfport-Biloxi-Pascagoula, MS",PM2.5
29-037-0003,290370003,38.75976,-94.57997,Central,0,P98V,24.7,26.9,26,29.8,22.7,31.4,21.1,26,19.8,30.3,22.6,24.1,22.2,19.2,24.1,20.7,1,16,1,Missouri,"Kansas City, MO-KS",PM2.5
29-047-0005,290470005,39.30309011,-94.37662303,Central,0,P98V,23.8,28,30.3,28.1,26.5,31.2,25.4,26.9,19.5,21.2,22.5,23.6,19.5,19.1,22,17.6,1,16,1,Missouri,"Kansas City, MO-KS",PM2.5
29-077-0032,290770032,37.19954102,-93.28487423,Central,0,P98V,26.7,28.5,27.8,29.4,25.2,33.6,22.3,29.3,22.3,21.2,21.7,24.1,21.7,18.5,25,,1,15,1,Missouri,"Springfield, MO",PM2.5
29-510-0007,295100007,38.54255053,-90.26371121,Central,0,P98V,,34.4,36.5,33.2,28.5,38.6,30.4,31.7,27.3,25.8,24.7,26.5,21,22.3,25.2,25.7,1,15,1,Missouri,"St. Louis, MO-IL",PM2.5
29-510-0085,295100085,38.65649794,-90.19864628,Central,0,P98V,34.8,34,36.5,32,27.9,40.3,29.2,32.1,30.8,25,26.8,26.3,23.6,23.3,27.8,23.3,1,16,1,Missouri,"St. Louis, MO-IL",PM2.5
30-053-0018,300530018,48.39154501,-115.5533093,Northern Rockies,0,P98V,43.6,45,46.6,42.5,37.7,51.1,40.5,32.2,30.5,31.4,31.6,29.8,27,29.6,25.1,68.3,1,16,9,Montana,,PM2.5
30-093-0005,300930005,46.002602,-112.501247,Northern Rockies,0,P98V,62.8,22.3,27.3,43.9,29.6,35.9,39.1,47.5,32.3,38.5,42.1,34.9,47.9,34.8,28.6,44.1,1,16,9,Montana,"Butte-Silver Bow, MT",PM2.5
31-055-0019,310550019,41.247486,-95.973142,Northern Rockies,0,P98V,27.6,24.7,26.4,30.2,26.6,29.8,19.9,27.4,21.9,23.7,30.5,22.5,21.3,22.2,23.1,22,1,16,9,Nebraska,"Omaha-Council Bluffs, NE-IA",PM2.5
31-055-0052,310550052,41.197847,-96.056686,Northern Rockies,0,P98V,31,26.9,23.7,28.9,25,26.6,24.2,24.8,19.8,18.5,27.3,20.4,24.8,21,19.5,17.1,1,16,9,Nebraska,"Omaha-Council Bluffs, NE-IA",PM2.5
31-109-0022,311090022,40.81259,-96.68302,Northern Rockies,0,P98V,25.1,23.4,26,22.9,28.7,28.4,20.6,16.3,16.7,18.3,25.6,21.1,20,19.5,19.9,14.7,1,16,9,Nebraska,"Lincoln, NE",PM2.5
31-153-0007,311530007,41.133294,-95.956103,Northern Rockies,0,P98V,,24.1,27.3,23.7,20.4,27.3,25.5,28.8,18,18.3,29.2,28.1,23.5,24,22.3,21.7,1,15,9,Nebraska,"Omaha-Council Bluffs, NE-IA",PM2.5
31-177-0002,311770002,41.551211,-96.146175,Northern Rockies,0,P98V,27.1,24.2,26.3,23.8,24.8,24.2,25.6,19.7,17.2,19.1,25.8,21.8,24.1,20.6,16.9,16,1,16,9,Nebraska,"Omaha-Council Bluffs, NE-IA",PM2.5
32-003-1019,320031019,35.785671,-115.357048,West,0,P98V,10.1,9.3,11.5,8.1,6.9,9.7,8.5,9.4,12.9,11.3,10.1,8.6,12.5,17.3,11.5,9.8,1,16,8,Nevada,"Las Vegas-Henderson-Paradise, NV",PM2.5
32-031-0016,320310016,39.52508333,-119.8077167,West,0,P98V,31.4,41.8,25.9,19.4,28.8,40.7,27,24,53.6,40.5,18.4,19.4,15.7,38.8,29.2,20.2,1,16,8,Nevada,"Reno, NV",PM2.5
33-001-2004,330012004,43.566111,-71.496361,Northeast,0,P98V,,,29.2,18.9,22.3,19.2,22.8,18.3,11.8,18.1,18,16,16.4,11.9,9.6,12.1,1,14,3,New Hampshire,"Laconia, NH",PM2.5
33-005-0007,330050007,42.930472,-72.272389,Northeast,0,P98V,,30.2,32.6,33.6,30.2,29.2,32.1,26.3,28.5,31.4,23.3,32.4,26.2,28.2,26.6,23.4,1,15,3,New Hampshire,"Keene, NH",PM2.5
33-015-0014,330150014,43.075333,-70.748,Northeast,0,P98V,,,31.2,31.4,27.7,24.5,26.6,23.7,22.4,20.5,23.9,24,,22.7,15.7,16,1,13,3,New Hampshire,"Boston-Cambridge-Newton, MA-NH",PM2.5
34-001-1006,340011006,39.36326,-74.431,Northeast,0,P98V,,,42.4,29.6,29.6,25.4,35.4,26.7,27.2,19.5,21.1,28.4,20,22.3,19.8,16.2,1,14,3,New Jersey,"Atlantic City-Hammonton, NJ",PM2.5
34-003-0003,340030003,40.852256,-73.973314,Northeast,0,P98V,36.4,34.4,34.6,38.9,31,40.5,38.2,34.5,32.2,27.1,25.1,23.5,19.2,26,26,28.4,1,16,3,New Jersey,"New York-Newark-Jersey City, NY-NJ-PA",PM2.5
34-007-1007,340071007,39.989036,-75.050008,Northeast,0,P98V,35.7,37.8,36.7,44.5,34.8,37.2,37.8,35.1,28,25,23.4,24.3,19.8,19.5,24.2,21.9,1,16,3,New Jersey,"Philadelphia-Camden-Wilmington, PA-NJ-DE-MD",PM2.5
34-017-1003,340171003,40.725454,-74.05229,Northeast,0,P98V,39.5,37.3,37.1,46.4,37.4,37.9,41,34.9,32,29.2,25.9,28.2,24.1,27.7,26.8,25.5,1,16,3,New Jersey,"New York-Newark-Jersey City, NY-NJ-PA",PM2.5
34-021-0008,340210008,40.222411,-74.763167,Northeast,0,P98V,43.1,35.4,36.3,40.5,33.3,33.6,36.2,32.5,31,23,26.9,27.7,20.5,24.3,24.4,24.2,1,16,3,New Jersey,"Trenton, NJ",PM2.5
34-021-8001,340218001,40.31239,-74.87266,Northeast,0,P98V,31.5,,34.3,34.9,28,33,29.5,27.2,28,22.2,18.5,19.7,19.3,23.9,21.2,21.3,1,15,3,New Jersey,"Trenton, NJ",PM2.5
34-023-0006,340230006,40.472825,-74.422403,Northeast,0,P98V,34.5,34.1,28,45,35.5,33.8,32.8,30.4,28.9,20.7,19.1,20.5,17.5,19.1,20,19.8,1,16,3,New Jersey,"New York-Newark-Jersey City, NY-NJ-PA",PM2.5
34-027-0004,340270004,40.801211,-74.483433,Northeast,0,P98V,30.2,40.5,35.7,36.8,31.1,32.9,30.4,32.4,23.8,21.9,23.3,21,18.2,22.4,25.2,,1,15,3,New Jersey,"New York-Newark-Jersey City, NY-NJ-PA",PM2.5
34-027-3001,340273001,40.787628,-74.676301,Northeast,0,P98V,29.4,32.2,33.7,35.7,29.8,33.4,28.3,31.4,24.3,20.9,22.7,24.4,16.2,16.5,17.1,21.8,1,16,3,New Jersey,"New York-Newark-Jersey City, NY-NJ-PA",PM2.5
34-029-2002,340292002,39.994908,-74.170447,Northeast,0,P98V,36.6,,28.9,38.6,30.9,32.2,29.3,28.5,27.9,20.6,23.5,25.2,20.9,19.4,18.1,20.8,1,15,3,New Jersey,"New York-Newark-Jersey City, NY-NJ-PA",PM2.5
34-031-0005,340310005,40.918381,-74.168092,Northeast,0,P98V,35.4,,35.8,39.8,31,40.5,33.4,36.6,28.6,26.1,24.4,25.4,21.4,25.4,26.3,24.3,1,15,3,New Jersey,"New York-Newark-Jersey City, NY-NJ-PA",PM2.5
34-039-0004,340390004,40.64144,-74.208365,Northeast,0,P98V,38.7,39.7,42.5,41.2,40.5,42.5,39.8,35,33.8,27.7,28.1,32.9,25.8,30.6,25.7,26.8,1,16,3,New Jersey,"New York-Newark-Jersey City, NY-NJ-PA",PM2.5
34-039-0006,340390006,40.673406,-74.213889,Northeast,0,P98V,36,,30,40.9,33.1,38.6,38.7,35.9,31.1,25.6,25.1,21.5,25.1,22.4,31.4,,1,14,3,New Jersey,"New York-Newark-Jersey City, NY-NJ-PA",PM2.5
34-039-2003,340392003,40.603943,-74.276174,Northeast,0,P98V,38,35.4,35.7,35.2,36.6,38.2,37.5,33.4,29.9,25.2,23.8,23.8,23,21.8,28.7,24.7,1,16,3,New Jersey,"New York-Newark-Jersey City, NY-NJ-PA",PM2.5
34-041-0006,340410006,40.699207,-75.180525,Northeast,0,P98V,38,35,40,35.3,35,34,32.4,34.5,26.4,25.1,25.7,28.4,22.2,22.1,25.5,,1,15,3,New Jersey,"Allentown-Bethlehem-Easton, PA-NJ",PM2.5
35-001-0023,350010023,35.1343,-106.5852,Southwest,0,P98V,19.6,19.4,18.2,16.8,18.8,19.4,18.2,18.4,14.1,13.4,13.7,28.2,16.3,14.1,16.7,15.6,1,16,7,New Mexico,"Albuquerque, NM",PM2.5
35-001-0024,350010024,35.0631,-106.578785,Southwest,0,P98V,13.6,16.3,14.8,15.9,20.7,14.8,14.1,18,14.3,16.6,12.7,22,20,17.1,22.5,,1,15,7,New Mexico,"Albuquerque, NM",PM2.5
35-013-0025,350130025,32.321944,-106.767778,Southwest,0,P98V,,12.4,17,14.7,12.8,14.9,12.1,15,12.4,13.5,9,12.6,15,15.5,12,10.4,1,15,7,New Mexico,"Las Cruces, NM",PM2.5
35-049-0020,350490020,35.671111,-105.953611,Southwest,0,P98V,9.5,10.1,13.9,11.2,10.7,8.8,9.3,10.5,8.3,6.7,7.7,13,8.2,12.4,,,1,14,7,New Mexico,"Santa Fe, NM",PM2.5
36-001-0005,360010005,42.64225,-73.75464,Northeast,0,P98V,30.1,,,34,32.4,36.4,30.9,31.3,25.5,22.8,24.1,23.5,17.7,19.5,19.4,20.1,1,14,3,New York,"Albany-Schenectady-Troy, NY",PM2.5
36-029-0005,360290005,42.87690667,-78.80952601,Northeast,0,P98V,31.3,40.6,43.1,38.7,32.8,39.7,28.4,34.9,27.4,24.3,27.9,24.6,23.1,20.4,19.4,22.9,1,16,3,New York,"Buffalo-Cheektowaga-Niagara Falls, NY",PM2.5
36-031-0003,360310003,44.39308,-73.8589,Northeast,0,P98V,16.8,24.5,30.9,20.4,23.2,26.6,18.8,20.7,10.3,10.9,15.7,14.4,15.3,11.7,10.5,11.7,1,16,3,New York,,PM2.5
36-047-0122,360470122,40.71961,-73.94771,Northeast,0,P98V,,34.9,35.7,40.8,36.9,36.3,37.7,33.6,29.4,26.9,24.8,24.3,22.1,23.7,20,25.2,1,15,3,New York,"New York-Newark-Jersey City, NY-NJ-PA",PM2.5
36-061-0079,360610079,40.7997,-73.93432,Northeast,0,P98V,40.8,35.8,36.3,46.2,38,36.6,37.6,34.3,32.3,28.8,25.2,25.2,21.3,20.1,25.5,25.5,1,16,3,New York,"New York-Newark-Jersey City, NY-NJ-PA",PM2.5
36-067-1015,360671015,43.05235,-76.05921,Northeast,0,P98V,24,35.9,38.8,22.7,24.6,34.8,19.2,,22,21.2,22.5,24.1,16,16.2,15.6,16.8,1,15,3,New York,"Syracuse, NY",PM2.5
36-071-0002,360710002,41.49916,-74.00885,Northeast,0,P98V,29.8,27.8,31.6,31.3,27.4,29.6,27.5,30.4,26,20.6,26.5,20.8,20.2,19.6,19.3,20,1,16,3,New York,"New York-Newark-Jersey City, NY-NJ-PA",PM2.5
36-081-0124,360810124,40.73614,-73.82153,Northeast,0,P98V,,35.5,38.6,39,33.4,34.3,33.6,31.8,30.3,26.7,25.5,24.7,20.5,25,19.6,22.5,1,15,3,New York,"New York-Newark-Jersey City, NY-NJ-PA",PM2.5
36-085-0055,360850055,40.63307,-74.13719,Northeast,0,P98V,39.8,31.9,40,,31.3,33.4,36.2,32.8,28.7,24.6,25.5,23.2,22.1,18.3,17.9,24.7,1,15,3,New York,"New York-Newark-Jersey City, NY-NJ-PA",PM2.5
36-101-0003,361010003,42.09142,-77.20978,Northeast,0,P98V,26.6,29.1,36.5,26.2,29.3,29.2,25.6,26.7,22.3,17.5,21.4,20.4,18.9,14.8,14.6,14.8,1,16,3,New York,"Corning, NY",PM2.5
37-001-0002,370010002,36.089004,-79.407821,Southeast,0,P98V,33.8,36.5,28.8,31.1,30.5,34.7,28.7,31.9,24.5,19.9,20.1,20.7,17.5,21,15.7,,1,15,6,North Carolina,"Burlington, NC",PM2.5
37-021-0034,370210034,35.6075,-82.583333,Southeast,0,P98V,34.1,31.1,30.5,30.7,26.8,32.3,30.9,27.5,23.2,18.1,19.6,18.5,16,16.2,13.9,14.4,1,16,6,North Carolina,"Asheville, NC",PM2.5
37-033-0001,370330001,36.307033,-79.467417,Southeast,0,P98V,35,40.3,30.9,30.5,28.3,29.7,29.9,29.1,22.7,17.9,17.8,18.3,17.5,17.3,19.9,17.1,1,16,6,North Carolina,,PM2.5
37-035-0004,370350004,35.728889,-81.365556,Southeast,0,P98V,38,32,33.5,35.6,34,36.9,32.9,30.7,25.2,20.7,23.2,22.3,16.2,19.7,17.6,16.7,1,16,6,North Carolina,"Hickory-Lenoir-Morganton, NC",PM2.5
37-037-0004,370370004,35.757222,-79.159722,Southeast,0,P98V,26.8,30,27.2,25.5,24.9,28.3,28.4,25.5,23,18.2,18.6,19.5,16.5,16.5,14.9,,1,15,6,North Carolina,"Durham-Chapel Hill, NC",PM2.5
37-051-0009,370510009,35.041416,-78.953112,Southeast,0,P98V,33,27,36.1,28,31.9,31.9,30,29.6,23.7,20.1,24.7,22.1,17.7,18.6,15.9,14.2,1,16,6,North Carolina,"Fayetteville, NC",PM2.5
37-057-0002,370570002,35.814444,-80.2625,Southeast,0,P98V,37.7,37.7,33.1,35.6,29,31.9,31,30.9,24.7,20.7,23.5,20.2,20.2,18.9,23,26.8,1,16,6,North Carolina,"Winston-Salem, NC",PM2.5
37-061-0002,370610002,34.954823,-77.960781,Southeast,0,P98V,24.9,25.6,30.8,20.6,29.9,31.6,27.5,24.5,20.4,16.8,19.3,21,19,17.8,14.1,14,1,16,6,North Carolina,,PM2.5
37-067-0022,370670022,36.110556,-80.226667,Southeast,0,P98V,36.4,35.4,33.8,31.6,31.5,33.7,30.8,30,24.8,21,21.9,19.9,17.7,19.4,19,17.4,1,16,6,North Carolina,"Winston-Salem, NC",PM2.5
37-071-0016,370710016,35.253056,-81.153333,Southeast,0,P98V,31,28.1,28.8,29.4,30.8,32.6,29.5,30,22.8,20.5,21.5,26.4,16.9,18.3,17.7,,1,15,6,North Carolina,"Charlotte-Concord-Gastonia, NC-SC",PM2.5
37-081-0013,370810013,36.109167,-79.801111,Southeast,0,P98V,,,33.4,30,30.8,31.1,,28.4,24.6,20.3,21.2,21.1,19.6,19.1,14.5,15.3,1,13,6,North Carolina,"Greensboro-High Point, NC",PM2.5
37-099-0006,370990006,35.466667,-83.278056,Southeast,0,P98V,,36.5,27.8,28,21.9,26.4,25.2,28.9,24.1,15.6,19.6,20.3,13.8,14.1,15.7,14.5,1,15,6,North Carolina,"Cullowhee, NC",PM2.5
37-107-0004,371070004,35.231459,-77.568792,Southeast,0,P98V,24.3,27.1,27.6,25,24.1,27.5,23.3,24.5,20.9,19,19.9,27.5,17.1,17.6,,,1,14,6,North Carolina,"Kinston, NC",PM2.5
37-111-0004,371110004,35.687406,-81.993808,Southeast,0,P98V,39.1,35.7,28.5,28.7,29.6,34.4,32.2,28.5,25.4,17.4,19.3,21,15.2,16.8,15.8,16.7,1,16,6,North Carolina,"Marion, NC",PM2.5
37-119-0041,371190041,35.2401,-80.785683,Southeast,0,P98V,31.7,31.8,30.3,27.1,31.4,34.4,30.7,31,25.1,21.2,24.8,23.1,18.7,17,19,15.5,1,16,6,North Carolina,"Charlotte-Concord-Gastonia, NC-SC",PM2.5
37-119-0042,371190042,35.151283,-80.866983,Southeast,0,P98V,,27.9,31,27.5,29.2,33.5,31.5,26.9,23.3,20.9,21.9,26.2,21,18.2,19.6,15.9,1,15,6,North Carolina,"Charlotte-Concord-Gastonia, NC-SC",PM2.5
37-121-0001,371210001,35.915278,-82.073333,Southeast,0,P98V,37.2,32.7,30,24.2,28.9,32.2,30.9,31.9,19.3,18.2,18.2,19.2,16.3,17.8,,,1,14,6,North Carolina,,PM2.5
37-123-0001,371230001,35.2632,-79.836613,Southeast,0,P98V,28.3,25.9,28.3,22.7,27,31.2,29.2,26,22,18.3,22,20.8,17.1,17.4,15.1,,1,15,6,North Carolina,,PM2.5
37-155-0005,371550005,34.645,-78.99028,Southeast,0,P98V,,25.7,27.5,25.7,31.6,31.3,28.4,29.7,22.2,19.6,25.1,20.6,18.5,16.7,15,,1,14,6,North Carolina,"Lumberton, NC",PM2.5
37-173-0002,371730002,35.434767,-83.442133,Southeast,0,P98V,31.9,36.2,24.7,30,24.5,27.7,26.7,30.6,22.6,16.7,20.5,21.3,18,17.8,19.1,17.3,1,16,6,North Carolina,,PM2.5
37-183-0014,371830014,35.856111,-78.574167,Southeast,0,P98V,34.9,31.1,32.3,33.2,29.5,32.5,32.3,32.6,24.1,19.9,21,23.5,21.4,22.3,21.5,22.2,1,16,6,North Carolina,"Raleigh, NC",PM2.5
37-189-0003,371890003,36.221944,-81.663056,Southeast,0,P98V,,,32.3,29.2,27.2,35.1,29.2,26.6,18.4,17.1,16.2,20,14.2,14.2,13.5,,1,13,6,North Carolina,"Boone, NC",PM2.5
37-191-0005,371910005,35.369214,-77.993893,Southeast,0,P98V,34.4,29.2,29.8,26.2,25.3,33.5,32.5,25.2,27.9,18.3,21.4,22.3,17.5,20,17.6,,1,15,6,North Carolina,"Goldsboro, NC",PM2.5
38-007-0002,380070002,46.8943,-103.37853,Northern Rockies,0,P98V,,,9.2,20,8.9,10.6,17.8,,10.8,9.9,12.1,9.8,11.7,11.7,8.3,29.5,1,13,9,North Dakota,"Dickinson, ND",PM2.5
38-015-0003,380150003,46.825425,-100.76821,Northern Rockies,0,P98V,14.3,17.1,15.5,16,17.9,16.9,21.3,13.5,14.4,16.7,19,13.1,16.3,15.4,13.1,26.8,1,16,9,North Dakota,"Bismarck, ND",PM2.5
38-017-1004,380171004,46.933754,-96.85535,Northern Rockies,0,P98V,26.5,23.9,21,18.4,26,22.6,18.9,15,23.5,19.9,25,18.7,19.2,18.2,17,20.1,1,16,9,North Dakota,"Fargo, ND-MN",PM2.5
38-057-0004,380570004,47.298611,-101.766944,Northern Rockies,0,P98V,11.5,16.1,15.5,24.5,10.8,18.5,18.9,13.5,13.2,13.5,15,15,15.1,16.1,14.2,28.8,1,16,9,North Dakota,,PM2.5
39-009-0003,390090003,39.442165,-81.908827,Central,0,P98V,,31.8,32.7,29.2,33.1,33.1,29.5,37.2,,17.6,,18.5,15.6,15.6,18,18.4,1,13,1,Ohio,"Athens, OH",PM2.5
39-017-0003,390170003,39.4938,-84.3543,Central,0,P98V,38.1,41.7,40.7,38.7,37.2,,30.2,36.8,27.1,27.4,31.7,28.8,20.2,25.8,24.7,20.7,1,15,1,Ohio,"Cincinnati, OH-KY-IN",PM2.5
39-017-0016,390170016,39.33839,-84.5666,Central,0,P98V,,41.5,33.6,34.8,32.2,43.4,35.2,34.5,31.5,27.2,32.1,26.8,23.2,23.3,23.6,22.6,1,15,1,Ohio,"Cincinnati, OH-KY-IN",PM2.5
39-023-0005,390230005,39.92882,-83.80949,Central,0,P98V,,37,34.1,31.2,32.1,41.6,30.5,37.2,29.1,26.3,29.5,28,22.3,24.4,24.5,20,1,15,1,Ohio,"Springfield, OH",PM2.5
39-035-0034,390350034,41.55523,-81.575256,Central,0,P98V,,39.7,36.8,37.2,32.9,43.8,29.1,36.7,31.5,24.7,26.8,22.6,19.5,23.7,23.2,22.2,1,15,1,Ohio,"Cleveland-Elyria, OH",PM2.5
39-035-0038,390350038,41.477011,-81.682383,Central,0,P98V,42.4,47.3,44.5,47.3,42.5,51.2,36.1,39.7,39.4,29.9,30.5,28.2,28.8,26.4,26.5,27.2,1,16,1,Ohio,"Cleveland-Elyria, OH",PM2.5
39-035-0045,390350045,41.471782,-81.656792,Central,0,P98V,43.6,43.1,38.4,42.2,36.1,46.2,29.5,35.2,35.3,23.5,32.7,25.2,24.5,23.7,25.7,26,1,16,1,Ohio,"Cleveland-Elyria, OH",PM2.5
39-035-0060,390350060,41.492117,-81.678449,Central,0,P98V,45.8,42.7,39.8,45.5,42.2,49.5,31,38.7,36.9,28.9,30.9,26.5,33.5,26,31,,1,15,1,Ohio,"Cleveland-Elyria, OH",PM2.5
39-035-0065,390350065,41.446682,-81.662419,Central,0,P98V,43.3,42.2,37.3,39.1,36.1,47.9,27.8,37.5,33.8,28.9,27.3,27,23.3,23.1,26.2,26.9,1,16,1,Ohio,"Cleveland-Elyria, OH",PM2.5
39-035-1002,390351002,41.39629,-81.818667,Central,0,P98V,28.1,39.8,35.7,31.9,30.5,41.6,,35.2,30.1,20.5,26.5,23.9,19.9,22.5,22.7,21.7,1,15,1,Ohio,"Cleveland-Elyria, OH",PM2.5
39-049-0024,390490024,39.99875,-82.99344,Central,0,P98V,40,41,39.2,39.2,35.1,45,34,34.2,27.8,23.2,30.9,23.6,22,23.8,21,21.1,1,16,1,Ohio,"Columbus, OH",PM2.5
39-049-0025,390490025,39.92845,-82.98104,Central,0,P98V,41,39,40.2,37,35.5,44.9,34,35.5,27.1,26.9,33.5,23.6,22,24.3,,,1,14,1,Ohio,"Columbus, OH",PM2.5
39-049-0081,390490081,40.0877,-82.959773,Central,0,P98V,36.5,41.3,39.3,33.7,34.1,34.7,,33.5,25.3,25.7,29.1,21.4,20.7,23.6,23.8,22.2,1,15,1,Ohio,"Columbus, OH",PM2.5
39-061-0014,390610014,39.19433,-84.478974,Central,0,P98V,44.3,44.6,43.7,37.8,42,38.5,35.2,36.5,33,27.1,32.3,28.2,25.2,24.1,23.2,23,1,16,1,Ohio,"Cincinnati, OH-KY-IN",PM2.5
39-061-0040,390610040,39.12886,-84.50404,Central,0,P98V,34.3,41.2,37.7,31.9,30.5,45.8,32.8,34.7,25.5,24.8,28.7,29.7,20,24.5,23.6,21.3,1,16,1,Ohio,"Cincinnati, OH-KY-IN",PM2.5
39-061-0042,390610042,39.10492,-84.55117,Central,0,P98V,,46.6,40,33.8,31.9,44.4,34.5,35.9,27.5,27,35,30.2,23.3,26.4,24.8,22.8,1,15,1,Ohio,"Cincinnati, OH-KY-IN",PM2.5
39-093-3002,390933002,41.463071,-82.114261,Central,0,P98V,,,35.8,31.4,31.1,33.9,27.4,34,32.1,21.5,24.4,23.1,22,20.9,22.9,22.6,1,14,1,Ohio,"Cleveland-Elyria, OH",PM2.5
39-095-0024,390950024,41.644067,-83.54616,Central,0,P98V,,36.7,37.3,36.4,34.3,45.3,25.9,34.4,30.1,27.3,26.6,26.4,21.3,21.3,24.8,23.6,1,15,1,Ohio,"Toledo, OH",PM2.5
39-095-0026,390950026,41.62057,-83.64226,Central,0,P98V,,38.3,38.1,36.7,30.6,42.9,27.1,33.3,31.6,23.5,30,23.5,21.5,21.6,28.6,23.5,1,15,1,Ohio,"Toledo, OH",PM2.5
39-099-0005,390990005,41.11112583,-80.64506234,Central,0,P98V,34.6,44.8,38.3,31.3,34.4,41.6,28.6,34.4,31.3,26.6,33.4,25,23.2,22.9,22.1,26.2,1,16,1,Ohio,"Youngstown-Warren-Boardman, OH-PA",PM2.5
39-113-0032,391130032,39.760659,-84.187678,Central,0,P98V,,,36.9,42.7,32.5,45,30.3,36.9,30.1,26.8,30.4,28.5,21.9,22.7,,,1,12,1,Ohio,"Dayton, OH",PM2.5
39-133-0002,391330002,41.1644,-81.2352,Central,0,P98V,35.9,42.7,37,30.7,29.8,42.2,30.5,31,29.4,23.8,31.9,23.2,18.2,23.3,,21,1,15,1,Ohio,"Akron, OH",PM2.5
39-135-1001,391351001,39.83562,-84.72049,Central,0,P98V,,38.4,29,34.3,27.7,39,28.7,34,24.7,21.1,30.2,24.9,19.5,21,25.4,18.3,1,15,1,Ohio,"Dayton, OH",PM2.5
39-145-0013,391450013,38.75465,-82.917,Central,0,P98V,43.5,49.2,42.1,32.8,29.4,40.3,30.5,37.5,24.4,21.8,24.4,21.2,18.8,18.2,16.2,22.8,1,16,1,Ohio,"Portsmouth, OH",PM2.5
39-151-0017,391510017,40.786878,-81.394186,Central,0,P98V,40.1,45,41,34.2,36.3,47.6,32.2,,,30,33,28.1,25.4,27.8,25,26.1,1,14,1,Ohio,"Canton-Massillon, OH",PM2.5
39-153-0017,391530017,41.063526,-81.468956,Central,0,P98V,37,45.6,42.3,36.9,36.9,45.2,31.5,33.3,37.6,29.2,32.7,26.4,20.3,24.9,22.9,26.6,1,16,1,Ohio,"Akron, OH",PM2.5
39-153-0023,391530023,41.087956,-81.541611,Central,0,P98V,36.8,42.6,41.5,33.4,37,42.3,30.4,27.9,32.7,24.8,30.2,24.8,19.8,24,21.8,22.8,1,16,1,Ohio,"Akron, OH",PM2.5
40-109-0035,401090035,35.47292,-97.52709,South,0,P98V,28.7,25.7,30,23.2,22.5,26.3,19.9,23.9,23.2,19,17.2,22.3,18.7,19.3,21.5,,1,15,5,Oklahoma,"Oklahoma City, OK",PM2.5
40-109-1037,401091037,35.614131,-97.475083,South,0,P98V,22.3,27.2,27.8,25.2,29.9,29.6,21.9,26.5,22.8,19.8,17.6,22.7,19.1,21.4,21.9,18.2,1,16,5,Oklahoma,"Oklahoma City, OK",PM2.5
40-121-0415,401210415,34.90227,-95.784375,South,0,P98V,25.2,28.2,27.6,27.8,24.5,29.4,22.2,28.4,22,21.9,18.3,19.9,21.4,21,21.5,15.9,1,16,5,Oklahoma,"McAlester, OK",PM2.5
40-143-1127,401431127,36.204902,-95.976537,South,0,P98V,,30.3,31.6,27,26.7,31.1,22.5,27.2,22.7,22.8,21.8,24.3,20.3,21,21.3,17.4,1,15,5,Oklahoma,"Tulsa, OK",PM2.5
41-029-0133,410290133,42.31411,-122.87923,Northwest,0,P98V,40.3,32.3,45.4,32,34.6,36.2,31.5,30.7,33.1,37.2,19.1,29,31,65.6,31.3,45.8,1,16,4,Oregon,"Medford, OR",PM2.5
41-035-0004,410350004,42.190296,-121.731369,Northwest,0,P98V,37.3,35.1,92.6,30.6,42,49.2,47.5,39.6,52.2,48.3,34.6,37.1,34.1,50.1,29.6,44.2,1,16,4,Oregon,"Klamath Falls, OR",PM2.5
41-039-0060,410390060,44.026312,-123.083737,Northwest,0,P98V,39.5,34.3,46.2,30.7,27.8,35.6,31.8,36.3,28.7,35.9,16.5,21.2,25.4,38.6,30.7,26.7,1,16,4,Oregon,"Eugene, OR",PM2.5
41-039-2013,410392013,43.744352,-122.480487,Northwest,0,P98V,52,59.5,55.4,53.3,46.1,58.4,38.6,42.7,38.7,41.3,33,42,38.4,41,41.1,28.9,1,16,4,Oregon,"Eugene, OR",PM2.5
41-051-0080,410510080,45.496641,-122.602877,Northwest,0,P98V,28.2,24.9,28,22.5,32.5,25.9,37.5,28.8,26.8,21.5,17,36.1,23,35.6,15,29.2,1,16,4,Oregon,"Portland-Vancouver-Hillsboro, OR-WA",PM2.5
42-001-0001,420010001,39.92002011,-77.30968017,Northeast,0,P98V,36.5,36,40,36.5,36.3,35.8,33.6,30.7,30.5,26.5,31,30.2,27.7,25.3,20.9,24.1,1,16,3,Pennsylvania,"Gettysburg, PA",PM2.5
42-003-0008,420030008,40.46542033,-79.96075745,Northeast,0,P98V,34.1,41.7,41.4,35.9,38.3,42.5,37.6,39.8,30.3,24.7,29.7,27.3,20.4,20.8,20.7,22.4,1,16,3,Pennsylvania,"Pittsburgh, PA",PM2.5
42-003-0064,420030064,40.32376755,-79.8680624,Northeast,0,P98V,64.2,63.9,59.9,66.6,68.5,69.6,55.7,54.7,50,45.3,48.8,38,42.5,31.1,32.2,34.9,1,16,3,Pennsylvania,"Pittsburgh, PA",PM2.5
42-003-0067,420030067,40.37564363,-80.16994346,Northeast,0,P98V,32,37,47.6,42.1,42.2,34.1,28.6,42.4,25.5,22.5,28.5,30.6,18.1,23.5,18.9,20.6,1,16,3,Pennsylvania,"Pittsburgh, PA",PM2.5
42-003-1008,420031008,40.6174879,-79.72766396,Northeast,0,P98V,41.6,48.1,46.2,41.9,45.4,41.3,37.8,39.9,32.1,25.9,34,29.8,20.7,24.2,19.9,22,1,16,3,Pennsylvania,"Pittsburgh, PA",PM2.5
42-003-1301,420031301,40.40232803,-79.86097318,Northeast,0,P98V,39.7,51.7,41.9,50.4,38.3,38.6,38.1,43.7,36.3,30.7,37.2,33.7,26.8,26.1,24.4,24.1,1,16,3,Pennsylvania,"Pittsburgh, PA",PM2.5
42-003-3007,420033007,40.29434056,-79.88533112,Northeast,0,P98V,,44.5,50.4,58.8,39.8,30.9,35.8,35,34.6,25.9,28.2,,19.2,17.1,31.2,25.8,1,14,3,Pennsylvania,"Pittsburgh, PA",PM2.5
42-007-0014,420070014,40.74779586,-80.31644171,Northeast,0,P98V,36.7,49.3,37.7,33.8,43,51.8,39,37.6,31.2,28.7,29.4,29.8,22.6,24.8,23.9,23.4,1,16,3,Pennsylvania,"Pittsburgh, PA",PM2.5
42-017-0012,420170012,40.107222,-74.882222,Northeast,0,P98V,38.4,38.5,40.6,39.6,29.9,35.4,34.2,35,30.9,25.8,28.3,29.7,28.2,31.3,26.4,27.4,1,16,3,Pennsylvania,"Philadelphia-Camden-Wilmington, PA-NJ-DE-MD",PM2.5
42-021-0011,420210011,40.309722,-78.915,Northeast,0,P98V,34.1,40.1,46.6,36.8,36.2,43.2,39,34.6,32.2,28.7,30.2,32.5,28,29.6,26.9,27.1,1,16,3,Pennsylvania,"Johnstown, PA",PM2.5
42-027-0100,420270100,40.811389,-77.877028,Northeast,0,P98V,,41.4,36.4,35.4,37.8,39.7,31.7,33.1,29.7,22.6,25.5,28.5,22.5,21.1,20.4,20.9,1,15,3,Pennsylvania,"State College, PA",PM2.5
42-029-0100,420290100,39.83446059,-75.76824208,Northeast,0,P98V,,,33.7,38.5,32.7,33.7,38.3,38.1,32,31.1,35.1,33.8,24.1,27.2,25.3,24.7,1,14,3,Pennsylvania,"Philadelphia-Camden-Wilmington, PA-NJ-DE-MD",PM2.5
42-041-0101,420410101,40.246528,-77.18675,Northeast,0,P98V,,,45.8,41.6,39.1,40.1,33.3,35.3,33.7,29.9,31.4,30.4,29.2,36.5,27.2,28.2,1,14,3,Pennsylvania,"Harrisburg-Carlisle, PA",PM2.5
42-043-0401,420430401,40.246992,-76.846988,Northeast,0,P98V,45.8,47.7,43.2,41.5,35.5,40.1,37,35.6,34.3,33,32.9,31.2,28.1,35,29.4,30.5,1,16,3,Pennsylvania,"Harrisburg-Carlisle, PA",PM2.5
42-045-0002,420450002,39.835556,-75.3725,Northeast,0,P98V,36.2,39.5,40.1,37.8,30.5,37,36.7,34,28.6,27.9,32.8,28.6,31.1,30.5,26,28.4,1,16,3,Pennsylvania,"Philadelphia-Camden-Wilmington, PA-NJ-DE-MD",PM2.5
42-049-0003,420490003,42.14175,-80.038611,Northeast,0,P98V,28.2,37.5,42.9,29.7,32.5,40.7,30.2,35.1,28.8,27.5,30.2,26.7,25.3,25.6,23.9,22,1,16,3,Pennsylvania,"Erie, PA",PM2.5
42-069-2006,420692006,41.442778,-75.623056,Northeast,0,P98V,31.5,36.7,45.2,33.8,31.2,32.8,28.7,32,27.7,23.4,27.7,23.4,19.7,24,,24.6,1,15,3,Pennsylvania,"Scranton--Wilkes-Barre--Hazleton, PA",PM2.5
42-071-0007,420710007,40.046667,-76.283333,Northeast,0,P98V,47,42.1,40.2,51.5,35.5,45.2,34.9,39.6,35,29.4,34.1,29.9,28.9,33.6,30,33.5,1,16,3,Pennsylvania,"Lancaster, PA",PM2.5
42-085-0100,420850100,41.21501353,-80.48477869,Northeast,0,P98V,,43.9,36.6,35.4,34.5,39,30.7,34.9,30.3,24.2,27.4,25.7,22.5,22.9,21,23,1,15,3,Pennsylvania,"Youngstown-Warren-Boardman, OH-PA",PM2.5
42-091-0013,420910013,40.112222,-75.309167,Northeast,0,P98V,31.5,47.6,37.4,37.5,28.8,32,36.4,30.1,23.7,27.2,25.9,27.6,21.8,27.2,24.5,23.9,1,16,3,Pennsylvania,"Philadelphia-Camden-Wilmington, PA-NJ-DE-MD",PM2.5
42-095-0025,420950025,40.628056,-75.341111,Northeast,0,P98V,37.3,42.9,46.2,37,35.2,36.2,38.3,37.9,33.1,30.1,33.3,35.2,27.6,31.7,24.7,26.3,1,16,3,Pennsylvania,"Allentown-Bethlehem-Easton, PA-NJ",PM2.5
42-101-0004,421010004,40.008889,-75.09778,Northeast,0,P98V,41.2,40.2,40.9,39.9,34.3,35.9,38.6,35.4,34.5,25.9,27.6,23.7,,35.1,25.2,27.2,1,15,3,Pennsylvania,"Philadelphia-Camden-Wilmington, PA-NJ-DE-MD",PM2.5
42-101-0047,421010047,39.94465126,-75.16520616,Northeast,0,P98V,,39.6,38.7,42.3,31.5,39.4,48,39.7,37.6,37.4,31.6,32.1,24.2,28.4,26.4,,1,14,3,Pennsylvania,"Philadelphia-Camden-Wilmington, PA-NJ-DE-MD",PM2.5
42-125-0005,421250005,40.146667,-79.902222,Northeast,0,P98V,36,44.4,45.4,35.6,35.4,36.4,31.6,40.9,27.2,29,27,28.6,23.4,22.2,26.5,23.7,1,16,3,Pennsylvania,"Pittsburgh, PA",PM2.5
42-125-0200,421250200,40.170556,-80.261389,Northeast,0,P98V,33.3,38.9,37.2,33.4,34,33.1,33,37.9,25.6,25.3,27,27.4,20.6,21.2,22.1,20,1,16,3,Pennsylvania,"Pittsburgh, PA",PM2.5
42-125-5001,421255001,40.445278,-80.420833,Northeast,0,P98V,30.5,37.6,36.7,33.9,36,39.2,39.3,41.2,26.4,25.8,22.2,12.3,15.8,20.6,19.4,18.2,1,16,3,Pennsylvania,"Pittsburgh, PA",PM2.5
42-129-0008,421290008,40.304694,-79.505667,Northeast,0,P98V,37.2,44.1,40,34.8,39,38.7,33.5,38.2,29.2,33.3,32.4,32.8,22.8,26.9,20.4,21.1,1,16,3,Pennsylvania,"Pittsburgh, PA",PM2.5
42-133-0008,421330008,39.965278,-76.699444,Northeast,0,P98V,41.1,41.3,52.8,47,35.9,39.4,35.1,37,32.3,26.6,29.7,28,28.4,30.6,24.8,27.3,1,16,3,Pennsylvania,"York-Hanover, PA",PM2.5
44-003-0002,440030002,41.615237,-71.72,Northeast,0,P98V,25.9,33.9,35.3,33.3,28.3,,27.9,26.1,20.5,17.5,21.3,16.1,13.8,14.9,10.7,13.4,1,15,3,Rhode Island,"Providence-Warwick, RI-MA",PM2.5
44-007-0022,440070022,41.807776,-71.415105,Northeast,0,P98V,29.7,30.6,32.3,30.5,30.6,31.1,30.2,27.1,24.4,22.6,22.8,25.1,20,20.3,15.7,17.2,1,16,3,Rhode Island,"Providence-Warwick, RI-MA",PM2.5
44-007-0026,440070026,41.874668,-71.379971,Northeast,0,P98V,,,30.3,38.5,28.9,29.3,30.2,31,24.8,21.6,26.3,22.1,,21.6,19,20.5,1,13,3,Rhode Island,"Providence-Warwick, RI-MA",PM2.5
44-007-1010,440071010,41.841573,-71.36077,Northeast,0,P98V,29.6,32.2,30.8,31.6,27.7,29.9,27.5,27.5,24.1,23.8,24.5,23,19.6,20.5,17.3,18.1,1,16,3,Rhode Island,"Providence-Warwick, RI-MA",PM2.5
45-019-0048,450190048,32.980254,-80.06501,Southeast,0,P98V,30.3,25.8,27,22.8,27.1,32.5,24.5,26.7,21.8,17.4,21.5,25.7,20.6,16.8,18,14.7,1,16,6,South Carolina,"Charleston-North Charleston, SC",PM2.5
45-019-0049,450190049,32.790984,-79.958694,Southeast,0,P98V,31,25.5,24.5,22,29.2,32.5,22.2,24.8,22.5,17.6,21.6,26.3,17,15.7,15.3,14.4,1,16,6,South Carolina,"Charleston-North Charleston, SC",PM2.5
45-025-0001,450250001,34.615367,-80.198787,Southeast,0,P98V,25.1,24.2,29.7,25.3,30.8,29.1,29.8,26,20.4,19.1,20.7,21.5,16.5,18.1,15.9,14.1,1,16,6,South Carolina,,PM2.5
45-037-0001,450370001,33.739963,-81.853635,Southeast,0,P98V,28,24.6,29.8,30.2,35.9,35.1,27.4,29.3,23.8,19.7,21.2,22.8,16.5,19.2,15.8,15.2,1,16,6,South Carolina,"Augusta-Richmond County, GA-SC",PM2.5
45-063-0008,450630008,34.051017,-81.15495,Southeast,0,P98V,32.4,26,31,29.9,34.4,35.5,30.4,29.8,23.6,22.8,23.7,25.6,19.6,19.7,20.2,17.7,1,16,6,South Carolina,"Columbia, SC",PM2.5
45-079-0007,450790007,34.093959,-80.962304,Southeast,0,P98V,31.8,24,28.5,29.3,33.1,33.7,29.3,28.1,23,,21.3,23,16.1,21.2,15.2,16.8,1,15,6,South Carolina,"Columbia, SC",PM2.5
45-079-0019,450790019,33.991509,-81.024141,Southeast,0,P98V,32.8,26.9,30.4,28.1,35,36.8,29.7,31.9,23.3,21.4,24.1,25.9,20,18.5,18.7,16.7,1,16,6,South Carolina,"Columbia, SC",PM2.5
46-011-0002,460110002,44.310283,-96.80071,Northern Rockies,0,P98V,27.5,20.7,24.5,26.6,23.9,24.4,21.6,21.1,18.9,25.7,25.7,18.4,20.6,22.9,17.7,,1,15,9,South Dakota,"Brookings, SD",PM2.5
46-013-0003,460130003,45.4625,-98.486111,Northern Rockies,0,P98V,,23.4,19.8,21.3,22.9,22.7,20.5,16.6,27.7,23.4,27.2,17.7,23.3,22,17.4,13.8,1,15,9,South Dakota,"Aberdeen, SD",PM2.5
46-071-0001,460710001,43.74561,-101.941218,Northern Rockies,0,P98V,,12.4,13.4,16.8,12.1,11.4,13.5,12.4,12.8,10.4,13.6,10,12.9,13.9,11.4,23.3,1,15,9,South Dakota,,PM2.5
46-099-0006,460990006,43.544289,-96.726435,Northern Rockies,0,P98V,25.7,21.9,22.4,24.1,21.3,26.1,22.1,28.4,26,22.2,27.8,21.5,20.8,21.8,18.6,,1,15,9,South Dakota,"Sioux Falls, SD",PM2.5
46-103-1001,461031001,44.078352,-103.22824,Northern Rockies,0,P98V,27.1,19.4,18.8,22.5,16.6,17.3,16.8,19.4,17.3,14,26.6,13.2,18.5,16.8,16,21.2,1,16,9,South Dakota,"Rapid City, SD",PM2.5
47-065-0031,470650031,34.99438,-85.24293,Central,0,P98V,53.3,41,,38,30.8,36.9,39.1,33.6,25.6,22.6,25.8,23.9,18.3,20,19.9,17.3,1,15,1,Tennessee,"Chattanooga, TN-GA",PM2.5
47-065-4002,470654002,35.050918,-85.293019,Central,0,P98V,47,36.9,30.5,38.7,29.2,35,32.9,35.1,27.6,23.3,23.1,23,16.9,18.7,18.2,16.1,1,16,1,Tennessee,"Chattanooga, TN-GA",PM2.5
48-037-0004,480370004,33.425758,-94.070802,South,0,P98V,31,29.6,35.7,26.7,27.7,30.5,32,27.2,24.1,21,20.6,23.3,18.7,27.5,19.4,19,1,16,5,Texas,"Texarkana, TX-AR",PM2.5
48-113-0050,481130050,32.774262,-96.797686,South,0,P98V,24.3,28.1,35,32.5,28.7,28.6,23,25.3,27.4,20.2,21.1,20.8,22.3,25.6,22.6,18.1,1,16,5,Texas,"Dallas-Fort Worth-Arlington, TX",PM2.5
48-113-0069,481130069,32.820061,-96.860117,South,0,P98V,25.6,28.1,33.4,31.3,24.1,27.9,22,24.1,23.7,20.8,17.8,22.9,19.9,23.2,20.9,18.9,1,16,5,Texas,"Dallas-Fort Worth-Arlington, TX",PM2.5
48-141-0037,481410037,31.768291,-106.50126,South,0,P98V,22,27,31.5,,,26.5,21,21.3,20.3,15.1,24.6,36.8,14.2,19.5,16.6,15.5,1,14,5,Texas,"El Paso, TX",PM2.5
48-201-0024,482010024,29.901036,-95.326137,South,0,P98V,,29,26.7,30.5,29.7,26.6,23.9,24.9,30.7,23.4,22.9,20.9,26.2,22.1,22.6,21.2,1,15,5,Texas,"Houston-The Woodlands-Sugar Land, TX",PM2.5
48-201-0058,482010058,29.770698,-95.031232,South,0,P98V,33.1,32.7,28.3,26.3,31.1,25.9,22,25.9,20.5,20.7,20.7,20.9,22.2,20.5,23.6,20.4,1,16,5,Texas,"Houston-The Woodlands-Sugar Land, TX",PM2.5
48-201-1035,482011035,29.733726,-95.257593,South,0,P98V,27.7,32.7,30.4,28.8,31,30.1,32.1,32,26.5,25.6,24.2,23.5,23.4,22.8,24.4,23.3,1,16,5,Texas,"Houston-The Woodlands-Sugar Land, TX",PM2.5
48-203-0002,482030002,32.668987,-94.167457,South,0,P98V,,,35.9,24.2,23.3,29.1,25.9,23.7,20.7,17.7,22.2,19.2,23.6,23.3,19.1,16.1,1,14,5,Texas,"Marshall, TX",PM2.5
48-355-0032,483550032,27.804505,-97.431582,South,0,P98V,,20.1,23.4,26.9,18.4,31.7,30.3,28.6,24,24.6,24.2,24.4,41,28.7,24.1,25.8,1,15,5,Texas,"Corpus Christi, TX",PM2.5
48-355-0034,483550034,27.811817,-97.465703,South,0,P98V,,,25.5,22.2,18.1,19.1,,24,18.5,22.7,19.7,,24.9,25.8,19.4,23.4,1,12,5,Texas,"Corpus Christi, TX",PM2.5
48-439-1002,484391002,32.805818,-97.356568,South,0,P98V,28.9,27.5,33.2,29,25.2,26.3,23,23.8,26.5,19.1,22.6,22.1,22.1,26.4,21.1,18.2,1,16,5,Texas,"Dallas-Fort Worth-Arlington, TX",PM2.5
48-439-1006,484391006,32.759143,-97.342334,South,0,P98V,,,34.3,31.8,25.7,26.4,23,23.5,27.6,20.5,19.5,23.4,21.3,25.6,21.1,18.7,1,14,5,Texas,"Dallas-Fort Worth-Arlington, TX",PM2.5
49-003-0003,490030003,41.4927067,-112.0188631,Southwest,0,P98V,,41.7,51.9,26.5,52,25.9,28.5,33.6,42.7,35.7,49,35.6,27,48.9,34.4,32.2,1,15,7,Utah,"Ogden-Clearfield, UT",PM2.5
49-005-0004,490050004,41.731111,-111.8375,Southwest,0,P98V,34.9,71.1,58.4,31.5,101.2,61.7,29.2,35.2,42.8,42.7,42.3,42.3,26.9,68,39.9,29,1,16,7,Utah,,PM2.5
49-035-3006,490353006,40.736389,-111.872222,Southwest,0,P98V,51.4,65.6,55.9,33.5,63.9,43.3,37.6,64.2,35.7,45.2,49.9,38.5,26,58.8,43.3,29.3,1,16,7,Utah,"Salt Lake City, UT",PM2.5
49-049-0002,490490002,40.253611,-111.663056,Southwest,0,P98V,34,49,39.5,28,53.7,35.6,25.6,50.3,34.1,42.2,33,30.1,22.7,81.8,25.5,25.8,1,16,7,Utah,"Provo-Orem, UT",PM2.5
49-049-4001,490494001,40.341389,-111.713611,Southwest,0,P98V,33.5,61.3,43.3,29.2,63.9,36.7,32,64.9,35.5,49.3,36.8,36.5,23.9,72.4,29.1,27.3,1,16,7,Utah,"Provo-Orem, UT",PM2.5
49-049-5010,490495010,40.13633629,-111.6605022,Southwest,0,P98V,26.6,43.2,32.3,23,52.5,32.4,21.6,55,26.2,43.6,48.1,33.4,22.4,82.2,26.5,28.1,1,16,7,Utah,"Provo-Orem, UT",PM2.5
49-057-0002,490570002,41.20632111,-111.9755243,Southwest,0,P98V,,,59.8,27.3,62.5,31,25.8,50.4,32.3,39.1,42.1,43.8,26.2,49.4,25.7,28,1,14,7,Utah,"Ogden-Clearfield, UT",PM2.5
49-057-1003,490571003,41.30361395,-111.9878709,Southwest,0,P98V,,44.7,52.9,21.7,56,29.8,28.6,45.2,29.8,37.6,39.3,32.9,27.4,44.6,,,1,13,7,Utah,"Ogden-Clearfield, UT",PM2.5
50-007-0012,500070012,44.480278,-73.214444,Northeast,0,P98V,22.7,29.9,38,27.3,31.5,31.2,28.3,28.1,22.1,17.4,25.3,22.3,16.9,15.2,16.6,,1,15,3,Vermont,"Burlington-South Burlington, VT",PM2.5
50-021-0002,500210002,43.608056,-72.982778,Northeast,0,P98V,31,32.6,36,,32.1,32.8,29,27.9,27.7,30.6,31.8,30.3,23.7,20.9,28.7,30.1,1,15,3,Vermont,"Rutland, VT",PM2.5
51-013-0020,510130020,38.8577,-77.05922,Southeast,0,P98V,37.7,37.2,37.1,39.2,35.7,34.2,32.5,29.5,27.9,23.2,21.8,,21.8,21.2,19.2,20.9,1,15,6,Virginia,"Washington-Arlington-Alexandria, DC-VA-MD-WV",PM2.5
51-036-0002,510360002,37.34438,-77.25925,Southeast,0,P98V,32.9,33.2,28.7,36,28.9,31.4,33.7,30.5,22.1,18.5,20.6,21.6,20,18.2,16,17.2,1,16,6,Virginia,"Richmond, VA",PM2.5
51-041-0003,510410003,37.43467,-77.45118,Southeast,0,P98V,34.6,33.2,30.2,37.6,29.8,30.4,31.1,30.7,22.8,19,21.6,22,20,20.4,16,16.8,1,16,6,Virginia,"Richmond, VA",PM2.5
51-059-0030,510590030,38.77335,-77.10468,Southeast,0,P98V,35.3,34.3,37.9,32.6,35.3,35.8,33.9,31.9,28.4,24.2,23.7,24.1,21.1,21,18,19.7,1,16,6,Virginia,"Washington-Arlington-Alexandria, DC-VA-MD-WV",PM2.5
51-087-0014,510870014,37.55652,-77.40027,Southeast,0,P98V,32,34.4,28.9,36.4,30.2,32.2,31.1,32,25.3,20.8,22.4,23.2,19.1,19.3,15.7,17.2,1,16,6,Virginia,"Richmond, VA",PM2.5
51-087-0015,510870015,37.67132,-77.5664,Southeast,0,P98V,31,32.7,30,31.7,28.1,29,28.7,30.4,21.9,20.2,21.1,18.6,18.3,18.5,16,15.6,1,16,6,Virginia,"Richmond, VA",PM2.5
51-107-1005,511071005,39.02473,-77.48925,Southeast,0,P98V,36.6,35.6,32.3,35.3,34.2,37.7,32.8,27.7,27.5,20,19.6,20.5,20.6,19.9,19.2,21.9,1,16,6,Virginia,"Washington-Arlington-Alexandria, DC-VA-MD-WV",PM2.5
51-139-0004,511390004,38.66373,-78.50442,Southeast,0,P98V,30.2,30.7,35.3,33.6,27.2,32,28.3,30,25,20.8,24.3,21.2,17.2,19.8,19.3,,1,15,6,Virginia,,PM2.5
51-520-0006,515200006,36.608,-82.1641,Southeast,0,P98V,40.8,34.2,33.3,30.2,30.2,30.6,30.9,28,25.9,19.7,21.1,21.5,16.5,16.2,15.1,13.4,1,16,6,Virginia,"Kingsport-Bristol-Bristol, TN-VA",PM2.5
51-710-0024,517100024,36.85555,-76.30135,Southeast,0,P98V,29.9,31.1,33.6,31.9,28.2,29.6,31.3,27.3,58.7,17.7,21.7,38.8,21.7,15.8,15.6,17.3,1,16,6,Virginia,"Virginia Beach-Norfolk-Newport News, VA-NC",PM2.5
51-810-0008,518100008,36.841883,-76.181233,Southeast,0,P98V,28.9,29.3,36.5,32.6,27.9,29.9,32,28.7,38.6,20.1,23.9,25.6,22.7,18,19.8,18,1,16,6,Virginia,"Virginia Beach-Norfolk-Newport News, VA-NC",PM2.5
53-033-0057,530330057,47.55975,-122.338265,Northwest,0,P98V,36.4,31.4,29.9,28.4,29.1,30,,26.2,23.8,27.4,,21.2,20.8,30.7,,22.5,1,13,4,Washington,"Seattle-Tacoma-Bellevue, WA",PM2.5
53-033-0080,530330080,47.568236,-122.308628,Northwest,0,P98V,25,23.5,24.9,20.5,25.6,20,,19.9,17.1,18.5,14.4,14.1,16.6,16,15.4,17.6,1,15,4,Washington,"Seattle-Tacoma-Bellevue, WA",PM2.5
53-053-0029,530530029,47.1864,-122.4517,Northwest,0,P98V,49,41.5,42.9,36.8,43.7,40.5,42.7,45.3,44.2,47.6,21.4,35.7,27.7,33.9,29.7,32.8,1,16,4,Washington,"Seattle-Tacoma-Bellevue, WA",PM2.5
53-061-1007,530611007,48.054315,-122.171529,Northwest,0,P98V,42.8,39.2,43.4,40.2,28.2,37.1,32.5,36.4,27.9,37.1,22.1,25.9,22.7,29.2,27.1,34.7,1,16,4,Washington,"Seattle-Tacoma-Bellevue, WA",PM2.5
53-077-0009,530770009,46.598056,-120.499167,Northwest,0,P98V,,38.4,35.2,35.4,44.3,,,35.4,37.3,39.1,35.1,30.2,26.9,41.3,29.2,32.3,1,13,4,Washington,"Yakima, WA",PM2.5
54-003-0003,540030003,39.448006,-77.964125,Central,0,P98V,45.5,43.3,42.3,35.7,34.4,37.3,31.4,31.4,30.8,25.7,36.4,27.7,29.5,21.7,28.7,28.9,1,16,1,West Virginia,"Hagerstown-Martinsburg, MD-WV",PM2.5
54-009-0005,540090005,40.34102279,-80.59663523,Central,0,P98V,34.8,44.2,45.5,37.3,48.4,38.8,32.2,40,38.9,23.2,29.8,27.4,22.4,26.8,22.9,25.3,1,16,1,West Virginia,"Weirton-Steubenville, WV-OH",PM2.5
54-009-0011,540090011,40.394583,-80.612017,Central,0,P98V,45.6,46.7,50,42.5,47.5,44.7,36.9,49.7,34.9,26.3,31.6,,21.9,26.8,22.9,23.7,1,15,1,West Virginia,"Weirton-Steubenville, WV-OH",PM2.5
54-011-0006,540110006,38.424133,-82.4259,Central,0,P98V,39.6,44.6,45.7,33,30.9,40.5,30.1,39.4,27.4,22.5,28,23,21.1,20.3,22.4,21,1,16,1,West Virginia,"Huntington-Ashland, WV-KY-OH",PM2.5
54-029-1004,540291004,40.42153887,-80.58071745,Central,0,P98V,45.5,44.7,51.8,37.8,42,43.9,33.7,44.9,35.8,25.2,31.2,28.9,20.7,27.3,21.7,,1,15,1,West Virginia,"Weirton-Steubenville, WV-OH",PM2.5
54-033-0003,540330003,39.278117,-80.34225,Central,0,P98V,30.5,40.4,37.6,28.6,34.9,33.9,35.1,31.5,27.1,19.5,22.2,,20.3,19.1,17.5,19.5,1,15,1,West Virginia,"Clarksburg, WV",PM2.5
54-039-0010,540390010,38.3456,-81.628317,Central,0,P98V,,40.4,34.7,35.3,31.2,35.4,37.6,33.5,31.7,21.1,23.5,26,20.8,16.7,17,19.1,1,15,1,West Virginia,"Charleston, WV",PM2.5
54-039-1005,540391005,38.366183,-81.693717,Central,0,P98V,37,44.5,38.6,36.3,33.5,39.5,37.3,36.5,33.8,26,25.3,26.4,21.1,19.7,19.9,19.8,1,16,1,West Virginia,"Charleston, WV",PM2.5
54-049-0006,540490006,39.481483,-80.134667,Central,0,P98V,35.8,43.6,40.2,33.7,33.8,33.6,33.8,33.5,28,22.5,26.8,28.2,19.7,18.4,18.4,19.4,1,16,1,West Virginia,"Fairmont, WV",PM2.5
54-051-1002,540511002,39.91596097,-80.73385802,Central,0,P98V,33.8,38.5,39.7,33,34.8,32,34.7,37.9,29.1,25.5,33.5,28.6,23.6,23.2,22.1,23.6,1,16,1,West Virginia,"Wheeling, WV-OH",PM2.5
54-061-0003,540610003,39.649367,-79.920867,Central,0,P98V,32.5,37.2,42.8,39.2,34.4,35.1,33.9,39.8,27.6,22.8,23.9,29.2,17.7,19,17.2,19.5,1,16,1,West Virginia,"Morgantown, WV",PM2.5
54-081-0002,540810002,37.807767,-81.197433,Central,0,P98V,31.8,35.2,33.6,32.5,30.8,30.6,30.7,28.8,23.4,18.4,21.3,20.6,17.1,18,,,1,14,1,West Virginia,"Beckley, WV",PM2.5
54-107-1002,541071002,39.323533,-81.552367,Central,0,P98V,38,42.1,37,32,34.7,36.2,35.1,38.8,28.2,26.5,28.4,25.1,19.7,20.5,18.1,24.5,1,16,1,West Virginia,"Parkersburg-Vienna, WV",PM2.5
55-009-0005,550090005,44.50729,-87.99344,Upper Midwest,0,P98V,32.4,33.5,29.1,33.5,32.3,41.5,36.9,32.7,34.6,36.4,35.1,26.7,24.9,20,25.7,21.7,1,16,2,Wisconsin,"Green Bay, WI",PM2.5
55-025-0047,550250047,43.0733,-89.4358,Upper Midwest,0,P98V,34.2,36.6,32.7,32,31.9,40.1,33.4,37.3,31.1,32.1,29.5,26.7,26.7,22.8,24.5,23.1,1,16,2,Wisconsin,"Madison, WI",PM2.5
55-043-0009,550430009,42.693,-90.698,Upper Midwest,0,P98V,40.2,30.7,24.2,30.4,33.3,38.6,30,36.4,35.2,33,30.2,23.4,21.8,18.8,21.5,22,1,16,2,Wisconsin,"Platteville, WI",PM2.5
55-059-0019,550590019,42.504722,-87.8093,Upper Midwest,0,P98V,27.2,33,31.7,27,27.5,36.3,30.7,35.2,25.8,34.7,23.8,24.9,25.5,22,21.9,22.5,1,16,2,Wisconsin,"Chicago-Naperville-Elgin, IL-IN-WI",PM2.5
55-079-0010,550790010,43.016667,-87.933333,Upper Midwest,0,P98V,32.2,38.8,35.8,33.2,38.4,38.7,40.7,40.6,27.3,39.1,30.9,27,30.4,24.1,27.3,24.9,1,16,2,Wisconsin,"Milwaukee-Waukesha-West Allis, WI",PM2.5
55-079-0026,550790026,43.060975,-87.913504,Upper Midwest,0,P98V,31.6,37.5,34.7,29.6,28.7,41.5,42.6,39.8,27.5,39,32.6,21.3,24.6,21.2,19.6,21.2,1,16,2,Wisconsin,"Milwaukee-Waukesha-West Allis, WI",PM2.5
55-079-0099,550790099,43.039871,-87.920794,Upper Midwest,0,P98V,34.6,41.9,33.6,33.7,38.9,37.1,38.3,40.7,29,40.3,,,30.2,20.7,25.5,24.4,1,14,2,Wisconsin,"Milwaukee-Waukesha-West Allis, WI",PM2.5
55-087-0009,550870009,44.30737996,-88.39517806,Upper Midwest,0,P98V,32.2,32.7,29.1,25.8,28.8,36.7,35.7,31,30.5,33.5,36.6,22.4,24.7,22,24.4,20.4,1,16,2,Wisconsin,"Appleton, WI",PM2.5
55-133-0027,551330027,43.02007538,-88.21506996,Upper Midwest,0,P98V,30,38.6,35.1,29.1,38.4,41.1,28.2,33.8,29.9,32,35.9,25.3,20.9,,23.5,23.8,1,15,2,Wisconsin,"Milwaukee-Waukesha-West Allis, WI",PM2.5
56-013-1003,560131003,42.84104939,-108.7362773,Northern Rockies,0,P98V,,,33.2,25.7,40.2,30,23,26.1,23.3,34.9,31.6,30.3,24.8,28.5,26.3,20.1,1,14,9,Wyoming,"Riverton, WY",PM2.5
56-021-0001,560210001,41.13997582,-104.8178015,Northern Rockies,0,P98V,13.2,12.2,13.8,12.9,15.5,9.2,13.4,9.1,10.4,8.5,8.8,9.2,16.7,10.7,12.7,25,1,16,9,Wyoming,"Cheyenne, WY",PM2.5
56-033-0002,560330002,44.815142,-106.955933,Northern Rockies,0,P98V,34.8,39.6,27.9,26.3,38.9,32.5,24.4,27.4,23.6,20.8,27,23,18.9,16.7,20,35.8,1,16,9,Wyoming,"Sheridan, WY",PM2.5
72-057-0008,720570008,17.95789438,-66.16501599,Northern Rockies,0,P98V,21.7,19.7,13.9,12.2,13.9,21.5,17.3,17.3,17.5,16.6,,,16.6,11.5,,15.3,1,13,9,Puerto Rico,"Guayama, PR",PM2.5
72-061-0005,720610005,18.44009541,-66.11445975,Northern Rockies,0,P98V,17.8,18.4,18.6,17.1,15.9,19.3,17.5,16.2,18.9,20.1,,13.7,18.2,11.9,,16,1,14,9,Puerto Rico,"San Juan-Carolina-Caguas, PR",PM2.5
72-113-0004,721130004,18.00955831,-66.62724916,Northern Rockies,0,P98V,17.3,15.5,15.5,14.1,14.3,19,14,,10,12.3,,14.5,,11.6,,15.5,1,12,9,Puerto Rico,"Ponce, PR",PM2.5
