aqs_site_id,SITE,LATITUDE,LONGITUDE,LOCAL_SITE_NAME,noaa_region,poc,stat,val1990,val1991,val1992,val1993,val1994,val1995,val1996,val1997,val1998,val1999,val2000,val2001,val2002,val2003,val2004,val2005,val2006,val2007,val2008,val2009,val2010,val2011,val2012,val2013,val2014,val2015,val2016,trendsite,nyrs,region,state,cbsa,nationalstats,parameter_name,trend,beta,prob
01-073-0008,010730008,33.539548292,-86.53331706,,Southeast,0,RQMAX,0.95,0.64,,,,,,,,,,,,,,,,,,,,,,,,,,0,2,6,Alabama,"Birmingham-Hoover, AL",No,Pb,Undetermined/Insufficient Data,,
01-073-0025,010730025,33.545660688,-86.78276792,,Southeast,0,RQMAX,0.17,0.19,,,,,,,,,,,,,,,,,,,,,,,,,,0,2,6,Alabama,"Birmingham-Hoover, AL",No,Pb,Undetermined/Insufficient Data,,
01-073-0028,010730028,33.529444001,-86.850278,,Southeast,0,RQMAX,0.16,0.13,,,,,,,,,,,,,,,,,,,,,,,,,,0,2,6,Alabama,"Birmingham-Hoover, AL",No,Pb,Undetermined/Insufficient Data,,
01-073-1006,010731006,33.535937365,-86.53498407,,Southeast,0,RQMAX,1.23,,,,,,,,,,,,,,,,,,,,,,,,,,,0,1,6,Alabama,"Birmingham-Hoover, AL",No,Pb,Undetermined/Insufficient Data,,
01-073-1007,010731007,33.539167001,-86.534444,,Southeast,0,RQMAX,2.3,2.85,,,,,,,,,,,,,,,,,,,,,,,,,,0,2,6,Alabama,"Birmingham-Hoover, AL",No,Pb,Undetermined/Insufficient Data,,
01-073-1010,010731010,33.545278001,-86.549167,Leeds,Southeast,0,RQMAX,0.11,0.18,,,,,,,,,,,,,,,,,,,,,,,,,,0,2,6,Alabama,"Birmingham-Hoover, AL",No,Pb,Undetermined/Insufficient Data,,
01-073-2004,010732004,33.534826386,-86.53387303,,Southeast,0,RQMAX,1,0.52,,,,,,,,,,,,,,,,,,,,,,,,,,0,2,6,Alabama,"Birmingham-Hoover, AL",No,Pb,Undetermined/Insufficient Data,,
01-073-2005,010732005,33.530937469,-86.54137317,,Southeast,0,RQMAX,0.45,0.69,,,,,,,,,,,,,,,,,,,,,,,,,,0,2,6,Alabama,"Birmingham-Hoover, AL",No,Pb,Undetermined/Insufficient Data,,
01-083-0005,010830005,34.645848497,-86.9473112,Pryor Field Lead Monitoring Site,Southeast,0,RQMAX,,,,,,,,,,,,,,,,,,,,,,,0.01,,,,,0,1,6,Alabama,"Huntsville, AL",No,Pb,Undetermined/Insufficient Data,,
01-109-0006,011090006,31.792969387,-85.98052184,TROY HEAD,Southeast,0,RQMAX,,,,,,,,,,,,,,,,,0.14,0.29,,,,,,,,,,0,2,6,Alabama,"Troy, AL",No,Pb,Undetermined/Insufficient Data,,
02-020-0051,020200051,61.215497,-149.830175,"Merrill Field, Pb Monitoring Station",None,0,RQMAX,,,,,,,,,,,,,,,,,,,,,,,0.07,,,,,0,1,0,Alaska,"Anchorage, AK",No,Pb,Undetermined/Insufficient Data,,
04-013-0017,040130017,33.466154243,-112.099316,,Southwest,0,RQMAX,0.11,,,0.06,0.05,0.06,0.06,0.03,,,,,,,,,,,,,,,,,,,,0,6,7,Arizona,"Phoenix-Mesa-Scottsdale, AZ",No,Pb,Undetermined/Insufficient Data,,
04-013-3002,040133002,33.457930001,-112.04601,CENTRAL PHOENIX,Southwest,0,RQMAX,,,0.06,0.05,0.05,0.06,0.05,0.02,,,,,,,,,,,,,,,,,,,,0,6,7,Arizona,"Phoenix-Mesa-Scottsdale, AZ",No,Pb,Undetermined/Insufficient Data,,
04-019-1009,040191009,32.272290001,-110.989079,PRINCE ROAD,Southwest,0,RQMAX,,,0.07,0.03,0.05,0.02,0.06,,,,,,,,,,,,,,,,,,,,,0,5,7,Arizona,"Tucson, AZ",No,Pb,Undetermined/Insufficient Data,,
04-019-1011,040191011,32.2044107,-110.878067,22ND & CRAYCROFT,Southwest,0,RQMAX,,,0.01,0.02,0.01,0.01,0.03,,,,,,,,,,,,,,,,,,,,,0,5,7,Arizona,"Tucson, AZ",No,Pb,Undetermined/Insufficient Data,,
04-019-1028,040191028,32.29515,-110.9823,CHILDREN'S PARK NCore,Southwest,0,RQMAX,,,,,,,,,,,,,,,,,,,,,,,0,0,0,0,,0,4,7,Arizona,"Tucson, AZ",No,Pb,Undetermined/Insufficient Data,,
05-119-1007,051191007,34.744930997,-92.32006402,VA HOSPITAL,South,0,RQMAX,0.07,0,,,,,,,,,,,,,,,,,,,,,,,,,,0,2,5,Arkansas,"Little Rock-North Little Rock-Conway, AR",No,Pb,Undetermined/Insufficient Data,,
05-119-2001,051192001,34.758424641,-92.21292583,,South,0,RQMAX,0.02,0,,,,,,,,,,,,,,,,,,,,,,,,,,0,2,5,Arkansas,"Little Rock-North Little Rock-Conway, AR",No,Pb,Undetermined/Insufficient Data,,
06-001-0003,060010003,37.6849,-121.7659,Livermore - Old 1st St.,West,0,RQMAX,0.09,0.09,0.02,0.01,0.01,,,,,,,,,,,,,,,,,,,,,,,0,5,8,California,"San Francisco-Oakland-Hayward, CA",No,Pb,Undetermined/Insufficient Data,,
06-001-1001,060011001,37.535833,-121.961823,Fremont - Chapel Way,West,0,RQMAX,,0.07,0.02,0.01,0.01,,,,,,,,,,,,,,,,,,,,,,,0,4,8,California,"San Francisco-Oakland-Hayward, CA",No,Pb,Undetermined/Insufficient Data,,
06-013-0002,060130002,37.936013,-122.026154,Concord,West,0,RQMAX,0.07,0.03,0.03,0.02,0.01,,,,,,,,,,,,,,,,,,,,,,,0,5,8,California,"San Francisco-Oakland-Hayward, CA",No,Pb,Undetermined/Insufficient Data,,
06-013-0003,060130003,37.949923909,-122.3571931,Richmond-13th St.,West,0,RQMAX,,0.21,0.02,0.02,0.02,0.01,0.01,,,,,,,,,,,,,,,,,,,,,0,6,8,California,"San Francisco-Oakland-Hayward, CA",No,Pb,Undetermined/Insufficient Data,,
06-013-1002,060131002,38.006311,-121.641918,Bethel Island,West,0,RQMAX,0.05,0.02,0.02,0.01,0.01,,,,,,,,,,,,,,,,,,,,,,,0,5,8,California,"San Francisco-Oakland-Hayward, CA",No,Pb,Undetermined/Insufficient Data,,
06-013-1003,060131003,37.9642,-122.3403,San Pablo - El Portal Center,West,0,RQMAX,,,,,,,,0.01,0.01,,,,,,,,,,,,,,,,,,,0,2,8,California,"San Francisco-Oakland-Hayward, CA",No,Pb,Undetermined/Insufficient Data,,
06-013-3001,060133001,38.029258,-121.896866,Pittsburg - W 10th St.,West,0,RQMAX,0.11,0.07,0.04,0.04,0.03,0.05,0.02,0.01,0.01,,,,,,,,,,,,,,,,,,,0,9,8,California,"San Francisco-Oakland-Hayward, CA",No,Pb,Undetermined/Insufficient Data,,
06-025-0005,060250005,32.676186139,-115.484144,Calexico-Ethel Street,West,0,RQMAX,,,,,,0.04,0.05,0.04,0.03,0.03,0.02,0.03,0.02,0.03,0.03,0.02,0.03,0.03,0.02,0.02,0.02,0.02,0.03,0.02,0.03,0.02,,0,21,8,California,"El Centro, CA",No,Pb,Undetermined/Insufficient Data,,
06-037-0202,060370202,34.005291465,-118.1767376,Commerce-Ayers Ave,West,0,RQMAX,,0.35,0.17,,,,,,,,,,,,,,,,,,,,,,,,,0,2,8,California,"Los Angeles-Long Beach-Anaheim, CA",No,Pb,Undetermined/Insufficient Data,,
06-037-0203,060370203,34.041677731,-118.0397894,City of Industry-Volkswagon,West,0,RQMAX,,1.4,0.55,,,,,,,,,,,,,,,,,,,,,,,,,0,2,8,California,"Los Angeles-Long Beach-Anaheim, CA",No,Pb,Undetermined/Insufficient Data,,
06-037-0205,060370205,34.006680557,-118.1922941,Commerce-AT&SF RR,West,0,RQMAX,,2.44,0.36,,,,,,,,,,,,,,,,,,,,,,,,,0,2,8,California,"Los Angeles-Long Beach-Anaheim, CA",No,Pb,Undetermined/Insufficient Data,,
06-037-1002,060371002,34.17605,-118.31712,Burbank,West,0,RQMAX,,,0,0.05,,,,,,,,,,,,,,,,,,,,,,,,0,2,8,California,"Los Angeles-Long Beach-Anaheim, CA",No,Pb,Undetermined/Insufficient Data,,
06-037-1301,060371301,33.92899,-118.21071,Lynwood,West,0,RQMAX,,,0.08,0.07,,,,,,,0.07,0.11,,,,,0.02,0.03,0.03,,,,,,,,,0,7,8,California,"Los Angeles-Long Beach-Anaheim, CA",No,Pb,Undetermined/Insufficient Data,,
06-037-1402,060371402,34.217930001,-118.48757,Van Nuys Airport,West,0,RQMAX,,,,,,,,,,,,,,,,,,,,,0.04,0.04,0.06,,,,,0,3,8,California,"Los Angeles-Long Beach-Anaheim, CA",No,Pb,Undetermined/Insufficient Data,,
06-037-1403,060371403,33.955000001,-118.056389,Uddelholm (Trojan Battery),West,0,RQMAX,,,,,,,,,,,,,,,,,,,0.08,0.12,0.08,0.11,0.08,0.08,0.04,0.04,,0,8,8,California,"Los Angeles-Long Beach-Anaheim, CA",No,Pb,Undetermined/Insufficient Data,,
06-037-1601,060371601,34.01407,-118.06056,,West,0,RQMAX,0.11,0.14,0.11,0.11,0.12,0.06,0.06,0.04,0.06,0.1,0.08,0.05,0.05,0.03,0.03,,,,,,,,,,,,,0,15,8,California,"Los Angeles-Long Beach-Anaheim, CA",No,Pb,Undetermined/Insufficient Data,,
06-037-4002,060374002,33.82376,-118.18921,Long Beach (North),West,0,RQMAX,0.08,0.07,0.08,0.05,0.06,0.04,0.04,0.04,0.04,0.05,0.05,0.04,0.03,0.04,0.04,0.01,0.01,0.01,0.01,0.01,0.01,0.01,0.01,0,,,,0,24,8,California,"Los Angeles-Long Beach-Anaheim, CA",No,Pb,Undetermined/Insufficient Data,,
06-037-5001,060375001,33.92288,-118.37026,Hawthorne,West,0,RQMAX,0.08,0.07,0.06,0.04,0.05,0.04,0.04,0.03,0.05,0.04,0.05,0.04,0.03,0.07,,,,,,,,,,,,,,0,14,8,California,"Los Angeles-Long Beach-Anaheim, CA",No,Pb,Undetermined/Insufficient Data,,
06-041-0001,060410001,37.97231,-122.520004,San Rafael,West,0,RQMAX,0.14,0.09,0.02,0.01,0.01,,,,,,,,,,,,,,,,,,,,,,,0,5,8,California,"San Francisco-Oakland-Hayward, CA",No,Pb,Undetermined/Insufficient Data,,
06-055-0003,060550003,38.310942,-122.296189,Napa,West,0,RQMAX,0.07,0.03,0.03,0.02,0.02,,,,,,,,,,,,,,,,,,,,,,,0,5,8,California,"Napa, CA",No,Pb,Undetermined/Insufficient Data,,
06-059-0001,060590001,33.821353001,-117.91427,Anaheim (1010 Harbor Blvd),West,0,RQMAX,0.07,0.06,0.05,0.04,0.05,0.04,,,,,,,,,,,,,,,,,,,,,,0,6,8,California,"Los Angeles-Long Beach-Anaheim, CA",No,Pb,Undetermined/Insufficient Data,,
06-065-1003,060651003,33.94603,-117.40063,Riverside (Magnolia),West,0,RQMAX,0.07,0.06,0.05,0.04,0.04,0.03,0.03,0.05,0.06,0.04,0.03,0.03,0.02,0.01,0.01,0.01,0.01,0.01,0.01,0.01,0.01,0.01,0,0.01,0.01,,,1,25,8,California,"Riverside-San Bernardino-Ontario, CA",Yes,Pb,Decreasing,-0.002,1.1933135E-7
06-065-3011,060653011,33.796533,-116.974417,SAN JACINTO TOXICS SITE #1 MOUNTAIN VIEW HIGH SCHOOL,West,0,RQMAX,,,,,,,,,,,,0.16,,,,,,,,,,,,,,,,0,1,8,California,"Riverside-San Bernardino-Ontario, CA",No,Pb,Undetermined/Insufficient Data,,
06-065-3012,060653012,33.76485,-116.9569,SAN JACINTO TOXIC SITE #2 SCHOOL DISTRICT HEADQUARTERS,West,0,RQMAX,,,,,,,,,,,,0.14,,,,,,,,,,,,,,,,0,1,8,California,"Riverside-San Bernardino-Ontario, CA",No,Pb,Undetermined/Insufficient Data,,
06-067-4001,060674001,38.556326,-121.458499,Sacramento Health Department-Stockton Blvd.,West,0,RQMAX,0.1,0.08,0.03,0.02,0.02,0.02,0.01,0.01,0.02,,,,,,,,,,,,,,,,,,,0,9,8,California,"Sacramento--Roseville--Arden-Arcade, CA",No,Pb,Undetermined/Insufficient Data,,
06-071-0006,060710006,35.759954448,-117.3747792,,West,0,RQMAX,0.05,0.03,0.02,,,,,,,,,,,,,,,,,,,,,,,,,0,3,8,California,"Riverside-San Bernardino-Ontario, CA",No,Pb,Undetermined/Insufficient Data,,
06-073-0003,060730003,32.791194001,-116.942092,El Cajon,West,0,RQMAX,0.07,0.06,0.03,0.03,0.02,0.02,0.02,0.01,,,,,,,,,,,,,,,0.01,0.01,,,,0,10,8,California,"San Diego-Carlsbad, CA",No,Pb,Undetermined/Insufficient Data,,
06-073-1007,060731007,32.709223612,-117.1548411,San Diego-12th Ave,West,0,RQMAX,0.13,0.12,0.03,0.04,0.03,0.03,0.03,0.03,0.02,0.02,0.02,0.03,0.02,0.02,,,,,,,,,,,,,,0,14,8,California,"San Diego-Carlsbad, CA",No,Pb,Undetermined/Insufficient Data,,
06-075-0005,060750005,37.765946,-122.399044,San Francisco,West,0,RQMAX,,0.04,0.03,0.02,0.02,0.02,0.01,0.01,0.01,,,,,,,,,,,,,,,,,,,0,8,8,California,"San Francisco-Oakland-Hayward, CA",No,Pb,Undetermined/Insufficient Data,,
06-075-0006,060750006,37.7338,-122.3824,San Francisco - Bayview Hunters Point,West,0,RQMAX,,,,,,,,,,,,,,,,0.01,,,,,,,,,,,,0,1,8,California,"San Francisco-Oakland-Hayward, CA",No,Pb,Undetermined/Insufficient Data,,
06-081-1001,060811001,37.482934,-122.20337,Redwood City,West,0,RQMAX,0.13,0.09,0.03,0.02,0.02,,,,,,,,,,,,,,,,,,,,,,,0,5,8,California,"San Francisco-Oakland-Hayward, CA",No,Pb,Undetermined/Insufficient Data,,
06-081-2002,060812002,37.508813,-122.247291,San Carlos Airport,West,0,RQMAX,,,,,,,,,,,,,,,,,,,,,,,0.33,0.22,,,,0,2,8,California,"San Francisco-Oakland-Hayward, CA",No,Pb,Undetermined/Insufficient Data,,
06-085-0004,060850004,37.339666,-121.888575,San Jose - 4th St.,West,0,RQMAX,,0.06,0.04,0.03,0.03,0.02,0.01,0.01,0.02,,,,,,,,,,,,,,,,,,,0,8,8,California,"San Jose-Sunnyvale-Santa Clara, CA",No,Pb,Undetermined/Insufficient Data,,
06-085-2004,060852004,37.322997915,-121.9271785,San Jose-W. San Carlos St.,West,0,RQMAX,0.09,0.05,0.04,0.02,0.02,,,,,,,,,,,,,,,,,,,,,,,0,5,8,California,"San Jose-Sunnyvale-Santa Clara, CA",No,Pb,Undetermined/Insufficient Data,,
06-085-2010,060852010,37.457621,-122.112286,Palo Alto Airport,West,0,RQMAX,,,,,,,,,,,,,,,,,,,,,,,0.12,0.12,0.13,,,0,3,8,California,"San Jose-Sunnyvale-Santa Clara, CA",No,Pb,Undetermined/Insufficient Data,,
06-085-3001,060853001,37.316609074,-121.9277345,San Jose-Moorpark Ave.,West,0,RQMAX,0.08,0.04,0.03,0.02,0.02,0.01,0.01,0.01,0.01,,,,,,,,,,,,,,,,,,,0,9,8,California,"San Jose-Sunnyvale-Santa Clara, CA",No,Pb,Undetermined/Insufficient Data,,
06-095-0004,060950004,38.102507,-122.237976,Vallejo,West,0,RQMAX,0.08,0.07,0.02,0.02,0.01,,,,,,,,,,,,,,,,,,,,,,,0,5,8,California,"Vallejo-Fairfield, CA",No,Pb,Undetermined/Insufficient Data,,
06-097-0003,060970003,38.443503,-122.710169,Santa Rosa - 5th St,West,0,RQMAX,0.05,0.03,0.02,0.01,0.01,,,,,,,,,,,,,,,,,,,,,,,0,5,8,California,"Santa Rosa, CA",No,Pb,Undetermined/Insufficient Data,,
08-001-0001,080010001,39.827594201,-104.9376681,,Southwest,0,RQMAX,0.06,0.06,0.04,0.05,0.02,0.01,0.01,0.01,0.02,0.02,0.02,,,,,,,,,,,,,,,,,0,11,7,Colorado,"Denver-Aurora-Lakewood, CO",No,Pb,Undetermined/Insufficient Data,,
08-001-0005,080010005,39.795995381,-104.9780741,"GLOBEVILLE, CLINICARE",Southwest,0,RQMAX,,,0.12,0.13,0.11,0.05,0.05,0.04,0.12,0.09,0.15,0.18,0.11,0.17,0.17,0.56,0.16,,,,,,,,,,,0,15,7,Colorado,"Denver-Aurora-Lakewood, CO",No,Pb,Undetermined/Insufficient Data,,
08-001-0006,080010006,39.826007001,-104.937438,Alsup Elementry School - Commerce City,Southwest,0,RQMAX,,,,,,,,,,,,0.05,0.05,0.05,0.05,0.1,0.02,,,,,,,,,,,0,6,7,Colorado,"Denver-Aurora-Lakewood, CO",No,Pb,Undetermined/Insufficient Data,,
08-001-3001,080013001,39.838119001,-104.94984,Welby,Southwest,0,RQMAX,,,,,,,,,,,,,0.02,,,,,,,,,,,,,,,0,1,7,Colorado,"Denver-Aurora-Lakewood, CO",No,Pb,Undetermined/Insufficient Data,,
08-005-0007,080050007,39.572756401,-104.8489917,Centennial Airport,Southwest,0,RQMAX,,,,,,,,,,,,,,,,,,,,,0.01,0.02,0.02,0.02,0.03,,,0,5,7,Colorado,"Denver-Aurora-Lakewood, CO",No,Pb,Undetermined/Insufficient Data,,
08-031-0002,080310002,39.751184001,-104.987625,DENVER - CAMP,Southwest,0,RQMAX,0.07,0.08,0.06,0.08,0.06,0.04,0.03,0.02,0.02,,0.02,0.06,,,0.03,0.18,0.02,,,,,,,,,,,0,14,7,Colorado,"Denver-Aurora-Lakewood, CO",No,Pb,Undetermined/Insufficient Data,,
08-031-0015,080310015,39.698007801,-104.9871114,GATES RUBBER,Southwest,0,RQMAX,0.05,0.08,0.08,0.06,0.06,0.09,0.05,0.03,0.03,0.02,0.02,0.03,0.02,0.02,0.02,,,,,,,,,,,,,0,15,7,Colorado,"Denver-Aurora-Lakewood, CO",No,Pb,Undetermined/Insufficient Data,,
08-031-0025,080310025,39.704005001,-104.998113,DENVER MUNICIPAL ANIMAL SHELTER,Southwest,0,RQMAX,,,,,,,,,,,,,,,,,0.01,0.01,0.01,,0.01,0.01,0.01,,,,,0,6,7,Colorado,"Denver-Aurora-Lakewood, CO",No,Pb,Undetermined/Insufficient Data,,
08-031-0602,080310602,39.788319442,-104.9872035,COMMUNITY CENTER,Southwest,0,RQMAX,0.11,0.1,,,,,,,,,,,,,,,,,,,,,,,,,,0,2,7,Colorado,"Denver-Aurora-Lakewood, CO",No,Pb,Undetermined/Insufficient Data,,
08-031-0603,080310603,39.794986393,-104.97748,GLOBEVILLE CLINICARE,Southwest,0,RQMAX,0.19,0.16,,,,,,,,,,,,,,,,,,,,,,,,,,0,2,7,Colorado,"Denver-Aurora-Lakewood, CO",No,Pb,Undetermined/Insufficient Data,,
08-037-0612,080370612,39.563042046,-106.4150289,MIDDLE SCHOOL - ROOF,Southwest,0,RQMAX,,,,0.01,,,,,,,,,,,,,,,,,,,,,,,,0,1,7,Colorado,"Edwards, CO",No,Pb,Undetermined/Insufficient Data,,
08-041-0011,080410011,38.828042001,-104.827739,RBD,Southwest,0,RQMAX,0.03,0.03,0.02,0.01,0.01,0.01,0.01,0,0.01,0.01,0.01,0.01,0.01,0.01,0.01,0.09,0.01,,,,,,,,,,,0,17,7,Colorado,"Colorado Springs, CO",No,Pb,Undetermined/Insufficient Data,,
08-065-0001,080650001,39.247767624,-106.2919683,,Southwest,0,RQMAX,0.09,0.1,0.09,0.05,0.04,,0.04,0.04,0.04,0.02,0.03,0.07,0.02,0.02,0.03,,,,,,,,,,,,,0,14,7,Colorado,"Edwards, CO",No,Pb,Undetermined/Insufficient Data,,
08-077-0003,080770003,39.091600001,-108.563775,MESA CO HLTH DEPT BLDG,Southwest,0,RQMAX,,,,,,,,,,,,0,,,,,,,,,,,,,,,,0,1,7,Colorado,"Grand Junction, CO",No,Pb,Undetermined/Insufficient Data,,
08-077-0016,080770016,39.058870699,-108.5550928,MESA COUNTY TRAFFIC SERVICES BUILDING,Southwest,0,RQMAX,,,,,,,,,,,,0.04,,,,,,,,,,,,,,,,0,1,7,Colorado,"Grand Junction, CO",No,Pb,Undetermined/Insufficient Data,,
08-083-0005,080830005,37.203606566,-108.4925882,STORAGE TANKS,Southwest,0,RQMAX,,,0,,0,,,,,,,,,,,,,,,,,,,,,,,0,2,7,Colorado,,No,Pb,Undetermined/Insufficient Data,,
08-101-0013,081010013,38.23889,-104.58434,,Southwest,0,RQMAX,,,,,,,,,,,,,0.02,,,,,,,,,,,,,,,0,1,7,Colorado,"Pueblo, CO",No,Pb,Undetermined/Insufficient Data,,
11-001-0027,110010027,38.964722001,-77.075,,Northeast,0,RQMAX,,,0.18,0.02,0.01,0.03,0.03,0.01,0.01,0.03,,,,,,,,,,,,,,,,,,0,8,3,District of Columbia,"Washington-Arlington-Alexandria, DC-VA-MD-WV",No,Pb,Undetermined/Insufficient Data,,
11-001-0039,110010039,38.864279434,-76.99164178,,Northeast,0,RQMAX,,,0.03,0.03,0.04,0.02,0.02,0.01,0.01,0.02,,0.02,,,,,,,,,,,,,,,,0,9,3,District of Columbia,"Washington-Arlington-Alexandria, DC-VA-MD-WV",No,Pb,Undetermined/Insufficient Data,,
12-011-2003,120112003,26.292024827,-80.09647037,Pompano Highlands,Southeast,0,RQMAX,0.01,0.02,0.04,0.07,0.03,0.02,0.05,0.05,,,,,,,,,,,,,,,,,,,,0,8,6,Florida,"Miami-Fort Lauderdale-West Palm Beach, FL",No,Pb,Undetermined/Insufficient Data,,
12-011-4001,120114001,26.010924249,-80.1783798,,Southeast,0,RQMAX,0.04,0.03,0.1,0.04,0.03,,,,,,,,,,,,,,,,,,,,,,,0,5,6,Florida,"Miami-Fort Lauderdale-West Palm Beach, FL",No,Pb,Undetermined/Insufficient Data,,
12-011-5005,120115005,26.294166667,-80.17638889,Coconut Creek,Southeast,0,RQMAX,,,,,,,0.04,0.05,0.03,0.03,,,,,,,,,,,,,,,,,,0,4,6,Florida,"Miami-Fort Lauderdale-West Palm Beach, FL",No,Pb,Undetermined/Insufficient Data,,
12-031-0032,120310032,30.356339,-81.635396,Kooker Park,Southeast,0,RQMAX,,,0.02,0.02,,,,,,,0.04,0.02,,,,,,,,,,,,,,,,0,4,6,Florida,"Jacksonville, FL",No,Pb,Undetermined/Insufficient Data,,
12-031-0084,120310084,30.320507,-81.68762,Rosselle,Southeast,0,RQMAX,,,0.03,0.07,0.08,0.03,0.03,0.02,0.02,0.02,0.02,0.02,0.02,,,,,,,,,,,,,,,0,11,6,Florida,"Jacksonville, FL",No,Pb,Undetermined/Insufficient Data,,
12-057-0081,120570081,27.740032817,-82.46514565,Simmons Park,Southeast,0,RQMAX,,,,,,,,,,,,0.01,,,,,,,,,,,,,,,,0,1,6,Florida,"Tampa-St. Petersburg-Clearwater, FL",No,Pb,Undetermined/Insufficient Data,,
12-057-1060,120571060,28.001686521,-82.45620573,,Southeast,0,RQMAX,0.03,0.01,0.01,,,,,,,,,,,,,,,,,,,,,,,,,0,3,6,Florida,"Tampa-St. Petersburg-Clearwater, FL",No,Pb,Undetermined/Insufficient Data,,
12-057-1065,120571065,27.892523006,-82.53842941,USMC Reserve Center (Gandy),Southeast,0,RQMAX,,,,,,,,,,,,0.01,0.02,0.01,,,,,,,,,,,,,,0,3,6,Florida,"Tampa-St. Petersburg-Clearwater, FL",No,Pb,Undetermined/Insufficient Data,,
12-057-1067,120571067,27.963355423,-82.38509346,,Southeast,0,RQMAX,,1.57,0.88,0.6,0.39,0.44,0.67,0.58,,,,,,,,,,,,,,,,,,,,0,7,6,Florida,"Tampa-St. Petersburg-Clearwater, FL",No,Pb,Undetermined/Insufficient Data,,
12-057-1071,120571071,27.943633899,-82.27620247,LOCATED IN THE COOK LUMBER COMPANY YARD THEY HANDLE PRECUT LUMBER,Southeast,0,RQMAX,,,,,,3.44,2.81,,,,,,,,,,,,,,,,,,,,,0,2,6,Florida,"Tampa-St. Petersburg-Clearwater, FL",No,Pb,Undetermined/Insufficient Data,,
12-057-1074,120571074,27.971688164,-82.38203741,OPEN AREA OF COUNTY WATER DEPT MAINTENANCE FACILITY,Southeast,0,RQMAX,,,,,,,,,0.09,0.1,0.04,0.05,,,,,,,,,,,,,,,,0,4,6,Florida,"Tampa-St. Petersburg-Clearwater, FL",No,Pb,Undetermined/Insufficient Data,,
12-057-1075,120571075,28.050295728,-82.37787075,WHITEWAY DRIVE TAMPA,Southeast,0,RQMAX,,,,,,,,,,,,0.01,0.01,0.01,,,,,,,,,,,,,,0,3,6,Florida,"Tampa-St. Petersburg-Clearwater, FL",No,Pb,Undetermined/Insufficient Data,,
12-086-0024,120860024,25.766488899,-80.43005477,,Southeast,0,RQMAX,0.07,0.02,0.01,0,0,0,0,,,,,,,,,,,,,,,,,,,,,0,7,6,Florida,"Miami-Fort Lauderdale-West Palm Beach, FL",No,Pb,Undetermined/Insufficient Data,,
12-086-5001,120865001,25.865651783,-80.27838336,,Southeast,0,RQMAX,,0,0,0,0,0,,,,,,,,,,,,,,,,,,,,,,0,5,6,Florida,"Miami-Fort Lauderdale-West Palm Beach, FL",No,Pb,Undetermined/Insufficient Data,,
12-095-0007,120950007,28.507503023,-81.41673702,,Southeast,0,RQMAX,,0,0,0,0,0,0,,,,,,,,,,,,,,,,,,,,,0,6,6,Florida,"Orlando-Kissimmee-Sanford, FL",No,Pb,Undetermined/Insufficient Data,,
12-095-2002,120952002,28.596389,-81.3625,WINTER PARK,Southeast,0,RQMAX,,0,0,0,0,0,0,,,,,,,,,,,,,,,,,,,,,0,6,6,Florida,"Orlando-Kissimmee-Sanford, FL",No,Pb,Undetermined/Insufficient Data,,
12-103-0004,121030004,27.946687816,-82.73176691,St. Petersburg College,Southeast,0,RQMAX,,,,,,,,,,,,,,0,,,,,,,,,,,,,,0,1,6,Florida,"Tampa-St. Petersburg-Clearwater, FL",No,Pb,Undetermined/Insufficient Data,,
12-103-0018,121030018,27.78586555,-82.73987536,Azalea Park,Southeast,0,RQMAX,,,,,,,,,,,,0.01,0,0.01,0.01,,,,,,,,,,,,,0,4,6,Florida,"Tampa-St. Petersburg-Clearwater, FL",No,Pb,Undetermined/Insufficient Data,,
12-103-0024,121030024,27.793082129,-82.72787882,,Southeast,0,RQMAX,0.02,0,0,0,0,0,0,0,0,,,,,,,,,,,,,,,,,,,0,9,6,Florida,"Tampa-St. Petersburg-Clearwater, FL",No,Pb,Undetermined/Insufficient Data,,
12-103-1002,121031002,27.892800345,-82.7914916,,Southeast,0,RQMAX,0.01,0,0,0,0,0,0,0,0,,,,,,,,,,,,,,,,,,,0,9,6,Florida,"Tampa-St. Petersburg-Clearwater, FL",No,Pb,Undetermined/Insufficient Data,,
12-103-1008,121031008,28.000296733,-82.77621315,DUNEDIN HIGHLAND MIDDLE SCHOOL,Southeast,0,RQMAX,,,,,,,,,,,,0,0,,,,,,,,,,,,,,,0,2,6,Florida,"Tampa-St. Petersburg-Clearwater, FL",No,Pb,Undetermined/Insufficient Data,,
12-103-3005,121033005,27.875833,-82.696389,2.3 KM W OF COUNTY RESOURCE RECOVERY FACILITY,Southeast,0,RQMAX,,,,,,,,,,0,0.01,0.01,0.01,0.01,0,0,0,0,,,,,,,,,,0,9,6,Florida,"Tampa-St. Petersburg-Clearwater, FL",No,Pb,Undetermined/Insufficient Data,,
12-103-5002,121035002,28.090299486,-82.7007069,John Chesnut Sr. Park - East Lake,Southeast,0,RQMAX,,,,,,,,,,,,0,,,,,,,,,,,,,,,,0,1,6,Florida,"Tampa-St. Petersburg-Clearwater, FL",No,Pb,Undetermined/Insufficient Data,,
13-015-0003,130150003,34.236660001,-84.805,,Southeast,0,RQMAX,,,,,,,,,,,,,,,,,,,,,0.02,0.02,0.03,0.01,,,,0,4,6,Georgia,"Atlanta-Sandy Springs-Roswell, GA",No,Pb,Undetermined/Insufficient Data,,
15-003-0009,150030009,21.318778957,-157.8586457,,None,0,RQMAX,0.01,0,0.01,0.01,0,0.01,0.02,,,,,,,,,,,,,,,,,,,,,0,7,0,Hawaii,"Urban Honolulu, HI",No,Pb,Undetermined/Insufficient Data,,
15-003-1001,150031001,21.30758,-157.85542,HONOLULU,None,0,RQMAX,0.01,0.02,0.01,0.01,,,,,,,,,,,,,,,,,,,,,,,,0,4,0,Hawaii,"Urban Honolulu, HI",No,Pb,Undetermined/Insufficient Data,,
15-003-2004,150032004,21.39283293,-157.969126,Pearl City,None,0,RQMAX,,,,,,,,,,,,,,0,0,0,0.01,0.01,0,,,,,,,,,0,6,0,Hawaii,"Urban Honolulu, HI",No,Pb,Undetermined/Insufficient Data,,
16-079-0006,160790006,47.543056,-116.1275,,Northwest,0,RQMAX,0.15,0.11,0.08,0.09,0.11,0.18,0.11,0.12,0.15,0.06,0.08,0.04,0.03,,,,,,,,,,,,,,,0,13,4,Idaho,,No,Pb,Undetermined/Insufficient Data,,
17-031-0001,170310001,41.670991895,-87.7324569,VILLAGE GARAGE,Central,0,RQMAX,0.05,0.03,0.05,0.05,0.03,0.04,0.03,0.03,0.02,0.02,0.02,0.02,0.03,0.02,0.02,0.02,0.01,0.02,0.02,,0.02,,,,,,,0,20,1,Illinois,"Chicago-Naperville-Elgin, IL-IN-WI",No,Pb,Undetermined/Insufficient Data,,
17-031-0026,170310026,41.873720409,-87.64532569,CERMAK PUMP STATION,Central,0,RQMAX,0.13,0.12,0.13,0.11,0.11,0.08,0.09,0.1,0.11,0.07,0.15,0.07,0.05,0.06,0.06,0.04,0.06,0.04,0.05,,0.03,0.02,0.03,,,,,0,22,1,Illinois,"Chicago-Naperville-Elgin, IL-IN-WI",No,Pb,Undetermined/Insufficient Data,,
17-031-0041,170310041,41.698923934,-87.56198948,,Central,0,RQMAX,0.12,0.11,0.09,0.07,0.06,0.07,0.06,0.05,0.06,,,,,,,,,,,,,,,,,,,0,9,1,Illinois,"Chicago-Naperville-Elgin, IL-IN-WI",No,Pb,Undetermined/Insufficient Data,,
17-031-0052,170310052,41.96548483,-87.74992806,MAYFAIR PUMP STATION,Central,0,RQMAX,0.06,0.05,0.06,0.05,0.06,0.04,0.03,0.03,0.03,0.02,0.02,0.02,0.03,0.03,0.03,0.03,0.03,0.02,0.02,,0.02,0.02,0.02,,,,,0,22,1,Illinois,"Chicago-Naperville-Elgin, IL-IN-WI",No,Pb,Undetermined/Insufficient Data,,
17-031-0067,170310067,41.688923996,-87.55698911,,Central,0,RQMAX,,0.32,0.78,0.34,0.18,0.66,0.19,0.09,,,,,,,,,,,,,,,,,,,,0,7,1,Illinois,"Chicago-Naperville-Elgin, IL-IN-WI",No,Pb,Undetermined/Insufficient Data,,
17-031-0068,170310068,41.685868011,-87.55587801,,Central,0,RQMAX,,2.53,1.31,0.65,0.57,1.24,0.71,0.33,,,,,,,,,,,,,,,,,,,,0,7,1,Illinois,"Chicago-Naperville-Elgin, IL-IN-WI",No,Pb,Undetermined/Insufficient Data,,
17-031-0069,170310069,41.685591037,-87.55310091,,Central,0,RQMAX,,0.62,0.89,0.69,0.67,1.41,0.48,0.31,,,,,,,,,,,,,,,,,,,,0,7,1,Illinois,"Chicago-Naperville-Elgin, IL-IN-WI",No,Pb,Undetermined/Insufficient Data,,
17-031-0073,170310073,41.890032075,-87.73727853,MONITOR LOCATED 9 M FROM NORTH EDGE AND 8 M FROM W EDGE OF ROOF,Central,0,RQMAX,,,,,,,0.05,,,,,,,,,,,,,,,,,,,,,0,1,1,Illinois,"Chicago-Naperville-Elgin, IL-IN-WI",No,Pb,Undetermined/Insufficient Data,,
17-031-0074,170310074,41.898365007,-87.74005686,SAMPLER LOCATED AT SE CORNER OF BUILDING,Central,0,RQMAX,,,,,,,0.06,,,,,,,,,,,,,,,,,,,,,0,1,1,Illinois,"Chicago-Naperville-Elgin, IL-IN-WI",No,Pb,Undetermined/Insufficient Data,,
17-031-0113,170310113,41.663611,-87.622483,ArcelorMittal Steel,Central,0,RQMAX,,,,,,,,,,,,,,,,,,,,,,,,,0.03,0.01,,0,2,1,Illinois,"Chicago-Naperville-Elgin, IL-IN-WI",No,Pb,Undetermined/Insufficient Data,,
17-031-1018,170311018,41.773921071,-87.81533396,FIRESTATION,Central,0,RQMAX,,0.04,0.04,0.03,0.04,0.04,0.05,0.02,,,,,,,,,,,,,,,,,,,,0,7,1,Illinois,"Chicago-Naperville-Elgin, IL-IN-WI",No,Pb,Undetermined/Insufficient Data,,
17-031-3101,170313101,41.965283232,-87.87632965,,Central,0,RQMAX,0.03,0.02,0.03,0.03,0.03,0.03,0.02,0.02,,,,,,,,,,,,,,,,,,,,0,8,1,Illinois,"Chicago-Naperville-Elgin, IL-IN-WI",No,Pb,Undetermined/Insufficient Data,,
17-031-3103,170313103,41.965193481,-87.87626473,IEPA TRAILER,Central,0,RQMAX,,,,,,,,,0.02,0.02,0.02,0.02,0.02,0.02,0.01,0.03,0.01,0.02,0.01,,0.01,0.01,0.04,0.01,,,,0,15,1,Illinois,"Chicago-Naperville-Elgin, IL-IN-WI",No,Pb,Undetermined/Insufficient Data,,
17-031-3301,170313301,41.782766008,-87.80537679,GRAVES ES,Central,0,RQMAX,,,,,,0.06,0.05,0.04,0.05,0.03,0.02,0.02,0.03,0.08,0.1,0.03,0.02,0.02,0.02,,0.03,,,,,,,0,15,1,Illinois,"Chicago-Naperville-Elgin, IL-IN-WI",No,Pb,Undetermined/Insufficient Data,,
17-031-4201,170314201,42.139996191,-87.79922692,NORTHBROOK WATER PLANT,Central,0,RQMAX,,,,,,,,,,,,,0.01,0.01,0.01,,0.01,0.01,0.01,,0.01,0.01,0.01,0.01,0,0.01,,0,12,1,Illinois,"Chicago-Naperville-Elgin, IL-IN-WI",No,Pb,Undetermined/Insufficient Data,,
17-031-6003,170316003,41.872201577,-87.8261648,COOK COUNTY COURT COMPLEX,Central,0,RQMAX,0.08,0.08,0.09,0.08,0.07,0.07,0.06,0.05,0.05,0.04,0.04,0.03,0.04,0.04,0.04,0.04,0.03,0.03,0.03,,0.04,0.03,0.04,0.02,,,,0,23,1,Illinois,"Chicago-Naperville-Elgin, IL-IN-WI",No,Pb,Undetermined/Insufficient Data,,
17-043-1003,170431003,41.947529811,-87.92867601,,Central,0,RQMAX,,0.03,0.06,0.09,0.04,0.09,0.05,0.05,0.03,,,,,,,,,,,,,,,,,,,0,8,1,Illinois,"Chicago-Naperville-Elgin, IL-IN-WI",No,Pb,Undetermined/Insufficient Data,,
17-115-0002,171150002,39.859480697,-88.92479934,,Central,0,RQMAX,0.04,0.04,0.03,0.04,0.05,0.03,0.02,0.03,0.02,,,,,,,,,,,,,,,,,,,0,9,1,Illinois,"Decatur, IL",No,Pb,Undetermined/Insufficient Data,,
17-117-0002,171170002,39.396075334,-89.80973892,IEPA TRAILER,Central,0,RQMAX,0.03,0.02,0.03,0.02,0.02,0.01,0.01,0.01,0.02,0.03,0.02,0.01,0.03,0.01,0.01,0.01,0.01,0.01,0.01,,,,,,,,,0,19,1,Illinois,"St. Louis, MO-IL",No,Pb,Undetermined/Insufficient Data,,
17-119-0009,171190009,38.695327965,-90.13955252,,Central,0,RQMAX,0.19,,,,,,,,,,,,,,,,,,,,,,,,,,,0,1,1,Illinois,"St. Louis, MO-IL",No,Pb,Undetermined/Insufficient Data,,
17-119-0023,171190023,38.699565263,-90.14352895,VFW BUILDING,Central,0,RQMAX,,,,,0.13,0.11,0.07,0.08,0.1,,,,,,,,,,,,,,,,,,,0,5,1,Illinois,"St. Louis, MO-IL",No,Pb,Undetermined/Insufficient Data,,
17-119-1007,171191007,38.70453426,-90.13967484,FIRESTATION #1,Central,0,RQMAX,0.17,0.13,0.12,0.11,0.1,0.12,0.07,0.07,,,,,,,,,,,,,,,,,,,,0,8,1,Illinois,"St. Louis, MO-IL",No,Pb,Undetermined/Insufficient Data,,
17-119-1011,171191011,38.831158968,-90.06343863,,Central,0,RQMAX,0.21,0.1,0.12,,,,,,,,,,,,,,,,,,,,,,,,,0,3,1,Illinois,"St. Louis, MO-IL",No,Pb,Undetermined/Insufficient Data,,
17-119-1012,171191012,38.799215569,-90.09927375,,Central,0,RQMAX,,7.68,4.81,4.79,4.86,5.66,4.16,2.54,3.96,,,,,,,,,,,,,,,,,,,0,8,1,Illinois,"St. Louis, MO-IL",No,Pb,Undetermined/Insufficient Data,,
17-119-1013,171191013,38.795326557,-90.09288452,,Central,0,RQMAX,,1.44,1.6,1.5,2.02,1.86,1.81,1.31,1.03,1.65,1.57,1.59,,,,,,,,,,,,,,,,0,11,1,Illinois,"St. Louis, MO-IL",No,Pb,Undetermined/Insufficient Data,,
17-119-1014,171191014,38.795326593,-90.09732867,,Central,0,RQMAX,,4.08,,,,,,,,,,,,,,,,,,,,,,,,,,0,1,1,Illinois,"St. Louis, MO-IL",No,Pb,Undetermined/Insufficient Data,,
17-119-1015,171191015,38.791992613,-90.09566261,,Central,0,RQMAX,,,,1.05,1.2,0.9,1.12,1.5,0.88,1.43,1.2,0.54,,,,,,,,,,,,,,,,0,9,1,Illinois,"St. Louis, MO-IL",No,Pb,Undetermined/Insufficient Data,,
17-119-1016,171191016,38.800048561,-90.09927375,Sampler is located on a stand,Central,0,RQMAX,,,,,,,,,,2.45,1.86,2.21,,,,,,,,,,,,,,,,0,3,1,Illinois,"St. Louis, MO-IL",No,Pb,Undetermined/Insufficient Data,,
17-119-3007,171193007,38.860669471,-90.10585111,WATER PLANT,Central,0,RQMAX,,0.4,0.14,0.19,0.19,0.13,0.09,0.11,0.12,0.16,0.11,0.09,0.03,0.02,0.02,0.02,0.02,0.03,0.04,,0.04,,,,,,,0,19,1,Illinois,"St. Louis, MO-IL",No,Pb,Undetermined/Insufficient Data,,
17-143-0037,171430037,40.697007,-89.58473722,CITY OFFICE BUILDING,Central,0,RQMAX,,0.02,0.03,0.03,0.02,0.03,0.02,0.02,0.02,0.02,0.02,0.02,0.02,0.02,0.01,0.03,0.01,0.01,0.01,,0.01,,,,,,,0,19,1,Illinois,"Peoria, IL",No,Pb,Undetermined/Insufficient Data,,
17-143-0110,171430110,40.653703,-89.643375,PUMP STATION,Central,0,RQMAX,,,,,,,,,,,,,,,,,,,,,0.02,0.01,0.01,0.01,,,,0,4,1,Illinois,"Peoria, IL",No,Pb,Undetermined/Insufficient Data,,
17-143-0210,171430210,40.562633,-89.747114,DAVID RESIDENCE,Central,0,RQMAX,,,,,,,,,,,,,,,,,,,,,0.01,0.02,0.01,0.01,,,,0,4,1,Illinois,"Peoria, IL",No,Pb,Undetermined/Insufficient Data,,
17-161-0001,171610001,41.514477823,-90.44040919,,Central,0,RQMAX,0.04,0.01,0.02,0.02,0.01,0.02,0.02,0.01,0.01,,,,,,,,,,,,,,,,,,,0,9,1,Illinois,"Davenport-Moline-Rock Island, IA-IL",No,Pb,Undetermined/Insufficient Data,,
17-163-0010,171630010,38.612034481,-90.16047663,IEPA-RAPS TRAILER,Central,0,RQMAX,0.19,0.2,0.2,0.19,0.15,0.15,0.12,0.2,0.11,0.09,0.1,0.1,0.07,0.06,0.05,0.08,0.04,0.05,0.04,,0.03,,,,,,,0,20,1,Illinois,"St. Louis, MO-IL",No,Pb,Undetermined/Insufficient Data,,
17-195-0110,171950110,41.788383,-89.706728,SAUK MEDICAL CLINIC,Central,0,RQMAX,,,,,,,,,,,,,,,,,,,,,0.02,0.03,0.03,0.02,,,,0,4,1,Illinois,"Sterling, IL",No,Pb,Undetermined/Insufficient Data,,
17-197-1002,171971002,41.526885089,-88.11647381,PERSHING SCHOOL,Central,0,RQMAX,0.02,0.02,0.04,0.03,0.02,0.03,0.02,0.02,0.01,,,,,,,,,,,,,,,,,,,0,9,1,Illinois,"Chicago-Naperville-Elgin, IL-IN-WI",No,Pb,Undetermined/Insufficient Data,,
17-201-0010,172010010,42.267242088,-89.08955009,FIRE DEPT ADMIN BLDG,Central,0,RQMAX,0.07,0.04,0.06,0.04,0.05,0.04,0.05,0.03,0.05,,,,,,,,,,,,,,,,,,,0,9,1,Illinois,"Rockford, IL",No,Pb,Undetermined/Insufficient Data,,
17-201-0110,172010110,42.240867,-89.091467,J. RUBIN & COMPANY,Central,0,RQMAX,,,,,,,,,,,,,,,,,,,,,0.06,0.04,0.03,0.05,,,,0,4,1,Illinois,"Rockford, IL",No,Pb,Undetermined/Insufficient Data,,
18-003-0009,180030009,41.046437344,-85.0577468,,Central,0,RQMAX,,,0.03,,,,,,,,,,,,,,,,,,,,,,,,,0,1,1,Indiana,"Fort Wayne, IN",No,Pb,Undetermined/Insufficient Data,,
18-003-0012,180030012,41.074492129,-85.16969331,SITE IS LOCATED ON A WELL HOUSING SHELTER IN THE CAR LOT,Central,0,RQMAX,,,,,,0.04,,0.03,,,,,,,,,,,,,,,,,,,,0,2,1,Indiana,"Fort Wayne, IN",No,Pb,Undetermined/Insufficient Data,,
18-033-0002,180330002,41.364217215,-84.926353,STEEL DYNAMICS,Central,0,RQMAX,,,,,,,0,0,,,,,,,,,,,,,,,,,,,,0,2,1,Indiana,"Auburn, IN",No,Pb,Undetermined/Insufficient Data,,
18-033-0003,180330003,41.368939267,-84.90801928,STEEL DYNAMICS SITE 2,Central,0,RQMAX,,,,,,,0,0,,,,,,,,,,,,,,,,,,,,0,2,1,Indiana,"Auburn, IN",No,Pb,Undetermined/Insufficient Data,,
18-035-0008,180350008,40.157952281,-85.42098365,LOCATED WNW OF PLANT - BACKGROUND SITE,Central,0,RQMAX,,,,0.42,0.76,0.54,0.52,0.5,0.54,0.25,0.27,0.47,0.25,0.24,0.51,0.47,0.52,0.24,0.34,0.09,,,,,,,,0,17,1,Indiana,"Muncie, IN",No,Pb,Undetermined/Insufficient Data,,
18-089-0004,180890004,41.650313741,-87.4411522,,Central,0,RQMAX,,,0.15,0.14,0.12,0.17,0.11,,,,,,,,,,,,,,,,,,,,,0,5,1,Indiana,"Chicago-Naperville-Elgin, IL-IN-WI",No,Pb,Undetermined/Insufficient Data,,
18-089-0023,180890023,41.652739607,-87.43955073,SITE MOVED FROM EAST CHICAGO FIELD SCHOOL,Central,0,RQMAX,,,,,,,,0.12,0.07,0.08,0.09,0.06,0.03,0.04,0.07,0.05,0.05,0.06,0.05,0.03,0.04,0.08,0.07,,,,,0,16,1,Indiana,"Chicago-Naperville-Elgin, IL-IN-WI",No,Pb,Undetermined/Insufficient Data,,
18-089-0025,180890025,41.613085698,-87.45865088,SITE LOCATED IN FRONT OF FACILITY,Central,0,RQMAX,,,,,,,,,,,0.09,0.07,,,,,,,,,,,,,,,,0,2,1,Indiana,"Chicago-Naperville-Elgin, IL-IN-WI",No,Pb,Undetermined/Insufficient Data,,
18-089-2011,180892011,41.59251651,-87.47195521,,Central,0,RQMAX,,,0.11,0.07,0.19,0.1,0.11,0.09,0.09,0.1,0.04,0.04,0.03,0.04,0.04,0.13,0.06,0.09,,,,,,,,,,0,16,1,Indiana,"Chicago-Naperville-Elgin, IL-IN-WI",No,Pb,Undetermined/Insufficient Data,,
18-089-2013,180892013,41.596975642,-87.47226086,,Central,0,RQMAX,0.34,,0.15,0.12,0.31,0.22,0.21,0.13,0.14,,,,,,,,,,,,,,,,,,,0,8,1,Indiana,"Chicago-Naperville-Elgin, IL-IN-WI",No,Pb,Undetermined/Insufficient Data,,
18-089-6000,180896000,41.641361,-87.487528,East Chicago High School,Central,0,RQMAX,,,,,,,,,,,,,0.02,0.04,0.03,0.02,0.02,0.04,0.02,,,,,,,,,0,7,1,Indiana,"Chicago-Naperville-Elgin, IL-IN-WI",No,Pb,Undetermined/Insufficient Data,,
18-091-0009,180910009,41.728928401,-86.88447382,UNITS ARE ON THE ROOF,Central,0,RQMAX,,,,,,,,0.02,,,,,,,,,,,,,,,,,,,,0,1,1,Indiana,"Michigan City-La Porte, IN",No,Pb,Undetermined/Insufficient Data,,
18-093-0004,180930004,38.889493925,-86.55193899,,Central,0,RQMAX,,,,,,,,,,,,,,,0.03,0.03,0.03,,,,,,,,,,,0,3,1,Indiana,"Bedford, IN",No,Pb,Undetermined/Insufficient Data,,
18-097-0058,180970058,39.787820577,-86.13665328,,Central,0,RQMAX,,,0.04,0.05,0.04,0.03,0.03,,,,,,,,,,,,,,,,,,,,,0,5,1,Indiana,"Indianapolis-Carmel-Anderson, IN",No,Pb,Undetermined/Insufficient Data,,
18-097-0062,180970062,39.788098537,-86.13109712,,Central,0,RQMAX,,,0.28,0.04,0.05,0.04,0.03,,,,,,,,,,,,,,,,,,,,,0,5,1,Indiana,"Indianapolis-Carmel-Anderson, IN",No,Pb,Undetermined/Insufficient Data,,
18-097-0069,180970069,39.71865498,-86.06248396,,Central,0,RQMAX,1.68,0.35,0.4,0.37,0.53,0.12,0.03,0.02,0.04,0.09,0.12,,,,,,,,,,,,,,,,,0,11,1,Indiana,"Indianapolis-Carmel-Anderson, IN",No,Pb,Undetermined/Insufficient Data,,
18-097-0075,180970075,39.715322075,-86.06387303,,Central,0,RQMAX,,1.64,1.65,2.38,4.63,0.99,0.17,0.09,0.06,0.08,0.12,,,,,,,,,,,,,,,,,0,10,1,Indiana,"Indianapolis-Carmel-Anderson, IN",No,Pb,Undetermined/Insufficient Data,,
18-097-0076,180970076,39.758924537,-86.28969434,,Central,0,RQMAX,,0.21,0.19,0.1,0.13,0.09,0.04,0.04,0.05,0.08,0.11,0.04,0.02,0.02,0.02,0.03,0.02,0.03,0.03,0.01,0.01,0.02,,,,,,0,21,1,Indiana,"Indianapolis-Carmel-Anderson, IN",No,Pb,Undetermined/Insufficient Data,,
18-101-0001,181010001,38.890326318,-86.76083416,,Central,0,RQMAX,,,,,,,,,,,,,,0.03,0.03,0.03,0.03,,,,,,,,,,,0,4,1,Indiana,,No,Pb,Undetermined/Insufficient Data,,
18-127-0023,181270023,41.616618401,-87.146959,Portage- Hwy 12,Central,0,RQMAX,,,,,,,,,,,,,,,,,,,,,0.02,0.02,,,,,,0,2,1,Indiana,"Chicago-Naperville-Elgin, IL-IN-WI",No,Pb,Undetermined/Insufficient Data,,
18-163-0006,181630006,37.971727429,-87.56723567,Evansville Civic Center,Central,0,RQMAX,,,,,,,,,,,,,0.01,0.01,0.01,0.01,0.01,,0.01,,,,,,,,,0,6,1,Indiana,"Evansville, IN-KY",No,Pb,Undetermined/Insufficient Data,,
18-163-0020,181630020,37.975248173,-87.56783036,Evansville PO,Central,0,RQMAX,,,,,,,,,,,,,,,,,,,,0.01,0.01,,,,,,,0,2,1,Indiana,"Evansville, IN-KY",No,Pb,Undetermined/Insufficient Data,,
19-155-0017,191550017,41.258609456,-95.91779147,,Upper Midwest,0,RQMAX,0.41,0.37,0.33,0.35,0.67,0.73,0.39,0.37,0.01,,,,,,,,,,,,,,,,,,,0,9,2,Iowa,"Omaha-Council Bluffs, NE-IA",No,Pb,Undetermined/Insufficient Data,,
19-163-0015,191630015,41.530010621,-90.58761081,"DAVENPORT, JEFFERSON SCH.",Upper Midwest,0,RQMAX,,,,,,,,,,,,,,,,,,,,,,0.01,,,,,,0,1,2,Iowa,"Davenport-Moline-Rock Island, IA-IL",No,Pb,Undetermined/Insufficient Data,,
20-029-0001,200290001,39.571669004,-97.65726127,,South,0,RQMAX,,,,,0.02,0.01,,,,,,,,,,,,,,,,,,,,,,0,2,5,Kansas,,No,Pb,Undetermined/Insufficient Data,,
20-029-0002,200290002,39.569002003,-97.6601233,POINT=CENTER OF MASS OF MANMADE MATERIALS AT SITE,South,0,RQMAX,,,,,,,0.01,0,,,,,,,,,,,,,,,,,,,,0,2,5,Kansas,,No,Pb,Undetermined/Insufficient Data,,
20-057-0001,200570001,37.77196424,-100.0181899,DODGE CITY,South,0,RQMAX,0.01,,,0,0,,,0,,,,,,,,,,,,,,,,,,,,0,4,5,Kansas,"Dodge City, KS",No,Pb,Undetermined/Insufficient Data,,
20-071-0001,200710001,38.466126688,-101.7757287,POINT=CENTER OF MASS OF MAN-MADE MATERIALS AT SITE,South,0,RQMAX,,,,,,0,0,0,,,,,,,,,,,,,,,,,,,,0,3,5,Kansas,,No,Pb,Undetermined/Insufficient Data,,
20-091-2001,200912001,39.038616185,-94.68856967,,South,0,RQMAX,,0.02,,0.01,0.01,0.01,0.01,,,,,,,,,,,,,,,,,,,,,0,5,5,Kansas,"Kansas City, MO-KS",No,Pb,Undetermined/Insufficient Data,,
20-129-0001,201290001,37.133356665,-101.8246105,POINT=CENTER OF MASS OF MAN-MADE MATERIALS AT SITE,South,0,RQMAX,,,,,,,,0,,,,,,,,,,,,,,,,,,,,0,1,5,Kansas,,No,Pb,Undetermined/Insufficient Data,,
20-129-0003,201290003,37.315578133,-101.7751671,POINT=CENTER OF MASS OF MANMADE MATERIALS AT SITE,South,0,RQMAX,,,,,,,0,,,,,,,,,,,,,,,,,,,,,0,1,5,Kansas,,No,Pb,Undetermined/Insufficient Data,,
20-133-0002,201330002,37.676308,-95.474659,CHANUTE,South,0,RQMAX,0.01,0.01,0.01,0,0.01,0,0.01,0,0,,,,,,,,,,,,,,,,,,,0,9,5,Kansas,,No,Pb,Undetermined/Insufficient Data,,
20-173-0004,201730004,37.677235979,-97.44449084,,South,0,RQMAX,0.01,0.02,0.01,0.01,0.01,0.01,0.01,0,,,,,,,,,,,,,,,,,,,,0,8,5,Kansas,"Wichita, KS",No,Pb,Undetermined/Insufficient Data,,
20-173-0007,201730007,37.708902374,-97.37560096,13TH & ST PAUL,South,0,RQMAX,0.02,0.02,0.01,0.02,0.01,0.01,0.01,0.01,,,,,,,,,,,,,,,,,,,,0,8,5,Kansas,"Wichita, KS",No,Pb,Undetermined/Insufficient Data,,
20-173-0008,201730008,37.659334,-97.297714,WASH & SKINNER,South,0,RQMAX,0.02,0.02,0.01,0.01,0.01,0.01,0.01,0.01,,,,,,,,,,,,,,,,,,,,0,8,5,Kansas,"Wichita, KS",No,Pb,Undetermined/Insufficient Data,,
20-173-0009,201730009,37.651114,-97.362212,PAWNEE & GLENN,South,0,RQMAX,,0.02,0.01,0.01,0.01,0.01,0.01,0.01,0.01,,,,,,,,,,,,,,,,,,,0,8,5,Kansas,"Wichita, KS",No,Pb,Undetermined/Insufficient Data,,
20-173-1012,201731012,37.747085,-97.316912,HYDRAULIC,South,0,RQMAX,0.02,0.03,0.02,0.02,0.01,0.01,0.02,0.01,,,,,,,,,,,,,,,,,,,,0,8,5,Kansas,"Wichita, KS",No,Pb,Undetermined/Insufficient Data,,
20-177-0002,201770002,39.139998525,-95.95360051,,South,0,RQMAX,0.01,0.01,0.01,0,,0,0.01,0,,,,,,,,,,,,,,,,,,,,0,7,5,Kansas,"Topeka, KS",No,Pb,Undetermined/Insufficient Data,,
20-177-0003,201770003,39.115832323,-95.61359021,,South,0,RQMAX,0.01,0.01,0.01,0,0.01,0.01,0,0,,,,,,,,,,,,,,,,,,,,0,8,5,Kansas,"Topeka, KS",No,Pb,Undetermined/Insufficient Data,,
20-177-0005,201770005,39.000833999,-95.70276003,,South,0,RQMAX,0.02,0.02,0.01,0.01,,0,,,,,,,,,,,,,,,,,,,,,,0,5,5,Kansas,"Topeka, KS",No,Pb,Undetermined/Insufficient Data,,
20-177-0007,201770007,39.074721861,-95.6605367,,South,0,RQMAX,0.02,,0.01,0.01,,0.01,0.01,0.01,,,,,,,,,,,,,,,,,,,,0,6,5,Kansas,"Topeka, KS",No,Pb,Undetermined/Insufficient Data,,
20-177-1002,201771002,39.053889181,-95.69609278,,South,0,RQMAX,0.02,0.02,0.01,0.01,,0.01,0.01,0.01,,,,,,,,,,,,,,,,,,,,0,7,5,Kansas,"Topeka, KS",No,Pb,Undetermined/Insufficient Data,,
20-181-0001,201810001,39.348452,-101.713405,GOODLAND,South,0,RQMAX,0.01,0.01,0.01,0.01,0,0,0,0.01,,,,,,,,,,,,,,,,,,,,0,8,5,Kansas,,No,Pb,Undetermined/Insufficient Data,,
20-209-0001,202090001,39.113060156,-94.62467873,,South,0,RQMAX,0.03,0.02,0.02,0.02,0.01,,0.03,0.02,,,,,,,,,,,,,,,,,,,,0,7,5,Kansas,"Kansas City, MO-KS",No,Pb,Undetermined/Insufficient Data,,
20-209-0007,202090007,39.075282629,-94.70579311,,South,0,RQMAX,0.02,0.02,0.01,,,,,,,,,,,,,,,,,,,,,,,,,0,3,5,Kansas,"Kansas City, MO-KS",No,Pb,Undetermined/Insufficient Data,,
20-209-0015,202090015,39.087949,-94.621453,420 KANSAS,South,0,RQMAX,0.03,0.04,0.03,0.03,0.03,0.03,0.03,0.02,,,,,,,,,,,,,,,,,,,,0,8,5,Kansas,"Kansas City, MO-KS",No,Pb,Undetermined/Insufficient Data,,
20-209-0020,202090020,39.151392592,-94.61773447,KINDELBERGER,South,0,RQMAX,0.04,0.05,0.04,0.03,0.04,0.04,0.07,0.48,,,,,,,,,,,,,,,,,,,,0,8,5,Kansas,"Kansas City, MO-KS",No,Pb,Undetermined/Insufficient Data,,
20-209-0021,202090021,39.117219,-94.635605,JFK,South,0,RQMAX,,,,,,,,,,,,,,,,,,,,,,,0.01,0.01,0.01,0.01,,0,4,5,Kansas,"Kansas City, MO-KS",No,Pb,Undetermined/Insufficient Data,,
21-019-0016,210190016,38.3315,-82.59106,LOCKWOOD,Central,0,RQMAX,,,,,,,,,,,,,,,,,,,,,0.01,0,0,0,,,,0,4,1,Kentucky,"Huntington-Ashland, WV-KY-OH",No,Pb,Undetermined/Insufficient Data,,
21-207-0001,212070001,37.069444001,-84.98925,SALEM ELEMENTARY (RUSSELL SPRINGS),Central,0,RQMAX,,,,,,,,,,,,,,,,,,,,,,0.04,0.06,0.03,0.02,,,0,4,1,Kentucky,,No,Pb,Undetermined/Insufficient Data,,
22-033-0002,220330002,30.491856645,-91.15010669,,South,0,RQMAX,,,0.02,0.04,0.02,0.04,0.04,0.02,0.04,,,,,,,,,,,,,,,,,,,0,7,5,Louisiana,"Baton Rouge, LA",No,Pb,Undetermined/Insufficient Data,,
22-033-0009,220330009,30.46198,-91.17922,Capitol,South,0,RQMAX,,,,,,,,,,,,,,,,,,,,,,,,,,0,,0,1,5,Louisiana,"Baton Rouge, LA",No,Pb,Undetermined/Insufficient Data,,
22-033-0014,220330014,30.58398,-91.25194,Baker LSP,South,0,RQMAX,,,,,,,,,,,,,,,,,,,,,,,,,,0,,0,1,5,Louisiana,"Baton Rouge, LA",No,Pb,Undetermined/Insufficient Data,,
22-033-1001,220331001,30.593978,-91.251943,Baker,South,0,RQMAX,,,0.27,0.26,0.06,0.12,0.05,0.07,0.06,0.06,,,,,,,,,,,,,,,,,,0,8,5,Louisiana,"Baton Rouge, LA",No,Pb,Undetermined/Insufficient Data,,
22-033-1002,220331002,30.609076019,-91.25177653,,South,0,RQMAX,,,0.08,0.08,0.09,0.15,0.15,,,,,,,,,,,,,,,,,,,,,0,5,5,Louisiana,"Baton Rouge, LA",No,Pb,Undetermined/Insufficient Data,,
22-051-0003,220510003,29.995759091,-90.17451874,,South,0,RQMAX,,,0.04,0.03,0.02,,,,,,,,,,,,,,,,,,,,,,,0,3,5,Louisiana,"New Orleans-Metairie, LA",No,Pb,Undetermined/Insufficient Data,,
22-071-0010,220710010,29.955704005,-90.12173331,,South,0,RQMAX,,,0.03,0.03,0.02,0.03,0.02,,,,,,,,,,,,,,,,,,,,,0,5,5,Louisiana,"New Orleans-Metairie, LA",No,Pb,Undetermined/Insufficient Data,,
22-071-0012,220710012,29.994646775,-90.10285065,New Orleans / City Park,South,0,RQMAX,,,,,,0.03,0.02,0.01,0.07,0.07,,,,,,,,,,,,,,,,,,0,5,5,Louisiana,"New Orleans-Metairie, LA",No,Pb,Undetermined/Insufficient Data,,
22-095-0003,220950003,30.04096,-90.46678,LaPlace,South,0,RQMAX,,,0.06,0.07,0.14,0.41,0.45,0.07,0.11,0.09,0.12,0.1,0.14,,,,,,,,,,,,,0.01,,0,12,5,Louisiana,"New Orleans-Metairie, LA",No,Pb,Undetermined/Insufficient Data,,
22-101-0004,221010004,29.664376374,-91.10287851,,South,0,RQMAX,,,0.02,0.03,0.02,0.04,,,,,,,,,,,,,,,,,,,,,,0,4,5,Louisiana,"Morgan City, LA",No,Pb,Undetermined/Insufficient Data,,
22-121-0001,221210001,30.500643,-91.213556,Port Allen,South,0,RQMAX,,,0.03,0.02,0.03,0.04,0.04,0.04,0.05,0.05,,,,,,,,,,,,,,,,,,0,8,5,Louisiana,"Baton Rouge, LA",No,Pb,Undetermined/Insufficient Data,,
23-001-0011,230010011,44.089406,-70.214219,COUNTRY KITCHEN BAKERY PARKING LOT,Northeast,0,RQMAX,0.02,0.02,0.02,0.02,,,,,,,,,,,,,,,,,,,,,,,,0,4,3,Maine,"Lewiston-Auburn, ME",No,Pb,Undetermined/Insufficient Data,,
23-005-0015,230050015,43.677994,-70.256178,TB - Tukey's Bridge,Northeast,0,RQMAX,0.03,0.03,0.03,0.03,,,,,,,,,,,,,,,,,,,,,,,,0,4,3,Maine,"Portland-South Portland, ME",No,Pb,Undetermined/Insufficient Data,,
23-019-0002,230190002,44.79886,-68.769675,KENDUSKEAG PUMP STATION (BUILDING ROOF),Northeast,0,RQMAX,,,0.01,,,,,,,,,,,,,,,,,,,,,,,,,0,1,3,Maine,"Bangor, ME",No,Pb,Undetermined/Insufficient Data,,
23-031-0002,230310002,43.492028377,-70.44699536,,Northeast,0,RQMAX,0.05,0.02,,,,,,,,,,,,,,,,,,,,,,,,,,0,2,3,Maine,"Portland-South Portland, ME",No,Pb,Undetermined/Insufficient Data,,
23-031-0005,230310005,43.489806332,-70.45616257,,Northeast,0,RQMAX,0.02,0.02,,,,,,,,,,,,,,,,,,,,,,,,,,0,2,3,Maine,"Portland-South Portland, ME",No,Pb,Undetermined/Insufficient Data,,
23-031-0006,230310006,43.496473275,-70.45143947,,Northeast,0,RQMAX,0.04,0.03,0.04,,,,,,,,,,,,,,,,,,,,,,,,,0,3,3,Maine,"Portland-South Portland, ME",No,Pb,Undetermined/Insufficient Data,,
23-031-0007,230310007,43.511750963,-70.45005152,,Northeast,0,RQMAX,0.02,0.02,,,,,,,,,,,,,,,,,,,,,,,,,,0,2,3,Maine,"Portland-South Portland, ME",No,Pb,Undetermined/Insufficient Data,,
24-017-0011,240170011,38.354293369,-76.93719389,,Northeast,0,RQMAX,,,0.02,,,,,,,,,,,,,,,,,,,,,,,,,0,1,3,Maryland,"Washington-Arlington-Alexandria, DC-VA-MD-WV",No,Pb,Undetermined/Insufficient Data,,
24-031-1008,240311008,39.053333,-77.116389,ROCKPIKE LAT/LONG POINT IS OF SAMPLING INLET,Northeast,0,RQMAX,,,0.03,0.03,0.02,,,,,,,,,,,,,,,,,,,,,,,0,3,3,Maryland,"Washington-Arlington-Alexandria, DC-VA-MD-WV",No,Pb,Undetermined/Insufficient Data,,
24-510-0008,245100008,39.28777,-76.546861,BCFD-TRUCK COMPANY 20,Northeast,0,RQMAX,,,0.05,0.03,0.04,0.03,0.03,0.02,0,,,,,,,,,,,,,,,,,,,0,7,3,Maryland,"Baltimore-Columbia-Towson, MD",No,Pb,Undetermined/Insufficient Data,,
24-510-0009,245100009,39.277778,-76.663889,SWPS LAT/LONG POINT IS OF SAMPLING INLET,Northeast,0,RQMAX,,,0.04,0.03,0.04,0.04,,,,,,,,,,,,,,,,,,,,,,0,4,3,Maryland,"Baltimore-Columbia-Towson, MD",No,Pb,Undetermined/Insufficient Data,,
24-510-0041,245100041,39.312051303,-76.54051969,,Northeast,0,RQMAX,,,0.03,0.03,0.03,0.03,,,,0,0,0,0,,,,,,,,,,,,,,,0,8,3,Maryland,"Baltimore-Columbia-Towson, MD",No,Pb,Undetermined/Insufficient Data,,
24-510-0991,245100991,39.209167,-76.548056,HAWKINS PT LAT/LONG POINT IS OF SAMPLING INLET,Northeast,0,RQMAX,,,,0.03,0.04,0.03,,,,,,,,,,,,,,,,,,,,,,0,3,3,Maryland,"Baltimore-Columbia-Towson, MD",No,Pb,Undetermined/Insufficient Data,,
25-013-0011,250130011,42.098983264,-72.58758916,,Northeast,0,RQMAX,,0.02,0.02,0.01,0,0,,,,,,,,,,,,,,,,,,,,,,0,5,3,Massachusetts,"Springfield, MA",No,Pb,Undetermined/Insufficient Data,,
25-013-2007,250132007,42.100650214,-72.59120028,,Northeast,0,RQMAX,0.06,0.05,0.05,0.02,0,0,,,,,,,,,,,,,,,,,,,,,,0,6,3,Massachusetts,"Springfield, MA",No,Pb,Undetermined/Insufficient Data,,
25-019-0001,250190001,41.260556,-70.058333,NANTUCKET MEMORIAL AIRPORT,Northeast,0,RQMAX,,,,,,,,,,,,,,,,,,,,,,,0.01,,,,,0,1,3,Massachusetts,,No,Pb,Undetermined/Insufficient Data,,
25-025-0002,250250002,42.348872712,-71.09716279,BOSTON KENMORE SQ,Northeast,0,RQMAX,0.05,0.04,0.03,0.01,0,0,,,,0.03,0.03,,,,,0.02,,0.01,0.02,,,,,,,,,0,11,3,Massachusetts,"Boston-Cambridge-Newton, MA-NH",No,Pb,Undetermined/Insufficient Data,,
25-025-0027,250250027,42.372122363,-71.06174143,BOSTON CITY SQUARE,Northeast,0,RQMAX,,0.02,0.03,0.02,0,0,,,,,,,,,,,,,,,,,,,,,,0,5,3,Massachusetts,"Boston-Cambridge-Newton, MA-NH",No,Pb,Undetermined/Insufficient Data,,
26-007-0901,260070901,45.083623802,-83.45025404,"375 WILSON, ALPENA CO.",Upper Midwest,0,RQMAX,,,,,,0,,,,,,,,,,,,,,,,,,,,,,0,1,2,Michigan,"Alpena, MI",No,Pb,Undetermined/Insufficient Data,,
26-007-0902,260070902,45.068068824,-83.42664191,"309 W LAKE ST, 17.5 FEET NORTH OF TAYLOR STREET",Upper Midwest,0,RQMAX,,,,,,0,,,,,,,,,,,,,,,,,,,,,,0,1,2,Michigan,"Alpena, MI",No,Pb,Undetermined/Insufficient Data,,
26-007-0903,260070903,45.044457216,-83.34552746,36 FEET FROM NORTH POINT ROAD,Upper Midwest,0,RQMAX,,,,,,0,,,,,,,,,,,,,,,,,,,,,,0,1,2,Michigan,"Alpena, MI",No,Pb,Undetermined/Insufficient Data,,
26-029-0011,260290011,45.16023542,-85.12769554,East Jordan,Upper Midwest,0,RQMAX,,,,,,,,,,,,,,,,,,,,,,,0.01,,,,,0,1,2,Michigan,,No,Pb,Undetermined/Insufficient Data,,
26-049-0011,260490011,43.025027219,-83.68578932,,Upper Midwest,0,RQMAX,,0.01,0.01,,,,,,,,,,,,,,,,,,,,,,,,,0,2,2,Michigan,"Flint, MI",No,Pb,Undetermined/Insufficient Data,,
26-049-0021,260490021,43.047224192,-83.67015909,,Upper Midwest,0,RQMAX,,,,0.02,0.01,0.01,0.01,0.01,0.02,,0.01,0.01,0.02,0.01,0.01,0.01,0.01,,,,,,,,,,,0,13,2,Michigan,"Flint, MI",No,Pb,Undetermined/Insufficient Data,,
26-065-1001,260651001,42.7428129,-84.55109006,,Upper Midwest,0,RQMAX,,0.02,,,,,,,,,,,,,,,,,,,,,,,,,,0,1,2,Michigan,"Lansing-East Lansing, MI",No,Pb,Undetermined/Insufficient Data,,
26-077-0905,260770905,42.278097346,-85.54194854,,Upper Midwest,0,RQMAX,,,0.02,0.02,0.01,0.01,0.01,,,,,,,,,,,,,,,,,,,,,0,5,2,Michigan,"Kalamazoo-Portage, MI",No,Pb,Undetermined/Insufficient Data,,
26-081-0010,260810010,42.95974885,-85.65641911,,Upper Midwest,0,RQMAX,,0.02,0.02,0.01,0.01,0.01,0.01,0.01,,,,,,,,,,,,,,,,,,,,0,7,2,Michigan,"Grand Rapids-Wyoming, MI",No,Pb,Undetermined/Insufficient Data,,
26-081-0021,260810021,42.938638003,-85.67114109,"1270 RANDOLPH, GRAND RAPIDS",Upper Midwest,0,RQMAX,,,,,,,,,,0.02,,0.01,0.01,0.01,0.01,,,,,,,,,,,,,0,5,2,Michigan,"Grand Rapids-Wyoming, MI",No,Pb,Undetermined/Insufficient Data,,
26-081-2002,260812002,42.91363833,-85.68002971,,Upper Midwest,0,RQMAX,,0.02,0.02,0.02,0.02,0.01,0.01,0.01,,,,,,,,,,,,,,,,,,,,0,7,2,Michigan,"Grand Rapids-Wyoming, MI",No,Pb,Undetermined/Insufficient Data,,
26-111-0007,261110007,43.609470635,-84.21637715,,Upper Midwest,0,RQMAX,,0.01,,,,,,,,,,,,,,,,,,,,,,,,,,0,1,2,Michigan,"Midland, MI",No,Pb,Undetermined/Insufficient Data,,
26-113-0001,261130001,44.31055542,-84.89186532,LOCATED ABOUT 1/4 MILE WEST OF SITE,Upper Midwest,0,RQMAX,,,,,,,,,,,,,,0,0,0.01,0,,,,,,,,,,,0,4,2,Michigan,"Cadillac, MI",No,Pb,Undetermined/Insufficient Data,,
26-121-0023,261210023,43.24251511,-86.21311409,,Upper Midwest,0,RQMAX,,0.02,0.02,0.01,0.01,0.01,0.01,0.01,,,,,,,,,,,,,,,,,,,,0,7,2,Michigan,"Muskegon, MI",No,Pb,Undetermined/Insufficient Data,,
26-125-0010,261250010,42.490313092,-83.27993058,338 FEET NORTH TO I-696 FREEWAY,Upper Midwest,0,RQMAX,,,,,,,,,,,,0.01,,,,,,,,,,,,,,,,0,1,2,Michigan,"Detroit-Warren-Dearborn, MI",No,Pb,Undetermined/Insufficient Data,,
26-125-0013,261250013,42.667943279,-83.41303306,,Upper Midwest,0,RQMAX,,,,,,,,,,,,,,,,,,,,,,,0.02,,,,,0,1,2,Michigan,"Detroit-Warren-Dearborn, MI",No,Pb,Undetermined/Insufficient Data,,
26-139-0009,261390009,42.790023411,-86.11448537,100 FEET SOUTH OF 8TH STREET,Upper Midwest,0,RQMAX,,,,,,,,,,,0.01,0.02,,,,,,,,,,,,,,,,0,2,2,Michigan,"Grand Rapids-Wyoming, MI",No,Pb,Undetermined/Insufficient Data,,
26-145-0002,261450002,43.451413933,-83.91163965,,Upper Midwest,0,RQMAX,,0.04,,,,,,,,,,,,,,,,,,,,,,,,,,0,1,2,Michigan,"Saginaw, MI",No,Pb,Undetermined/Insufficient Data,,
26-147-0005,261470005,42.953336271,-82.45622878,Port Huron,Upper Midwest,0,RQMAX,,0.02,,,,,,,,,,,,,,,,,,,,,,,,,,0,1,2,Michigan,"Detroit-Warren-Dearborn, MI",No,Pb,Undetermined/Insufficient Data,,
26-157-0001,261570001,43.368605303,-83.56906498,,Upper Midwest,0,RQMAX,,,,,,,,,,,,,,,,,,,,,,,0.03,0.01,0,,,0,3,2,Michigan,,No,Pb,Undetermined/Insufficient Data,,
26-159-0901,261590901,42.168929633,-85.82778671,,Upper Midwest,0,RQMAX,,,0.02,0.01,0.02,0.01,0.01,,,,,,,,,,,,,,,,,,,,,0,5,2,Michigan,"Kalamazoo-Portage, MI",No,Pb,Undetermined/Insufficient Data,,
26-161-0002,261610002,42.294759765,-83.74299686,,Upper Midwest,0,RQMAX,,0.02,,,,,,,,,,,,,,,,,,,,,,,,,,0,1,2,Michigan,"Ann Arbor, MI",No,Pb,Undetermined/Insufficient Data,,
26-161-0008,261610008,42.240565478,-83.59960223,"TOWNER ST, SOUTH; 2 LANE RESIDENIAL - HOSPITAL",Upper Midwest,0,RQMAX,,,,,,,,,,,,0.02,,0.01,0.01,0.01,0,,,,,,,,,,,0,5,2,Michigan,"Ann Arbor, MI",No,Pb,Undetermined/Insufficient Data,,
26-163-0005,261630005,42.26723076,-83.13208637,River Rouge,Upper Midwest,0,RQMAX,,,,,,,,,,,,0.03,0.02,0.02,0.03,0.02,0.01,,,,,,,,,,,0,6,2,Michigan,"Detroit-Warren-Dearborn, MI",No,Pb,Undetermined/Insufficient Data,,
26-163-0015,261630015,42.302786468,-83.10653043,Southwestern H.S.,Upper Midwest,0,RQMAX,,,,,,,,,,,,0.03,0.03,0.02,0.02,0.02,0.11,,,,,,,,,,,0,6,2,Michigan,"Detroit-Warren-Dearborn, MI",No,Pb,Undetermined/Insufficient Data,,
26-163-0019,261630019,42.430840418,-83.00013754,East 7 Mile,Upper Midwest,0,RQMAX,,,,,,,,,,,,0.01,0.02,0.01,0.01,0.02,0.01,,,,,,,,,,,0,6,2,Michigan,"Detroit-Warren-Dearborn, MI",No,Pb,Undetermined/Insufficient Data,,
26-163-0027,261630027,42.292230546,-83.10680746,,Upper Midwest,0,RQMAX,,,,,,,,,,,,0.04,,,,,0.02,,,,,,,,,,,0,2,2,Michigan,"Detroit-Warren-Dearborn, MI",No,Pb,Undetermined/Insufficient Data,,
27-003-6020,270036020,45.198083,-93.370916,Federal Cartridge,Upper Midwest,0,RQMAX,,,,,,,,,,,,,,,,,,,,,0.03,0.03,0.04,0.01,,,,0,4,2,Minnesota,"Minneapolis-St. Paul-Bloomington, MN-WI",No,Pb,Undetermined/Insufficient Data,,
27-037-0001,270370001,44.833298844,-93.11521766,,Upper Midwest,0,RQMAX,2.2,0.79,0.77,0.33,0.22,0.65,0.49,0.25,0.16,0.43,0.4,0.14,0.11,,0.12,0.12,,,,,,,,,,,,0,15,2,Minnesota,"Minneapolis-St. Paul-Bloomington, MN-WI",No,Pb,Undetermined/Insufficient Data,,
27-037-0421,270370421,44.777199,-93.040974,FHR 421,Upper Midwest,0,RQMAX,,,,,,,,,,,,,,,0.01,0.01,0.01,,,,,,,,,,,0,3,2,Minnesota,"Minneapolis-St. Paul-Bloomington, MN-WI",No,Pb,Undetermined/Insufficient Data,,
27-037-0423,270370423,44.775530001,-93.06299,FHR 423,Upper Midwest,0,RQMAX,,,,,,,,,,,,,,0.01,0.01,0,0,0,0,,,,,,,,,0,6,2,Minnesota,"Minneapolis-St. Paul-Bloomington, MN-WI",No,Pb,Undetermined/Insufficient Data,,
27-037-0442,270370442,44.738570001,-93.00496,FHR 442,Upper Midwest,0,RQMAX,,,,,,,,,,,,,,,0.01,0,0.01,0.01,0.01,,,,,,,,,0,5,2,Minnesota,"Minneapolis-St. Paul-Bloomington, MN-WI",No,Pb,Undetermined/Insufficient Data,,
27-037-0443,270370443,44.745662001,-93.05541,FHR 443,Upper Midwest,0,RQMAX,,,,,,,,,,,,,,,,,,,0,,,,,,,,,0,1,2,Minnesota,"Minneapolis-St. Paul-Bloomington, MN-WI",No,Pb,Undetermined/Insufficient Data,,
27-037-0462,270370462,44.833298836,-93.11660672,,Upper Midwest,0,RQMAX,1.87,1.52,0.83,0.78,,,,0.5,,,,,,,,,,,,,,,,,,,,0,5,2,Minnesota,"Minneapolis-St. Paul-Bloomington, MN-WI",No,Pb,Undetermined/Insufficient Data,,
27-037-0463,270370463,44.834687818,-93.11910683,,Upper Midwest,0,RQMAX,1.3,1.57,0.63,0.46,,,0.42,,,,,,,,,,,,,,,,,,,,,0,5,2,Minnesota,"Minneapolis-St. Paul-Bloomington, MN-WI",No,Pb,Undetermined/Insufficient Data,,
27-053-0050,270530050,45.001229,-93.267117,,Upper Midwest,0,RQMAX,,,,,,,,,,,,,,0.01,0.01,0.01,0.01,,,,,,,,,,,0,4,2,Minnesota,"Minneapolis-St. Paul-Bloomington, MN-WI",No,Pb,Undetermined/Insufficient Data,,
27-053-0053,270530053,44.981076363,-93.26966921,,Upper Midwest,0,RQMAX,0.05,0.06,0.03,0.01,0.01,0.03,0.01,0.01,0.02,0.02,0.01,0.01,0.02,,,,,,,,,,,,,,,0,13,2,Minnesota,"Minneapolis-St. Paul-Bloomington, MN-WI",No,Pb,Undetermined/Insufficient Data,,
27-053-0964,270530964,44.888551,-93.195377,MSP AIRPORT,Upper Midwest,0,RQMAX,,,,,,,,,,,,,,0.01,,,,,,,,,,,,,,0,1,2,Minnesota,"Minneapolis-St. Paul-Bloomington, MN-WI",No,Pb,Undetermined/Insufficient Data,,
27-053-0965,270530965,45.004478,-93.240046,,Upper Midwest,0,RQMAX,,,,,,,,,,,,,,0.01,0.01,0.01,0.02,,,,,,,,,,,0,4,2,Minnesota,"Minneapolis-St. Paul-Bloomington, MN-WI",No,Pb,Undetermined/Insufficient Data,,
27-053-0967,270530967,44.996463,-93.234882,SHAW LUMBER SITE,Upper Midwest,0,RQMAX,,,,,,,,,,,,,,,0.01,0.01,,,,,,,,,,,,0,2,2,Minnesota,"Minneapolis-St. Paul-Bloomington, MN-WI",No,Pb,Undetermined/Insufficient Data,,
27-053-0968,270530968,44.893005,-93.233227,,Upper Midwest,0,RQMAX,,,,,,,,,,,,,,,,0,0.01,,,,,,,,,,,0,2,2,Minnesota,"Minneapolis-St. Paul-Bloomington, MN-WI",No,Pb,Undetermined/Insufficient Data,,
27-053-2006,270532006,44.948050001,-93.34315,St. Louis Park,Upper Midwest,0,RQMAX,,,,,,,,,,,,,,,,,,,0.01,,,,,,,,,0,1,2,Minnesota,"Minneapolis-St. Paul-Bloomington, MN-WI",No,Pb,Undetermined/Insufficient Data,,
27-053-3004,270533004,44.876075787,-93.29828077,,Upper Midwest,0,RQMAX,0.06,0.05,0.05,0.01,0.02,0.03,0.01,0.02,0.02,,,,,,,,,,,,,,,,,,,0,9,2,Minnesota,"Minneapolis-St. Paul-Bloomington, MN-WI",No,Pb,Undetermined/Insufficient Data,,
27-095-3051,270953051,46.205300001,-93.75945,Mille Lacs Band,Upper Midwest,0,RQMAX,,,,,,,,,,,,,,,,,,,,,,,0,,,,,0,1,2,Minnesota,"Minneapolis-St. Paul-Bloomington, MN-WI",No,Pb,Undetermined/Insufficient Data,,
27-123-0038,271230038,44.966076531,-93.20550084,,Upper Midwest,0,RQMAX,0.13,0.04,,,,,,,,,,,,,,,,,,,,,,,,,,0,2,2,Minnesota,"Minneapolis-St. Paul-Bloomington, MN-WI",No,Pb,Undetermined/Insufficient Data,,
27-123-0866,271230866,44.899260001,-93.01708,Red Rock Rd.,Upper Midwest,0,RQMAX,,,,,,,,,,,,,,,,,,,0.02,,,,,,,,,0,1,2,Minnesota,"Minneapolis-St. Paul-Bloomington, MN-WI",No,Pb,Undetermined/Insufficient Data,,
27-123-1003,271231003,44.961330001,-93.19019,Vandalia St.,Upper Midwest,0,RQMAX,,,0.04,0.01,0.01,0.03,0.01,0.02,0.03,0.02,,,,0.01,0.02,0.01,0.01,0.01,0.01,,,,,,,,,0,14,2,Minnesota,"Minneapolis-St. Paul-Bloomington, MN-WI",No,Pb,Undetermined/Insufficient Data,,
27-145-3053,271453053,45.564637,-94.226345,Foundry Circle - St. Cloud,Upper Midwest,0,RQMAX,,,,,,,,,,,,,,,,,,,,,0,0.01,0.01,0,,,,0,4,2,Minnesota,"St. Cloud, MN",No,Pb,Undetermined/Insufficient Data,,
27-163-0009,271630009,44.846210001,-92.99558,MPC 435,Upper Midwest,0,RQMAX,,,,,,,,,,,,,,,,,0.01,0.01,0.01,,,,,,,,,0,3,2,Minnesota,"Minneapolis-St. Paul-Bloomington, MN-WI",No,Pb,Undetermined/Insufficient Data,,
28-001-0004,280010004,31.560751697,-91.39040513,Natchez,South,0,RQMAX,0.07,,,,,,,,,,,,,,,,,,,,,,,,,,,0,1,5,Mississippi,"Natchez, MS-LA",No,Pb,Undetermined/Insufficient Data,,
28-003-0003,280030003,34.939531952,-88.5167148,,South,0,RQMAX,0.07,0.07,,,,,,,,,,,,,,,,,,,,,,,,,,0,2,5,Mississippi,"Corinth, MS",No,Pb,Undetermined/Insufficient Data,,
28-019-0001,280190001,33.378889,-89.203889,"TVA PSD SITE IN ACKERMAN , MS",South,0,RQMAX,,,,,,,,0.04,,,,,,,,,,,,,,,,,,,,0,1,5,Mississippi,,No,Pb,Undetermined/Insufficient Data,,
28-049-0007,280490007,32.267924943,-90.21119991,,South,0,RQMAX,0.07,,0.05,0.02,0,0.09,,,,,,,,,,,,,,,,,,,,,,0,5,5,Mississippi,"Jackson, MS",No,Pb,Undetermined/Insufficient Data,,
28-049-0010,280490010,32.385730972,-90.14120021,Jackson FS19,South,0,RQMAX,0.07,,,,,,,,,,,,,,,,,,,,,,,,,,,0,1,5,Mississippi,"Jackson, MS",No,Pb,Undetermined/Insufficient Data,,
29-087-0001,290870001,40.04444061,-95.22247616,,Central,0,RQMAX,0.05,0.12,,,,,,,,,,,,,,,,,,,,,,,,,,0,2,1,Missouri,,No,Pb,Undetermined/Insufficient Data,,
29-087-0006,290870006,40.034718855,-95.23247634,,Central,0,RQMAX,,,,1.35,1.92,1.26,0.85,1.21,0.29,,,,,,,,,,,,,,,,,,,0,6,1,Missouri,,No,Pb,Undetermined/Insufficient Data,,
29-087-0007,290870007,40.029718904,-95.23081033,,Central,0,RQMAX,,,,0.84,0.91,0.61,0.66,,,,,,,,,,,,,,,,,,,,,0,4,1,Missouri,,No,Pb,Undetermined/Insufficient Data,,
29-093-0016,290930016,37.624063845,-91.12839629,Doe Run Buick - South #1,Central,0,RQMAX,1.07,1.31,1.1,1.01,2.35,0.68,1.42,1,1.11,1.18,0.88,0.81,1.19,0.85,0.93,1.87,0.87,1.01,2.46,0.73,0.64,0.88,,,,,,0,22,1,Missouri,,No,Pb,Undetermined/Insufficient Data,,
29-093-0020,290930020,37.652841363,-91.14207077,,Central,0,RQMAX,0.94,1.13,0.89,0.8,0.75,0.62,0.6,0.53,0.86,0.43,0.47,,,,,,,,,,,,,,,,,0,11,1,Missouri,,No,Pb,Undetermined/Insufficient Data,,
29-093-0021,290930021,37.651843391,-91.13106642,Doe Run Buick - North # 5,Central,0,RQMAX,0.86,1.88,0.68,1.25,1.35,1.65,1.22,0.57,0.63,0.58,0.52,0.7,0.51,0.64,0.72,0.81,1.2,1.21,1.12,1.63,0.72,1.15,,,,,,0,22,1,Missouri,,No,Pb,Undetermined/Insufficient Data,,
29-093-0022,290930022,37.645619475,-91.14679391,,Central,0,RQMAX,0.89,2.19,0.68,0.4,0.38,0.53,0.39,0.73,0.67,0.44,0.24,,,,,,,,,,,,,,,,,0,11,1,Missouri,,No,Pb,Undetermined/Insufficient Data,,
29-093-0023,290930023,37.510660141,-90.69494642,,Central,0,RQMAX,5.66,3.94,2.41,2.35,2.04,2.04,2.99,1.15,0.3,0.33,0.32,0.48,0.39,0.53,0.22,,,,,,,,,,,,,0,15,1,Missouri,,No,Pb,Undetermined/Insufficient Data,,
29-093-0024,290930024,37.470614807,-90.68924118,,Central,0,RQMAX,,9.68,7.24,13.23,8.74,7.25,9.53,2.66,0.89,1.39,1.12,1.17,1.02,0.97,0.14,,,,,,,,,,,,,0,14,1,Missouri,,No,Pb,Undetermined/Insufficient Data,,
29-093-0025,290930025,37.510622139,-90.69761251,,Central,0,RQMAX,,,6.84,5.13,5.03,1.56,2.06,0.93,0.23,0.33,0.29,0.56,0.45,0.53,,,,,,,,,,,,,,0,12,1,Missouri,,No,Pb,Undetermined/Insufficient Data,,
29-093-0026,290930026,37.459233999,-90.68650108,,Central,0,RQMAX,,,1.43,2.85,2.9,1.52,1.93,0.75,0.26,0.35,0.33,0.43,0.35,0.35,,,,,,,,,,,,,,0,12,1,Missouri,,No,Pb,Undetermined/Insufficient Data,,
29-093-0030,290930030,37.466894,-90.685264,GLOVER SOUTH - TINDELL RESIDENCE,Central,0,RQMAX,,,,2.72,2.41,1.69,3.38,0.86,0.27,0.28,0.35,0.39,0.32,0.35,0.07,,,,,,,,,,,,,0,12,1,Missouri,,No,Pb,Undetermined/Insufficient Data,,
29-093-0032,290930032,37.653943357,-91.13128644,Bixby West,Central,0,RQMAX,,,,,,,,,,,,,,,,,,,,,0.56,,,,,,,0,1,1,Missouri,,No,Pb,Undetermined/Insufficient Data,,
29-093-9007,290939007,37.653943357,-91.13128644,,Central,0,RQMAX,,,,,,,,,,,,,,,,,,,,,0.58,,,,,,,0,1,1,Missouri,,No,Pb,Undetermined/Insufficient Data,,
29-095-2002,290952002,39.095314483,-94.57801779,,Central,0,RQMAX,,,,,,,0,0,0,0,0.01,,,,,,,,,,,,,,,,,0,5,1,Missouri,"Kansas City, MO-KS",No,Pb,Undetermined/Insufficient Data,,
29-097-0005,290970005,37.170016424,-94.46329999,,Central,0,RQMAX,,,,,,,,,,,,,,,,,,,,,0.02,0.02,,,,,,0,2,1,Missouri,"Joplin, MO",No,Pb,Undetermined/Insufficient Data,,
29-099-0004,290990004,38.26339,-90.37883,"Herculaneum, Main Street",Central,0,RQMAX,,,,,,,,,,,,,,,1.78,1.3,1.8,1.57,2,1.16,1.12,1.11,,,,,,0,8,1,Missouri,"St. Louis, MO-IL",No,Pb,Undetermined/Insufficient Data,,
29-099-0008,290990008,38.261998568,-90.39427098,,Central,0,RQMAX,0.95,0.41,0.39,0.32,0.32,0.49,0.52,0.52,0.5,0.31,0.54,0.51,0.13,0.16,0.13,0.23,,,,,,,,,,,,0,16,1,Missouri,"St. Louis, MO-IL",No,Pb,Undetermined/Insufficient Data,,
29-099-0010,290990010,38.241154898,-90.3769034,,Central,0,RQMAX,0.43,0.42,0.24,0.3,0.2,0.27,0.25,0.2,0.24,0.21,0.2,0.31,0.12,0.06,0.07,0.08,,,,,,,,,,,,0,16,1,Missouri,"St. Louis, MO-IL",No,Pb,Undetermined/Insufficient Data,,
29-099-0011,290990011,38.268254492,-90.37390334,,Central,0,RQMAX,2.59,1.99,2.01,1.73,2.13,1.92,2.8,1.56,1.47,1.29,1.37,3.79,1.11,0.69,1.6,0.41,0.61,0.72,0.81,0.4,,,,,,,,0,20,1,Missouri,"St. Louis, MO-IL",No,Pb,Undetermined/Insufficient Data,,
29-099-0015,290990015,38.261791585,-90.37884449,,Central,0,RQMAX,,,,5.63,4.87,6.54,6.57,8.74,13.96,6.67,7.48,10.17,2.24,1.63,1.74,2.26,2.26,1.74,2.89,1.08,,,,,,,,0,17,1,Missouri,"St. Louis, MO-IL",No,Pb,Undetermined/Insufficient Data,,
29-099-0016,290990016,38.266,-90.3846,,Central,0,RQMAX,,,,,,,,,,,,,,,,0.33,,,,,,,,,,,,0,1,1,Missouri,"St. Louis, MO-IL",No,Pb,Undetermined/Insufficient Data,,
29-099-0021,290990021,38.26488754,-90.37777046,,Central,0,RQMAX,,,,,,,,,,,,,,,,,,1.32,1.14,0.97,,,,,,,,0,3,1,Missouri,"St. Louis, MO-IL",No,Pb,Undetermined/Insufficient Data,,
29-099-0022,290990022,38.260694,-90.381083,,Central,0,RQMAX,,,,,,,,,,,,,,,,,,,0.53,0.59,0.63,,,,,,,0,3,1,Missouri,"St. Louis, MO-IL",No,Pb,Undetermined/Insufficient Data,,
29-099-0024,290990024,38.25872,-90.38091,"Herculaneum, Church Street",Central,0,RQMAX,,,,,,,,,,,,,,,,,,,0.46,0.45,0.51,0.66,,,,,,0,4,1,Missouri,"St. Louis, MO-IL",No,Pb,Undetermined/Insufficient Data,,
29-099-9001,290999001,38.26339,-90.37883,"Herculaneum, Main Street",Central,0,RQMAX,,,,,,,,,,,,,,,,,,,,1.2,1.1,1.03,,,,,,0,3,1,Missouri,"St. Louis, MO-IL",No,Pb,Undetermined/Insufficient Data,,
29-099-9003,290999003,38.268254492,-90.37390334,,Central,0,RQMAX,,,,,,,,,,,,,,,,,,,,0.47,0.55,,,,,,,0,2,1,Missouri,"St. Louis, MO-IL",No,Pb,Undetermined/Insufficient Data,,
29-099-9006,290999006,38.243054872,-90.3738233,Ursuline North,Central,0,RQMAX,,,,,,,,,,,,,,,,,,,,,0.09,0.06,0.1,0.07,,,,0,4,1,Missouri,"St. Louis, MO-IL",No,Pb,Undetermined/Insufficient Data,,
29-179-0003,291790003,37.364208144,-91.12238567,Corridon,Central,0,RQMAX,,,,,,,,,,,,,,,,,,,,,0.1,0.03,,,,,,0,2,1,Missouri,,No,Pb,Undetermined/Insufficient Data,,
29-187-0002,291870002,37.836944,-90.513611,"MISSOURI MINES HISTORIC SITE, ST JOE STATE PARK FLAT RIVER",Central,0,RQMAX,,,,,0.08,,,,,,,,,,,,,,,,,,,,,,,0,1,1,Missouri,"Farmington, MO",No,Pb,Undetermined/Insufficient Data,,
29-187-0003,291870003,37.805,-90.513611,"PARK GARAGE, ST JOE STATE PARK FLAT RIVER",Central,0,RQMAX,,,,,0.08,,,,,,,,,,,,,,,,,,,,,,,0,1,1,Missouri,"Farmington, MO",No,Pb,Undetermined/Insufficient Data,,
29-187-0004,291870004,37.8375,-90.508333,"SOUTHSIDE, ST JOE STATE PARK FLAT RIVER",Central,0,RQMAX,,,,,0.08,,,,,,,,,,,,,,,,,,,,,,,0,1,1,Missouri,"Farmington, MO",No,Pb,Undetermined/Insufficient Data,,
29-187-0006,291870006,37.864910595,-90.50814704,Park Hills,Central,0,RQMAX,,,,,,,,,,,,,,,,,,,,,0.05,0.13,0.04,0.03,0.02,,,0,5,1,Missouri,"Farmington, MO",No,Pb,Undetermined/Insufficient Data,,
29-189-0001,291890001,38.521717765,-90.34371374,,Central,0,RQMAX,0.16,0.14,0.1,0.05,0.06,0.05,0.04,0.04,,,,,,,,,,,,,,,,,,,,0,8,1,Missouri,"St. Louis, MO-IL",No,Pb,Undetermined/Insufficient Data,,
29-189-0004,291890004,38.53278,-90.38243,FORMERLY 5962 SOUTH LINDBERGH.,Central,0,RQMAX,,,,,,,,,0.03,0.04,0.02,,,,,,,,,,,,,,,,,0,3,1,Missouri,"St. Louis, MO-IL",No,Pb,Undetermined/Insufficient Data,,
29-189-2003,291892003,38.649770909,-90.35065914,,Central,0,RQMAX,0.11,0.12,0.08,0.02,0.02,0.03,0.02,0.02,0.02,0.02,0.01,0.01,0,0,0.05,0.05,0.05,0.05,0.06,0.01,0.01,,,,,,,0,21,1,Missouri,"St. Louis, MO-IL",No,Pb,Undetermined/Insufficient Data,,
29-510-0085,295100085,38.656428945,-90.19834827,Blair Street,Central,0,RQMAX,,,,,,,,,,,,,,,,,,,,,,,0.03,0.03,0.02,0.01,,0,4,1,Missouri,"St. Louis, MO-IL",No,Pb,Undetermined/Insufficient Data,,
30-043-0020,300430020,46.350207737,-112.1055556,,Northern Rockies,0,RQMAX,0.02,0.02,,,,,,,,,,,,,,,,,,,,,,,,,,0,2,9,Montana,"Helena, MT",No,Pb,Undetermined/Insufficient Data,,
30-043-0022,300430022,46.381041266,-112.124446,MT Tunnels - Clancy Ck # 4,Northern Rockies,0,RQMAX,0.03,0.03,,,,,,,,,,,,,,,,,,,,,,,,,,0,2,9,Montana,"Helena, MT",No,Pb,Undetermined/Insufficient Data,,
30-043-0023,300430023,46.383263299,-112.1191677,,Northern Rockies,0,RQMAX,0.05,0.04,,,,,,,,,,,,,,,,,,,,,,,,,,0,2,9,Montana,"Helena, MT",No,Pb,Undetermined/Insufficient Data,,
30-043-0903,300430903,46.557679248,-111.9180976,,Northern Rockies,0,RQMAX,0.14,,,,,,,,,,,,,,,,,,,,,,,,,,,0,1,9,Montana,"Helena, MT",No,Pb,Undetermined/Insufficient Data,,
30-049-0703,300490703,46.59382362,-111.9208243,,Northern Rockies,0,RQMAX,,,,,,,,,,,0.71,,,,,,,,,,,,,,,,,0,1,9,Montana,"Helena, MT",No,Pb,Undetermined/Insufficient Data,,
30-049-0714,300490714,46.588889,-111.920556,ROOF TOP OF OLD EAST HELENA VOLUNTEER FIREHALL,Northern Rockies,0,RQMAX,3.18,3.64,4.21,5.48,6.72,5.47,3.66,1.48,1.03,1.12,0.98,,,,,,,,,,,,,,,,,0,11,9,Montana,"Helena, MT",No,Pb,Undetermined/Insufficient Data,,
30-049-0719,300490719,46.589345191,-111.9233763,,Northern Rockies,0,RQMAX,2.39,2.45,3.34,2.56,,,,,,,,,,,,,,,,,,,,,,,,0,4,9,Montana,"Helena, MT",No,Pb,Undetermined/Insufficient Data,,
30-049-0724,300490724,46.594345225,-111.9186542,,Northern Rockies,0,RQMAX,1.53,2.58,2.41,2.23,2.43,2.65,1.59,0.73,0.49,0.61,,,,,,,,,,,,,,,,,,0,10,9,Montana,"Helena, MT",No,Pb,Undetermined/Insufficient Data,,
30-049-0726,300490726,46.580179287,-111.9114318,,Northern Rockies,0,RQMAX,1.8,1.24,2.25,1.4,1.6,1.67,1.72,0.8,0.55,0.35,0.54,0.27,,,,,,,,,,,,,,,,0,12,9,Montana,"Helena, MT",No,Pb,Undetermined/Insufficient Data,,
30-049-0727,300490727,46.588267498,-111.9197131,RESIDENTIAL AREA NORTH OF HWY 12/287 AND ASARCO,Northern Rockies,0,RQMAX,,,,,4.4,6.35,3.57,1.48,1.01,0.97,0.92,1.09,,,,,,,,,,,,,,,,0,8,9,Montana,"Helena, MT",No,Pb,Undetermined/Insufficient Data,,
30-067-0002,300670002,45.070492452,-110.6360417,,Northern Rockies,0,RQMAX,0,,,,,,,,,,,,,,,,,,,,,,,,,,,0,1,9,Montana,,No,Pb,Undetermined/Insufficient Data,,
30-093-0041,300930041,46.00464857,-112.4961318,,Northern Rockies,0,RQMAX,,0.06,,,,,,,,,,,,,,,,,,,,,,,,,,0,1,9,Montana,"Butte-Silver Bow, MT",No,Pb,Undetermined/Insufficient Data,,
30-093-0043,300930043,46.01242652,-112.5222443,,Northern Rockies,0,RQMAX,0.02,0.02,,,,,,,,,,,,,,,,,,,,,,,,,,0,2,9,Montana,"Butte-Silver Bow, MT",No,Pb,Undetermined/Insufficient Data,,
31-053-0003,310530003,41.429443303,-96.48141364,,Northern Rockies,0,RQMAX,0.36,0.1,,0.08,,,,,,,,,,,,,,,,,,,,,,,,0,3,9,Nebraska,"Fremont, NE",No,Pb,Undetermined/Insufficient Data,,
31-055-0011,310550011,41.270276254,-95.93056969,,Northern Rockies,0,RQMAX,0.48,0.46,0.75,0.49,0.71,0.28,0.37,0.11,0.04,0.04,0.08,,,,,,,,,,,,,,,,,0,11,9,Nebraska,"Omaha-Council Bluffs, NE-IA",No,Pb,Undetermined/Insufficient Data,,
31-055-0040,310550040,41.258609758,-96.03362789,,Northern Rockies,0,RQMAX,0.03,0.02,0.02,0.02,0.02,0.01,0.02,0.01,,,,,,,,,,,,,,,,,,,,0,8,9,Nebraska,"Omaha-Council Bluffs, NE-IA",No,Pb,Undetermined/Insufficient Data,,
31-055-0041,310550041,41.25277659,-95.92168065,,Northern Rockies,0,RQMAX,0.27,0.15,0.38,0.18,0.34,0.18,0.16,0.11,0.01,0.03,0.01,,,,,,,,,,,,,,,,,0,11,9,Nebraska,"Omaha-Council Bluffs, NE-IA",No,Pb,Undetermined/Insufficient Data,,
31-055-0042,310550042,41.263887367,-95.92418059,,Northern Rockies,0,RQMAX,3.2,1.33,2.24,1.78,2.36,1.68,1.08,0.64,0.1,0.3,0.09,0.07,0.05,,,,,,,,,,,,,,,0,13,9,Nebraska,"Omaha-Council Bluffs, NE-IA",No,Pb,Undetermined/Insufficient Data,,
31-055-0043,310550043,41.323608172,-95.93695821,,Northern Rockies,0,RQMAX,0.05,,,,,,,,,,,,,,,,,,,,,,,,,,,0,1,9,Nebraska,"Omaha-Council Bluffs, NE-IA",No,Pb,Undetermined/Insufficient Data,,
31-055-0046,310550046,41.258887465,-95.9225136,,Northern Rockies,0,RQMAX,2.89,2.98,4.58,5.27,6.43,3.84,4.03,1.01,0.12,0.26,0.06,0.05,0.03,,,,,,,,,,,,,,,0,13,9,Nebraska,"Omaha-Council Bluffs, NE-IA",No,Pb,Undetermined/Insufficient Data,,
31-055-0047,310550047,41.238331749,-95.95057031,,Northern Rockies,0,RQMAX,,,,0.09,0.09,0.09,,,,,,,,,,,,,,,,,,,,,,0,3,9,Nebraska,"Omaha-Council Bluffs, NE-IA",No,Pb,Undetermined/Insufficient Data,,
31-055-0049,310550049,41.25887853,-95.94326517,253 FEET FROM ASARCO PROPERTY LINE IN UNION PACIFIC YARD,Northern Rockies,0,RQMAX,,,,,,7.73,5.65,1.95,0.28,1.12,0.13,,,,,,,,,,,,,,,,,0,6,9,Nebraska,"Omaha-Council Bluffs, NE-IA",No,Pb,Undetermined/Insufficient Data,,
31-127-0002,311270002,40.402544001,-95.841639,,Northern Rockies,0,RQMAX,,,,,,,,,,,,,,,,,,,,,0.09,0.12,0.05,0.03,0.01,0,,0,6,9,Nebraska,,No,Pb,Undetermined/Insufficient Data,,
34-001-1004,340011004,39.360949641,-74.43987205,,Northeast,0,RQMAX,,,0.03,0.03,0.04,0.03,,,,,,,,,,,,,,,,,,,,,,0,4,3,New Jersey,"Atlantic City-Hammonton, NJ",No,Pb,Undetermined/Insufficient Data,,
34-007-1007,340071007,39.989036,-75.050008,Pennsauken,Northeast,0,RQMAX,,,,,,,,0.07,0.02,0.08,0.01,0.02,,,,,,,,,,,,,,,,0,5,3,New Jersey,"Philadelphia-Camden-Wilmington, PA-NJ-DE-MD",No,Pb,Undetermined/Insufficient Data,,
34-013-0012,340130012,40.717601762,-74.1734778,,Northeast,0,RQMAX,0.41,1.24,0.44,0.32,0.4,0.28,0.07,,,,,,,,,,,,,,,,,,,,,0,7,3,New Jersey,"New York-Newark-Jersey City, NY-NJ-PA",No,Pb,Undetermined/Insufficient Data,,
34-017-1003,340171003,40.725454,-74.05229,Jersey City Firehouse,Northeast,0,RQMAX,,,0.05,0.05,0.05,0.05,,,,,,,,,,,,,,,,,,,,,,0,4,3,New Jersey,"New York-Newark-Jersey City, NY-NJ-PA",No,Pb,Undetermined/Insufficient Data,,
34-017-2002,340172002,40.772793,-74.031718,Union City,Northeast,0,RQMAX,,,0.03,0.04,0.03,0.03,,,,,,,,,,,,,,,,,,,,,,0,4,3,New Jersey,"New York-Newark-Jersey City, NY-NJ-PA",No,Pb,Undetermined/Insufficient Data,,
34-023-1003,340231003,40.472327,-74.470986,NEW BRUNSWICK-DELCO REMY,Northeast,0,RQMAX,0.48,1.15,1.76,0.33,0.13,0.07,0.06,0.08,0.08,0.18,0.17,0.23,0.11,0.11,0.12,0.24,0.15,0.02,,,,,,,,,,0,18,3,New Jersey,"New York-Newark-Jersey City, NY-NJ-PA",No,Pb,Undetermined/Insufficient Data,,
34-031-0002,340310002,40.837877867,-74.15542135,,Northeast,0,RQMAX,,,0.02,0.03,0.07,0.04,,,,,,,,,,,,,,,,,,,,,,0,4,3,New Jersey,"New York-Newark-Jersey City, NY-NJ-PA",No,Pb,Undetermined/Insufficient Data,,
34-033-0005,340330005,39.68289145,-75.48991986,,Northeast,0,RQMAX,,,0.05,0.02,0.04,0.03,0.03,0.03,,,,,,,,,,,,,,,,,,,,0,6,3,New Jersey,"Philadelphia-Camden-Wilmington, PA-NJ-DE-MD",No,Pb,Undetermined/Insufficient Data,,
35-001-1014,350011014,35.202200001,-106.64927,WESTSIDE CORRALES,Southwest,0,RQMAX,,,,,,,,,,,,,,,0,,,,,,,,,,,,,0,1,7,New Mexico,"Albuquerque, NM",No,Pb,Undetermined/Insufficient Data,,
35-013-0004,350130004,31.803995987,-106.5605444,,Southwest,0,RQMAX,,,0.12,0.14,0.06,0.1,0.07,0.08,,,,,,,,,,,,,,,,,,,,0,6,7,New Mexico,"Las Cruces, NM",No,Pb,Undetermined/Insufficient Data,,
35-013-0017,350130017,31.795940242,-106.5580443,,Southwest,0,RQMAX,,,0.14,0.12,0.05,0.07,0.08,0.08,,,,,,,,,,,,,,,,,,,,0,6,7,New Mexico,"Las Cruces, NM",No,Pb,Undetermined/Insufficient Data,,
36-001-0010,360010010,42.656468248,-73.76123214,,Northeast,0,RQMAX,,0.04,0.03,0.03,0.04,0.04,0.03,0.03,0.03,,,,,,,,,,,,,,,,,,,0,8,3,New York,"Albany-Schenectady-Troy, NY",No,Pb,Undetermined/Insufficient Data,,
36-029-0015,360290015,42.93783551,-78.88114746,,Northeast,0,RQMAX,0.03,0.03,0.04,0.05,0.05,0.04,0.04,0.04,0.04,,,,,,,,,,,,,,,,,,,0,9,3,New York,"Buffalo-Cheektowaga-Niagara Falls, NY",No,Pb,Undetermined/Insufficient Data,,
36-029-0017,360290017,42.931168917,-78.81169987,,Northeast,0,RQMAX,0.05,0.04,0.04,0.04,0.05,0.04,,,,,,,,,,,,,,,,,,,,,,0,6,3,New York,"Buffalo-Cheektowaga-Niagara Falls, NY",No,Pb,Undetermined/Insufficient Data,,
36-033-0003,360330003,44.98921585,-74.7121282,,Northeast,0,RQMAX,,,0.03,0.03,0.03,,,,,,,,,,,,,,,,,,,,,,,0,3,3,New York,"Malone, NY",No,Pb,Undetermined/Insufficient Data,,
36-047-0011,360470011,40.73277,-73.94722,GREENPOINT,Northeast,0,RQMAX,0.17,0.15,0.14,0.16,0.16,0.15,0.16,0.16,0.14,0.1,,,,,,,,,,,,,,,,,,0,10,3,New York,"New York-Newark-Jersey City, NY-NJ-PA",No,Pb,Undetermined/Insufficient Data,,
36-047-0052,360470052,40.64182,-74.01871,PS 314,Northeast,0,RQMAX,,0.05,0.06,0.06,0.05,0.05,,,,,,,,,,,,,,,,,,,,,,0,5,3,New York,"New York-Newark-Jersey City, NY-NJ-PA",No,Pb,Undetermined/Insufficient Data,,
36-047-0122,360470122,40.71961,-73.94771,JHS 126,Northeast,0,RQMAX,,,,,,,,,,,,,,0.03,0.04,,0.02,0.02,0.01,0.02,,,,,,,,0,6,3,New York,"New York-Newark-Jersey City, NY-NJ-PA",No,Pb,Undetermined/Insufficient Data,,
36-055-0014,360550014,43.143395556,-77.55972126,,Northeast,0,RQMAX,0.03,0.03,0.04,0.04,0.04,0.04,0.04,,,,,,,,,,,,,,,,,,,,,0,7,3,New York,"Rochester, NY",No,Pb,Undetermined/Insufficient Data,,
36-059-0005,360590005,40.74316,-73.58549,EISENHOWER PARK,Northeast,0,RQMAX,0.03,,,,,,,,,,,,,,,,,,,,,,,,,,,0,1,3,New York,"New York-Newark-Jersey City, NY-NJ-PA",No,Pb,Undetermined/Insufficient Data,,
36-061-0053,360610053,40.738712956,-73.97402714,,Northeast,0,RQMAX,0.07,,,,,,,,,,,,,,,,,,,,,,,,,,,0,1,3,New York,"New York-Newark-Jersey City, NY-NJ-PA",No,Pb,Undetermined/Insufficient Data,,
36-061-0069,360610069,40.751212667,-73.99097264,,Northeast,0,RQMAX,0.07,,,,,,,,,,,,,,,,,,,,,,,,,,,0,1,3,New York,"New York-Newark-Jersey City, NY-NJ-PA",No,Pb,Undetermined/Insufficient Data,,
36-061-0077,360610077,40.75623,-73.97657,MADISON AVE,Northeast,0,RQMAX,,,,,0.06,0.07,0.06,0.06,0.17,,,,,,,,,,,,,,,,,,,0,5,3,New York,"New York-Newark-Jersey City, NY-NJ-PA",No,Pb,Undetermined/Insufficient Data,,
36-063-2006,360632006,43.08588889,-78.99615367,NIAGARA FALLS,Northeast,0,RQMAX,,,0.03,,0.03,0.02,0.03,0.03,,,,,,,,,,,,,,,,,,,,0,5,3,New York,"Buffalo-Cheektowaga-Niagara Falls, NY",No,Pb,Undetermined/Insufficient Data,,
36-063-2008,360632008,43.08218,-79.00106,NIAGARA FALLS,Northeast,0,RQMAX,,,,,,,,,0.04,0.02,0.03,0.02,0.02,0.01,,,,,,,,,,,,,,0,6,3,New York,"Buffalo-Cheektowaga-Niagara Falls, NY",No,Pb,Undetermined/Insufficient Data,,
36-067-3003,360673003,43.07228886,-76.09047771,,Northeast,0,RQMAX,,,0.27,,,,,,,,,,,,,,,,,,,,,,,,,0,1,3,New York,"Syracuse, NY",No,Pb,Undetermined/Insufficient Data,,
36-067-4001,360674001,43.050456579,-76.13341611,,Northeast,0,RQMAX,0.03,,,,,,,,,,,,,,,,,,,,,,,,,,,0,1,3,New York,"Syracuse, NY",No,Pb,Undetermined/Insufficient Data,,
36-071-3003,360713003,41.450093814,-74.35654229,,Northeast,0,RQMAX,,,0.08,0.06,0.04,0.04,,,,,,,,,,,,,,,,,,,,,,0,4,3,New York,"New York-Newark-Jersey City, NY-NJ-PA",No,Pb,Undetermined/Insufficient Data,,
36-071-3004,360713004,41.46964,-74.37217,SCOTCHTOWN,Northeast,0,RQMAX,,,,,,,0.03,0.03,0.03,0.04,0.03,0.03,0.05,0.03,0.03,,0.01,0.01,0.01,0.01,0,0.01,0.01,0.01,0,0,,0,19,3,New York,"New York-Newark-Jersey City, NY-NJ-PA",No,Pb,Undetermined/Insufficient Data,,
36-085-0066,360850066,40.590937253,-74.19042156,,Northeast,0,RQMAX,,,0.05,,0.04,0.04,0.04,,,,,,,,,,,,,,,,,,,,,0,4,3,New York,"New York-Newark-Jersey City, NY-NJ-PA",No,Pb,Undetermined/Insufficient Data,,
36-085-0067,360850067,40.59664,-74.12525,SUSAN WAGNER HS,Northeast,0,RQMAX,,,0.03,,0.03,0.03,0.02,0.02,0.02,0.02,0.02,0.03,0.02,0.01,,,,,,,,,,,,,,0,11,3,New York,"New York-Newark-Jersey City, NY-NJ-PA",No,Pb,Undetermined/Insufficient Data,,
36-103-0005,361030005,40.73669,-73.41664,Republic Airpot,Northeast,0,RQMAX,,,,,,,,,,,,,,,,,,,,,,,,0.01,,,,0,1,3,New York,"New York-Newark-Jersey City, NY-NJ-PA",No,Pb,Undetermined/Insufficient Data,,
36-103-0024,361030024,40.8129,-72.8621,Brookhaven Airport,Northeast,0,RQMAX,,,,,,,,,,,,,,,,,,,,,,,0.03,,,,,0,1,3,New York,"New York-Newark-Jersey City, NY-NJ-PA",No,Pb,Undetermined/Insufficient Data,,
36-119-1002,361191002,40.93149,-73.76575,MAMARONECK,Northeast,0,RQMAX,0.04,0.06,0.04,0.04,0.04,0.04,,,,,,,,,,,,,,,,,,,,,,0,6,3,New York,"New York-Newark-Jersey City, NY-NJ-PA",No,Pb,Undetermined/Insufficient Data,,
37-081-0009,370810009,36.075833,-79.794444,,Southeast,0,RQMAX,,,,,,,0.04,,,,,,,,,,,,,,,,,,,,,0,1,6,North Carolina,"Greensboro-High Point, NC",No,Pb,Undetermined/Insufficient Data,,
39-017-0015,390170015,39.490720001,-84.36374,OHIO BELL,Central,0,RQMAX,,,,,,,,,,,,,,,,,,,,,0.01,0.01,0.01,0.01,0.01,0.01,,0,6,1,Ohio,"Cincinnati, OH-KY-IN",No,Pb,Undetermined/Insufficient Data,,
39-029-0022,390290022,40.635275001,-80.546642,SCHOOL (EASTSIDE),Central,0,RQMAX,,,,,,,,,,,,,,,,,,,,,0.04,0.04,0.02,0.02,0.01,0.01,,0,6,1,Ohio,"Salem, OH",No,Pb,Undetermined/Insufficient Data,,
39-035-0055,390350055,41.476031,-81.67499,,Central,0,RQMAX,,,,18.04,,,,,,,,,,,,,,,,,,,,,,,,0,1,1,Ohio,"Cleveland-Elyria, OH",No,Pb,Undetermined/Insufficient Data,,
39-049-0025,390490025,39.928450001,-82.98104,ANN ST.,Central,0,RQMAX,,,,,,,,,,,,,,,,,,,,,0.01,0.01,0.01,0.01,0.01,,,0,5,1,Ohio,"Columbus, OH",No,Pb,Undetermined/Insufficient Data,,
39-091-0005,390910005,40.343693,-83.761045,,Central,0,RQMAX,0.51,0.15,0.2,,,,,,,,,,,,,,,,,,,,,,,,,0,3,1,Ohio,"Bellefontaine, OH",No,Pb,Undetermined/Insufficient Data,,
39-091-0007,390910007,40.343674001,-83.755621,,Central,0,RQMAX,0.95,0.19,0.14,,,,,,,,,,,,,,,,,,,,,,,,,0,3,1,Ohio,"Bellefontaine, OH",No,Pb,Undetermined/Insufficient Data,,
39-129-0004,391290004,39.57284029,-82.94601309,,Central,0,RQMAX,0.06,0.05,,,,,,,,,,,,,,,,,,,,,,,,,,0,2,1,Ohio,"Columbus, OH",No,Pb,Undetermined/Insufficient Data,,
39-129-0005,391290005,39.58034032,-82.94740218,,Central,0,RQMAX,0.49,0.26,,,,,,,,,,,,,,,,,,,,,,,,,,0,2,1,Ohio,"Columbus, OH",No,Pb,Undetermined/Insufficient Data,,
39-151-0017,391510017,40.786878001,-81.394186,CANTON FS 8,Central,0,RQMAX,,,,,,,,,,,,,,,,,,,,,0.02,0.02,0.02,0.02,0.02,,,0,5,1,Ohio,"Canton-Massillon, OH",No,Pb,Undetermined/Insufficient Data,,
39-155-0012,391550012,41.172787001,-80.555638,ELMWOOD,Central,0,RQMAX,,,,,,,,,,,,,,,,,,,,,0.01,0.01,0.01,0.01,,,,0,4,1,Ohio,"Youngstown-Warren-Boardman, OH-PA",No,Pb,Undetermined/Insufficient Data,,
39-167-0010,391670010,39.413598001,-81.47062,The Ohio Valley Educational Service Center,Central,0,RQMAX,,,,,,,,,,,,,,,,,,,,,0.01,0.01,0.01,0.01,0,,,0,5,1,Ohio,"Marietta, OH",No,Pb,Undetermined/Insufficient Data,,
40-109-0018,401090018,35.479503385,-97.5464283,,South,0,RQMAX,,,0,0.01,0.02,0,,,,,,,,,,,,,,,,,,,,,,0,4,5,Oklahoma,"Oklahoma City, OK",No,Pb,Undetermined/Insufficient Data,,
40-109-0033,401090033,35.477036001,-97.494309,OKC CENTRAL-OSDH,South,0,RQMAX,0.04,0.04,0.03,0.02,0.01,0.02,0.01,0,,,,,,,,,,,,,,,,,,,,0,8,5,Oklahoma,"Oklahoma City, OK",No,Pb,Undetermined/Insufficient Data,,
40-109-0045,401090045,35.3953399,-97.51475945,,South,0,RQMAX,,0,0,0.01,0.01,,,,,,,,,,,,,,,,,,,,,,,0,4,5,Oklahoma,"Oklahoma City, OK",No,Pb,Undetermined/Insufficient Data,,
40-115-9005,401159005,36.9858,-94.8492,,South,0,RQMAX,,,,,,,,,,,,,,,,0.05,,0.01,,,,,,,,,,0,2,5,Oklahoma,"Miami, OK",No,Pb,Undetermined/Insufficient Data,,
40-115-9008,401159008,36.9716,-94.825,,South,0,RQMAX,,,,,,,,,,,,,,,,0.03,,0.01,,,,,,,,,,0,2,5,Oklahoma,"Miami, OK",No,Pb,Undetermined/Insufficient Data,,
40-121-0416,401210416,34.8293959,-95.8436423,,South,0,RQMAX,,,,,,,,,,,,,,,,,,,,,0,0,0,0.06,0,,,0,5,5,Oklahoma,"McAlester, OK",No,Pb,Undetermined/Insufficient Data,,
40-143-0131,401430131,36.119818613,-95.85776742,,South,0,RQMAX,,,0,0,0,0,0.05,,,,,,,,,,,,,,,,,,,,,0,5,5,Oklahoma,"Tulsa, OK",No,Pb,Undetermined/Insufficient Data,,
40-143-0138,401430138,36.13786553,-96.12028044,,South,0,RQMAX,,,0.09,0.26,0.1,0.09,0.18,0.01,,,,,,,,,,,,,,,,,,,,0,6,5,Oklahoma,"Tulsa, OK",No,Pb,Undetermined/Insufficient Data,,
40-143-0172,401430172,36.164527722,-95.98547869,EMMERSON SCHOOL,South,0,RQMAX,,,,,,,,,,,,,,,,,,,0,,,,,,,,,0,1,5,Oklahoma,"Tulsa, OK",No,Pb,Undetermined/Insufficient Data,,
40-143-0191,401430191,36.141697001,-95.983793,CINCINNATI,South,0,RQMAX,,,,,,,,,,,,,,,,,,,0,,,,,,,,,0,1,5,Oklahoma,"Tulsa, OK",No,Pb,Undetermined/Insufficient Data,,
40-143-0235,401430235,36.126945001,-95.998941,CENTER OF PARKING LOT OF PUBLIC WORKS BUILDING 1/4 MI N OF SINCLAIR,South,0,RQMAX,,,,,,,,,,,,,,,,,,,0.01,,,,,,,,,0,1,5,Oklahoma,"Tulsa, OK",No,Pb,Undetermined/Insufficient Data,,
41-039-0060,410390060,44.026312,-123.083737,Eugene - AMAZON PARK (EAP),Northwest,0,RQMAX,,,,,,,,,,,,,0,0,,,,,,,,,,,,,,0,2,4,Oregon,"Eugene, OR",No,Pb,Undetermined/Insufficient Data,,
41-051-0244,410510244,45.535,-122.698889,SE CORNER OF P.O. PARKING LOT AND SW CORNER OF NEIGHBORING BUILDING,Northwest,0,RQMAX,,,,,,,,,,,,0.01,,,,,,,,,,,,,,,,0,1,4,Oregon,"Portland-Vancouver-Hillsboro, OR-WA",No,Pb,Undetermined/Insufficient Data,,
41-051-0246,410510246,45.56137,-122.6679,"WEST END OF ATHLETIC FIELD WITH N EMERSON N, N ROSELAWN S, N WILLIAM",Northwest,0,RQMAX,,,,,,,,,,,,0.01,0.01,0.01,,,,,,,,,,,,,,0,3,4,Oregon,"Portland-Vancouver-Hillsboro, OR-WA",No,Pb,Undetermined/Insufficient Data,,
41-071-1702,410711702,45.230123,-123.163513,CENTER OF AN ISLAND BETWEEN HWY 99W AND RIVERSIDE DRIVE,Northwest,0,RQMAX,,,,,0.33,0.25,,,,,,,,,,,,,,,0.03,0.04,0.05,,,,,0,5,4,Oregon,"Portland-Vancouver-Hillsboro, OR-WA",No,Pb,Undetermined/Insufficient Data,,
42-003-0002,420030002,40.49976657,-80.0713372,Avalon,Northeast,0,RQMAX,0.06,0.04,0.04,0.03,0.04,0.03,0.03,0.03,0.03,0.03,0.02,0.02,0.02,0.02,0.01,0.04,0.02,0,0.03,0.01,0.02,,,,,,,0,21,3,Pennsylvania,"Pittsburgh, PA",No,Pb,Undetermined/Insufficient Data,,
42-003-0031,420030031,40.443367157,-79.99029281,Flag Plaza,Northeast,0,RQMAX,0.04,0.06,0.05,0.03,0.05,0.05,0.02,0.03,0.03,0.02,0.02,,,,,,,,,,,,,,,,,0,11,3,Pennsylvania,"Pittsburgh, PA",No,Pb,Undetermined/Insufficient Data,,
42-003-0041,420030041,40.4392361,-79.96033024,,Northeast,0,RQMAX,0.05,0.04,0.04,,,,,,,,,,,,,,,,,,,,,,,,,0,3,3,Pennsylvania,"Pittsburgh, PA",No,Pb,Undetermined/Insufficient Data,,
42-003-0069,420030069,40.362291413,-80.10144459,NEAR WATER TOWER,Northeast,0,RQMAX,,,0.07,0.06,0.13,0.07,,,,,,,,,,,,,,,,,,,,,,0,4,3,Pennsylvania,"Pittsburgh, PA",No,Pb,Undetermined/Insufficient Data,,
42-003-0116,420030116,40.47367975,-80.07699965,SOUTH OF NEVILLE ISLAND (UPWIND),Northeast,0,RQMAX,,,,0.03,0.05,0.05,,,,,,,,,,,,,,,,,,,,,,0,3,3,Pennsylvania,"Pittsburgh, PA",No,Pb,Undetermined/Insufficient Data,,
42-003-1007,420031007,40.616455259,-79.72282629,,Northeast,0,RQMAX,,,0.12,0.12,0.1,0.1,,,,,,,,,,,,,,,,,,,,,,0,4,3,Pennsylvania,"Pittsburgh, PA",No,Pb,Undetermined/Insufficient Data,,
42-003-1009,420031009,40.618909685,-79.71937333,Natrona,Northeast,0,RQMAX,,,,,,,,,,,,,,,,,,,,,0.14,0.06,0.04,0.02,0.02,,,0,5,3,Pennsylvania,"Pittsburgh, PA",No,Pb,Undetermined/Insufficient Data,,
42-003-2001,420032001,40.396736102,-79.86338207,NEAR USS EDGAR THOMPSON WORKS,Northeast,0,RQMAX,0.05,0.07,0.05,0.06,0.09,0.09,0.08,0.06,0.08,0.06,0.05,0.04,0.05,0.06,0.05,0.06,0.06,,,,,,,,,,,0,17,3,Pennsylvania,"Pittsburgh, PA",No,Pb,Undetermined/Insufficient Data,,
42-011-0003,420110003,40.468336,-75.764047,A420110003LAT/LON POINT IS OF SAMPLING INLET,Northeast,0,RQMAX,,,0.23,0.2,0.18,0.2,0.21,0.21,0.28,0.61,0.29,0.27,,,,,,,,,,,,,,,,0,10,3,Pennsylvania,"Reading, PA",No,Pb,Undetermined/Insufficient Data,,
42-011-0005,420110005,40.4663,-75.7589,,Northeast,0,RQMAX,,,,,,,,,,,,,0.1,0.1,0.1,0.09,0.1,0.07,0.07,0.05,,,,,,,,0,8,3,Pennsylvania,"Reading, PA",No,Pb,Undetermined/Insufficient Data,,
42-011-0200,420110200,40.381121536,-75.90907666,,Northeast,0,RQMAX,1.75,1.57,1.08,0.92,1.91,0.64,0.63,0.7,0.66,0.6,,,,,,,,,,,,,,,,,,0,10,3,Pennsylvania,"Reading, PA",No,Pb,Undetermined/Insufficient Data,,
42-011-0201,420110201,40.378899568,-75.91102173,,Northeast,0,RQMAX,0.95,1.15,1.15,0.87,1.07,0.56,0.39,0.56,0.57,0.67,,,,,,,,,,,,,,,,,,0,10,3,Pennsylvania,"Reading, PA",No,Pb,Undetermined/Insufficient Data,,
42-011-0202,420110202,40.380843557,-75.91463284,,Northeast,0,RQMAX,1.09,1,1.15,0.78,0.78,0.61,0.53,0.63,0.86,0.71,,,,,,,,,,,,,,,,,,0,10,3,Pennsylvania,"Reading, PA",No,Pb,Undetermined/Insufficient Data,,
42-011-0203,420110203,40.38139955,-75.91435483,,Northeast,0,RQMAX,1.42,1.49,1.64,0.96,0.68,0.89,0.82,0.98,0.66,0.85,,,,,,,,,,,,,,,,,,0,10,3,Pennsylvania,"Reading, PA",No,Pb,Undetermined/Insufficient Data,,
42-011-0210,420110210,40.477230989,-75.76407145,,Northeast,0,RQMAX,0.36,0.4,0.2,0.13,0.12,0.23,0.41,0.25,0.25,0.26,,,,,,,,,,,,,,,,,,0,10,3,Pennsylvania,"Reading, PA",No,Pb,Undetermined/Insufficient Data,,
42-011-0211,420110211,40.474175989,-75.75323811,,Northeast,0,RQMAX,0.32,0.41,0.24,0.12,0.15,0.15,0.26,0.16,0.28,0.13,,,,,,,,,,,,,,,,,,0,10,3,Pennsylvania,"Reading, PA",No,Pb,Undetermined/Insufficient Data,,
42-011-0212,420110212,40.455009255,-75.76934974,,Northeast,0,RQMAX,0.42,0.46,0.4,0.61,0.66,0.27,0.28,0.38,0.71,0.4,,,,,,,,,,,,,,,,,,0,10,3,Pennsylvania,"Reading, PA",No,Pb,Undetermined/Insufficient Data,,
42-011-0213,420110213,40.476675979,-75.75907129,,Northeast,0,RQMAX,0.39,0.48,0.31,0.19,0.13,0.24,0.74,0.26,0.28,,,,,,,,,,,,,,,,,,,0,9,3,Pennsylvania,"Reading, PA",No,Pb,Undetermined/Insufficient Data,,
42-011-0214,420110214,41.525077025,-75.77463786,,Northeast,0,RQMAX,,,0.35,0.34,0.23,0.25,0.2,0.26,0.31,0.73,,,,,,,,,,,,,,,,,,0,8,3,Pennsylvania,"Reading, PA",No,Pb,Undetermined/Insufficient Data,,
42-011-0716,420110716,40.403056,-75.928611,A420110716LAT/LON POINT IS OF SAMPLING INLET,Northeast,0,RQMAX,0.17,0.12,0.09,0.08,0.1,0.07,,,,,,,,,,,,,,,,,,,,,,0,6,3,Pennsylvania,"Reading, PA",No,Pb,Undetermined/Insufficient Data,,
42-011-0717,420110717,40.476667,-75.759167,A420110717LAT/LON POINT IS OF SAMPLING INLET,Northeast,0,RQMAX,0.32,0.38,0.24,0.17,0.12,0.2,0.7,0.3,0.22,,0.25,0.24,0.24,0.15,0.2,,0.17,0.13,0.21,0.09,,,,,,,,0,18,3,Pennsylvania,"Reading, PA",No,Pb,Undetermined/Insufficient Data,,
42-017-0012,420170012,40.107222,-74.882222,A420170012LAT/LONG POINT IS OF SAMPLING INLET,Northeast,0,RQMAX,,,,,,0.05,,,,,,,,,,,,,,,,,,,,,,0,1,3,Pennsylvania,"Philadelphia-Camden-Wilmington, PA-NJ-DE-MD",No,Pb,Undetermined/Insufficient Data,,
42-021-0804,420210804,40.346686138,-78.8863964,,Northeast,0,RQMAX,0.18,0.2,0.13,0.06,0.06,0.06,,,,,,,,,,,,,,,,,,,,,,0,6,3,Pennsylvania,"Johnstown, PA",No,Pb,Undetermined/Insufficient Data,,
42-021-0808,420210808,40.348056,-78.882778,A420210808LAT/LON POINT IS OF SAMPLING INLET,Northeast,0,RQMAX,,,,,,,0.04,0.04,0.04,0.09,0.05,0.04,0.04,0.04,0.05,0.06,0.06,0.07,0.05,0.07,,,,,,,,0,14,3,Pennsylvania,"Johnstown, PA",No,Pb,Undetermined/Insufficient Data,,
42-025-0105,420250105,40.803056,-75.608333,A420250105LAT/LONG POINT IS OF SAMPLING INLET,Northeast,0,RQMAX,0.44,0.47,0.29,0.19,0.13,0.12,0.09,0.09,0.11,0.11,0.11,0.08,0.09,0.11,0.12,0.25,,,,,,,,,,,,0,16,3,Pennsylvania,"Allentown-Bethlehem-Easton, PA-NJ",No,Pb,Undetermined/Insufficient Data,,
42-043-0306,420430306,40.263056,-76.877222,A420430306LAT/LON POINT IS OF SAMPLING INLET,Northeast,0,RQMAX,,0.04,0.04,0.04,0.04,0.04,0.04,0.04,0.04,,,,,,,,,,,,,,,,,,,0,8,3,Pennsylvania,"Harrisburg-Carlisle, PA",No,Pb,Undetermined/Insufficient Data,,
42-049-0602,420490602,42.120560899,-80.08031799,,Northeast,0,RQMAX,,0.08,0.05,,,,,,,,,,,,,,,,,,,,,,,,,0,2,3,Pennsylvania,"Erie, PA",No,Pb,Undetermined/Insufficient Data,,
42-071-0007,420710007,40.046667,-76.283333,A420710007LAT/LON POINT AT CORNER OF TRAILER,Northeast,0,RQMAX,,,,,,,,,,,,,,,0.01,0.02,0.01,0.01,,,,,,,,,,0,4,3,Pennsylvania,"Lancaster, PA",No,Pb,Undetermined/Insufficient Data,,
42-071-0315,420710315,40.0725,-76.335556,A420710315LAT/LON POINT IS OF SAMPLING INLET,Northeast,0,RQMAX,0.06,0.04,0.04,0.04,0.04,0.04,0.04,0.04,0.04,,,,,,,,,,,,,,,,,,,0,9,3,Pennsylvania,"Lancaster, PA",No,Pb,Undetermined/Insufficient Data,,
42-079-1207,420791207,41.248056,-75.880278,A420791207LAT/LON POINT IS OF SAMPLING INLET,Northeast,0,RQMAX,,0.06,0.05,0.05,,,,,,,,,,,,,,,,,,,,,,,,0,3,3,Pennsylvania,"Scranton--Wilkes-Barre--Hazleton, PA",No,Pb,Undetermined/Insufficient Data,,
42-085-0622,420850622,41.212235591,-80.50200127,,Northeast,0,RQMAX,,0.09,0.07,0.05,0.05,0.05,0.07,0.04,0.04,,,,,,,,,,,,,,,,,,,0,8,3,Pennsylvania,"Youngstown-Warren-Boardman, OH-PA",No,Pb,Undetermined/Insufficient Data,,
42-091-0104,420910104,40.149831517,-75.09350563,,Northeast,0,RQMAX,,0.05,,,,,,,,,,,,,,,,,,,,,,,,,,0,1,3,Pennsylvania,"Philadelphia-Camden-Wilmington, PA-NJ-DE-MD",No,Pb,Undetermined/Insufficient Data,,
42-091-0112,420910112,40.076944,-75.304167,A420910112LAT/LON POINT IS OF SAMPLING INLET,Northeast,0,RQMAX,,,0.04,0.04,0.04,0.04,0.04,0.04,0.04,,,,,,,,,,,,,,,,,,,0,7,3,Pennsylvania,"Philadelphia-Camden-Wilmington, PA-NJ-DE-MD",No,Pb,Undetermined/Insufficient Data,,
42-095-0725,420950725,40.6175,-75.333056,A420950725LAT/LON POINT IS OF SAMPLING INLET,Northeast,0,RQMAX,,,,,0.04,0.04,0.04,,,,,,,,,,,,,,,,,,,,,0,3,3,Pennsylvania,"Allentown-Bethlehem-Easton, PA-NJ",No,Pb,Undetermined/Insufficient Data,,
42-095-1003,420951003,40.69,-75.5,A420951003LAT/LON POINT IS OF SAMPLING INLET,Northeast,0,RQMAX,0.08,0.09,0.07,0.06,,0.04,,,,,,,,,,,,,,,,,,,,,,0,5,3,Pennsylvania,"Allentown-Bethlehem-Easton, PA-NJ",No,Pb,Undetermined/Insufficient Data,,
42-095-1004,420951004,40.688429401,-75.49184977,A420951004LAT/LON POINT IS OF SAMPLING INLET,Northeast,0,RQMAX,,,,,,,0.04,0.04,,,,,,,,,,,,,,,,,,,,0,2,3,Pennsylvania,"Allentown-Bethlehem-Easton, PA-NJ",No,Pb,Undetermined/Insufficient Data,,
42-101-0004,421010004,40.008889,-75.09778,Air Management Services Laboratory (AMS LAB),Northeast,0,RQMAX,0.06,0.09,0.08,0.08,0.07,0.07,0.1,0.09,0.03,,,0.05,,,0.01,,,,,,,,,,,,,0,11,3,Pennsylvania,"Philadelphia-Camden-Wilmington, PA-NJ-DE-MD",No,Pb,Undetermined/Insufficient Data,,
42-101-0014,421010014,40.049616236,-75.24082199,Roxborough (ROX),Northeast,0,RQMAX,,,,,,,,,,,,,,,,,0.01,0.01,,,,,,,,,,0,2,3,Pennsylvania,"Philadelphia-Camden-Wilmington, PA-NJ-DE-MD",No,Pb,Undetermined/Insufficient Data,,
42-101-0028,421010028,39.978611,-75.118056,LAT/LONG IS OF SAMPLING INLET,Northeast,0,RQMAX,0.45,0.4,0.25,0.31,0.46,0.44,0.3,0.47,0.15,,,,,,,,,,,,,,,,,,,0,9,3,Pennsylvania,"Philadelphia-Camden-Wilmington, PA-NJ-DE-MD",No,Pb,Undetermined/Insufficient Data,,
42-101-0038,421010038,39.999722,-75.075,LAT/LONG IS OF SAMPLING INLET,Northeast,0,RQMAX,0.2,0.25,0.26,0.3,0.46,0.28,0.41,0.53,0.05,,,,,,,,,,,,,,,,,,,0,9,3,Pennsylvania,"Philadelphia-Camden-Wilmington, PA-NJ-DE-MD",No,Pb,Undetermined/Insufficient Data,,
42-101-0049,421010049,39.99,-75.084444,LAT/LONG IS OF SAMPLING INLET,Northeast,0,RQMAX,0.43,0.35,0.79,0.56,0.58,0.73,1.12,1,0.05,,,,,,,,,,,,,,,,,,,0,9,3,Pennsylvania,"Philadelphia-Camden-Wilmington, PA-NJ-DE-MD",No,Pb,Undetermined/Insufficient Data,,
42-101-0136,421010136,39.927612916,-75.22240347,ON AMTRAK RIGHT OF WAY - NEAR AIRPORT HI SPEED LINE (ELECTRIFIED),Northeast,0,RQMAX,,,,,,,,0.03,0.02,,0.04,,,,,,,,0.01,,,,,,,,,0,4,3,Pennsylvania,"Philadelphia-Camden-Wilmington, PA-NJ-DE-MD",No,Pb,Undetermined/Insufficient Data,,
42-101-0149,421010149,39.968168618,-75.09267476,,Northeast,0,RQMAX,,,18.93,13.31,22.06,14.09,10.68,7.28,0.16,0.42,,,,,,,,,,,,,,,,,,0,8,3,Pennsylvania,"Philadelphia-Camden-Wilmington, PA-NJ-DE-MD",No,Pb,Undetermined/Insufficient Data,,
42-101-0449,421010449,39.9825,-75.083056,CASTOR AND DELAWARE AVENUES (ITO),Northeast,0,RQMAX,3.07,2.66,3.18,7.98,2.61,4.63,7.69,6.27,1.88,3.69,,,0.04,0.04,0.03,0.02,0.03,0.04,0.04,0.03,0.03,,,,,,,0,19,3,Pennsylvania,"Philadelphia-Camden-Wilmington, PA-NJ-DE-MD",No,Pb,Undetermined/Insufficient Data,,
42-101-0528,421010528,39.976389,-75.116944,LAT/LONG IS OF SAMPLING INLET,Northeast,0,RQMAX,0.28,0.27,0.21,0.18,0.3,0.21,0.38,0.23,0.11,,,,,,,,,,,,,,,,,,,0,9,3,Pennsylvania,"Philadelphia-Camden-Wilmington, PA-NJ-DE-MD",No,Pb,Undetermined/Insufficient Data,,
42-101-0549,421010549,39.985278,-75.079722,LAT/LONG IS OF SAMPLING INLET,Northeast,0,RQMAX,0.79,0.51,0.46,1.08,0.69,1.06,0.72,0.64,,,,,,,,,,,,,,,,,,,,0,8,3,Pennsylvania,"Philadelphia-Camden-Wilmington, PA-NJ-DE-MD",No,Pb,Undetermined/Insufficient Data,,
42-101-0649,421010649,39.985,-75.085,LAT/LONG IS OF SAMPLING INLET,Northeast,0,RQMAX,,,,,,,,6.97,0.39,0.4,,,,,,,,,,,,,,,,,,0,3,3,Pennsylvania,"Philadelphia-Camden-Wilmington, PA-NJ-DE-MD",No,Pb,Undetermined/Insufficient Data,,
42-101-0728,421010728,39.977778,-75.120556,LAT/LONG IS OF SAMPLING INLET,Northeast,0,RQMAX,0.3,0.17,0.16,0.21,0.27,0.21,,0.06,0.05,,,,,,,,,,,,,,,,,,,0,8,3,Pennsylvania,"Philadelphia-Camden-Wilmington, PA-NJ-DE-MD",No,Pb,Undetermined/Insufficient Data,,
42-101-1002,421011002,40.035984597,-75.00240543,BAXTER (BAX),Northeast,0,RQMAX,,,,,,,,,,,,,,,,,,,,,,0.02,0.05,0.04,,,,0,3,3,Pennsylvania,"Philadelphia-Camden-Wilmington, PA-NJ-DE-MD",No,Pb,Undetermined/Insufficient Data,,
42-129-0007,421290007,40.161777,-79.884666,A421290007LAT/LON POINT SAMPLER,Northeast,0,RQMAX,,,,,,,,0.05,0.04,0.04,0.04,0.04,0.03,0.04,0.04,0.04,0.04,0.04,0.05,0.04,,,,,,,,0,13,3,Pennsylvania,"Pittsburgh, PA",No,Pb,Undetermined/Insufficient Data,,
42-129-0512,421290512,40.161134438,-79.88031846,,Northeast,0,RQMAX,,0.09,0.05,0.05,0.05,,,,,,,,,,,,,,,,,,,,,,,0,4,3,Pennsylvania,"Pittsburgh, PA",No,Pb,Undetermined/Insufficient Data,,
42-133-0322,421330322,39.963333,-76.7225,A421330322LAT/LON POINT IS OF SAMPLING INLET,Northeast,0,RQMAX,,0.05,0.05,0.04,0.04,0.04,0.08,0.05,0.05,,,,,,,,,,,,,,,,,,,0,8,3,Pennsylvania,"York-Hanover, PA",No,Pb,Undetermined/Insufficient Data,,
44-007-0022,440070022,41.807776,-71.415105,Urban League BUILDING ROOFTOP,Northeast,0,RQMAX,,,,,,,,,,,,0.02,,,,,,,,,,,,,,,,0,1,3,Rhode Island,"Providence-Warwick, RI-MA",No,Pb,Undetermined/Insufficient Data,,
44-007-1010,440071010,41.841039,-71.36097,FRANCIS SCHOOL East Providence,Northeast,0,RQMAX,,,,,,,,,,,,0.02,,,,,,,,,,,,,,,,0,1,3,Rhode Island,"Providence-Warwick, RI-MA",No,Pb,Undetermined/Insufficient Data,,
45-003-1001,450031001,33.432534,-81.892333,BEECH ISLAND FIRE STATION,Southeast,0,RQMAX,,,0.01,0.02,0.01,0.01,0,0.01,0.02,0,,0,0,0,,,,,,,,,,,,,,0,11,6,South Carolina,"Augusta-Richmond County, GA-SC",No,Pb,Undetermined/Insufficient Data,,
45-007-0001,450070001,34.503778,-82.652939,D.S.S. BLDG.,Southeast,0,RQMAX,,,,0.01,0.01,0.01,0.01,,,,,,,,,,,,,,,,,,,,,0,4,6,South Carolina,"Greenville-Anderson-Mauldin, SC",No,Pb,Undetermined/Insufficient Data,,
45-013-0001,450130001,32.436537,-80.677023,BEAUFORT COUNTY HEALTH DEPARTMENT,Southeast,0,RQMAX,,,,,0.01,,0.01,,,,,,,,,,,,,,,,,,,,,0,2,6,South Carolina,"Hilton Head Island-Bluffton-Beaufort, SC",No,Pb,Undetermined/Insufficient Data,,
45-013-0007,450130007,32.434882001,-80.677853,BEAUFORT,Southeast,0,RQMAX,,,,,,,,,,,0,0.01,0,0,0,0,0,0,,,,,,,,,,0,8,6,South Carolina,"Hilton Head Island-Bluffton-Beaufort, SC",No,Pb,Undetermined/Insufficient Data,,
45-019-0001,450190001,32.783765,-79.952454,CHARLESTON COUNTY HEALTH DEPARTMENT,Southeast,0,RQMAX,,,0.03,,,,,,,,,,,,,,,,,,,,,,,,,0,1,6,South Carolina,"Charleston-North Charleston, SC",No,Pb,Undetermined/Insufficient Data,,
45-019-0003,450190003,32.882289001,-79.977538,JENKINS AVE. FIRE STATION,Southeast,0,RQMAX,,,0.01,0.01,0.01,0.01,0.01,0.01,0.03,0.01,0.02,0.01,0,0.01,0,0,0,0,,,,0.01,,,,,,0,17,6,South Carolina,"Charleston-North Charleston, SC",No,Pb,Undetermined/Insufficient Data,,
45-019-0019,450190019,32.826265,-79.938856,EXXON DOCK (TERMINAL),Southeast,0,RQMAX,,,0.02,,,,,,,,,,,,,,,,,,,,,,,,,0,1,6,South Carolina,"Charleston-North Charleston, SC",No,Pb,Undetermined/Insufficient Data,,
45-019-0037,450190037,32.733889,-79.966389,JAMES ISLAND FIRE STATION #2,Southeast,0,RQMAX,,,,0,0.01,0.01,0.01,0.01,,,,,,,,,,,,,,,,,,,,0,5,6,South Carolina,"Charleston-North Charleston, SC",No,Pb,Undetermined/Insufficient Data,,
45-019-0046,450190046,32.941023001,-79.657187,CAPE ROMAIN,Southeast,0,RQMAX,,,,0,0.01,,,,0.01,0,0,0,0,0,0,0,0,0,,,,,,,,,,0,12,6,South Carolina,"Charleston-North Charleston, SC",No,Pb,Undetermined/Insufficient Data,,
45-019-0047,450190047,32.844606,-79.948036,NAVAL BASE # 2,Southeast,0,RQMAX,,,,0.02,0.02,,0.02,0.01,0.01,0.02,0.01,0.01,0,0.01,,,,,,,,,,,,,,0,10,6,South Carolina,"Charleston-North Charleston, SC",No,Pb,Undetermined/Insufficient Data,,
45-025-0001,450250001,34.615367001,-80.198787,CHESTERFIELD,Southeast,0,RQMAX,,,,,,,,,,,,,,,,,,,0,,,,,,,,,0,1,6,South Carolina,,No,Pb,Undetermined/Insufficient Data,,
45-033-0001,450330001,34.420552,-79.37651,DILLON CITY-COUNTY OFFICE BLDG.,Southeast,0,RQMAX,,,,0.02,,0.02,,0.01,,0.01,,0,,,,,,,,,,,,,,,,0,5,6,South Carolina,"Dillon, SC",No,Pb,Undetermined/Insufficient Data,,
45-041-0001,450410001,34.197944,-79.798851,FLORENCE COUNTY HEALTH DEPT.,Southeast,0,RQMAX,,,,,0.01,,0.01,,0.01,0.01,0.01,0,0,0,,,,,,,,,,,,,,0,8,6,South Carolina,"Florence, SC",No,Pb,Undetermined/Insufficient Data,,
45-041-0002,450410002,34.167636001,-79.850404,H L SNEED MIDDLE SCHOOL,Southeast,0,RQMAX,,,,,,,,,,,,,,,0,0,0,0,,,,,,,,,,0,4,6,South Carolina,"Florence, SC",No,Pb,Undetermined/Insufficient Data,,
45-043-0001,450430001,33.377165,-79.289464,GEORGETOWN COUNTY HEALTH DEPT,Southeast,0,RQMAX,,,0.03,0.02,0.02,,,,,,,,,,,,,,,,,,,,,,,0,3,6,South Carolina,"Georgetown, SC",No,Pb,Undetermined/Insufficient Data,,
45-043-0002,450430002,33.370549,-79.29758,HOWARD Adult Center,Southeast,0,RQMAX,,,,,0.02,,0.01,,0.02,0.02,0.01,0.01,0.01,,,,,,,,,,,,,,,0,7,6,South Carolina,"Georgetown, SC",No,Pb,Undetermined/Insufficient Data,,
45-043-0006,450430006,33.362014,-79.294251,GEORGETOWN CMS,Southeast,0,RQMAX,,,0.03,0.03,0.03,,0.02,0.02,0.01,0.01,0.01,0.02,0.01,0.02,0.02,0.01,0,0.01,,,,,,,,,,0,15,6,South Carolina,"Georgetown, SC",No,Pb,Undetermined/Insufficient Data,,
45-043-0007,450430007,33.347903001,-79.298192,MARYVILLE,Southeast,0,RQMAX,,,,0.01,0.01,0.01,0,0.01,0.01,0,0,0,0.01,0,0,0,0,0,,,,,,,,,,0,15,6,South Carolina,"Georgetown, SC",No,Pb,Undetermined/Insufficient Data,,
45-043-0008,450430008,33.381265,-79.28477,GEORGETOWN COUNTY HOSPITAL,Southeast,0,RQMAX,,,,0.01,0.02,,,,,,,,,,,,,,,,,,,,,,,0,2,6,South Carolina,"Georgetown, SC",No,Pb,Undetermined/Insufficient Data,,
45-043-0009,450430009,33.37399428,-79.28569703,WINYAH,Southeast,0,RQMAX,,,,,,,0.02,0.02,0.01,0.01,0.02,0.01,0.01,0.01,0,0.01,0.01,,,,,,,,,,,0,11,6,South Carolina,"Georgetown, SC",No,Pb,Undetermined/Insufficient Data,,
45-043-0010,450430010,33.367807001,-79.298399,HOWARD Adult Center #2,Southeast,0,RQMAX,,,,,,,,,,,,,0.01,0.01,0.02,0,0,0.01,,,,,,,,,,0,6,6,South Carolina,"Georgetown, SC",No,Pb,Undetermined/Insufficient Data,,
45-045-0008,450450008,34.838814001,-82.402918,GREENVILLE HEALTH DEPT,Southeast,0,RQMAX,,,0.03,0.02,0.02,0.01,0.01,0.01,0.01,0.01,0.02,0.01,0.01,0.01,0.01,0.01,0,0,,,,,,,,,,0,16,6,South Carolina,"Greenville-Anderson-Mauldin, SC",No,Pb,Undetermined/Insufficient Data,,
45-045-0015,450450015,34.84389511,-82.4145845,Greenville ESC,Southeast,0,RQMAX,,,,,,,,,,,,,,,,,,,,,,0.01,,,,,,0,1,6,South Carolina,"Greenville-Anderson-Mauldin, SC",No,Pb,Undetermined/Insufficient Data,,
45-045-1002,450451002,34.87024254,-82.41930855,PARKER FIRE STATION,Southeast,0,RQMAX,,,0.02,0.02,0.02,0.03,0.02,0.01,0.02,,,,,,,,,,,,,,,,,,,0,7,6,South Carolina,"Greenville-Anderson-Mauldin, SC",No,Pb,Undetermined/Insufficient Data,,
45-045-2002,450452002,34.939786001,-82.22961,GREER,Southeast,0,RQMAX,,,0.01,0.03,0.02,0.01,0,0.01,0.01,0.01,0.01,0.01,0,0,0,0,0,0,,,,,,,,,,0,16,6,South Carolina,"Greenville-Anderson-Mauldin, SC",No,Pb,Undetermined/Insufficient Data,,
45-045-8001,450458001,34.937784,-82.262926,BENT CREEK,Southeast,0,RQMAX,,,0.14,0.21,0.22,0.13,0.05,0.02,,,,,,,,,,,,,,,,,,,,0,6,6,South Carolina,"Greenville-Anderson-Mauldin, SC",No,Pb,Undetermined/Insufficient Data,,
45-045-8002,450458002,34.939722,-82.258333,WESTGATE MOBILE HOME PARK,Southeast,0,RQMAX,,,,,,0.54,,,,,,,,,,,,,,,,,,,,,,0,1,6,South Carolina,"Greenville-Anderson-Mauldin, SC",No,Pb,Undetermined/Insufficient Data,,
45-047-0001,450470001,34.179381001,-82.152241,GREENWOOD DSS,Southeast,0,RQMAX,,,,0.05,,0.02,0.01,0.02,0.02,0.01,0.02,0.01,0.01,0.01,0.01,0.01,0.01,0.01,,,,,,,,,,0,14,6,South Carolina,"Greenwood, SC",No,Pb,Undetermined/Insufficient Data,,
45-047-0002,450470002,34.165204001,-82.160479,PREMIER,Southeast,0,RQMAX,,,,,,,,,,0.02,0.02,0.02,0.02,0.01,0.02,0.01,0.01,0.01,,,,,,,,,,0,9,6,South Carolina,"Greenwood, SC",No,Pb,Undetermined/Insufficient Data,,
45-049-0001,450490001,32.875572,-81.115305,HAMPTON I,Southeast,0,RQMAX,,,0.01,0.01,0.01,,0,0,0.02,0.01,0.01,0.01,0,,,,,,,,,,,,,,,0,10,6,South Carolina,,No,Pb,Undetermined/Insufficient Data,,
45-049-0002,450490002,32.881347,-81.108251,HAMPTON II,Southeast,0,RQMAX,,,0.02,0.02,0.01,,,,,,,,,,,,,,,,,,,,,,,0,3,6,South Carolina,,No,Pb,Undetermined/Insufficient Data,,
45-051-0002,450510002,33.702771001,-78.877478,MYRTLE BEACH,Southeast,0,RQMAX,,0.01,0.01,0.01,0.01,0.01,0,0.01,0.01,0.01,0.01,0.01,0,0,0,0,0,0,,,,,,,,,,0,17,6,South Carolina,"Myrtle Beach-Conway-North Myrtle Beach, SC-NC",No,Pb,Undetermined/Insufficient Data,,
45-055-0001,450550001,34.249346,-80.608953,KERSHAW COUNTY HEALTH DEPT.,Southeast,0,RQMAX,,,,0.01,,0.01,,0,,0,,0.01,,,,,,,,,,,,,,,,0,5,6,South Carolina,"Columbia, SC",No,Pb,Undetermined/Insufficient Data,,
45-059-0001,450590001,34.504293,-82.021004,LAURENS COUNTY OFFICE COMPLEX,Southeast,0,RQMAX,,,,,0.01,,0.01,,0.01,,0,,0,,,,,,,,,,,,,,,0,5,6,South Carolina,"Greenville-Anderson-Mauldin, SC",No,Pb,Undetermined/Insufficient Data,,
45-063-0002,450630002,34.070724,-81.173549,LAKE MURRAY TECHNOLOGY CENTER (IRMO),Southeast,0,RQMAX,,,,0.03,,,,,,,,,,,,,,,,,,,,,,,,0,1,6,South Carolina,"Columbia, SC",No,Pb,Undetermined/Insufficient Data,,
45-063-0004,450630004,33.798434,-81.102941,SPIRES,Southeast,0,RQMAX,,,,,0.31,0.04,0,0,,,,,,,,,,,,,,,,,,,,0,4,6,South Carolina,"Columbia, SC",No,Pb,Undetermined/Insufficient Data,,
45-063-0005,450630005,33.785602,-81.119776,SALTECH (FALLAW),Southeast,0,RQMAX,,,,,0.48,0.25,0.01,0.01,0.02,,0.02,0.01,0,0,,,,,,,,,,,,,,0,9,6,South Carolina,"Columbia, SC",No,Pb,Undetermined/Insufficient Data,,
45-063-0008,450630008,34.051017001,-81.15495,IRMO,Southeast,0,RQMAX,,,0.03,0.02,0.01,,,,,,,,,,,,,,,,,,,,,,,0,3,6,South Carolina,"Columbia, SC",No,Pb,Undetermined/Insufficient Data,,
45-063-1002,450631002,33.969004001,-81.065326,CAYCE FIRE STATION,Southeast,0,RQMAX,,,,0.02,0.02,,,,,,0.02,0.01,0.01,0.02,0.02,0.01,0.01,0.01,0.01,,,,,,,,,0,11,6,South Carolina,"Columbia, SC",No,Pb,Undetermined/Insufficient Data,,
45-079-0003,450790003,34.007389,-81.052438,COLUMBIA WATER Treatment Plant,Southeast,0,RQMAX,,,,,0.01,,,,,,,,,,,,,,,,,,,,,,,0,1,6,South Carolina,"Columbia, SC",No,Pb,Undetermined/Insufficient Data,,
45-079-0006,450790006,34.007398,-81.02329,"SC DEP'T. PROBATION, PAROLE, & PARDONS",Southeast,0,RQMAX,,,0.04,0.03,0.02,0.02,0.02,0.01,0.01,0.01,0.03,0.01,0.01,0.01,,,,,,,,,,,,,,0,12,6,South Carolina,"Columbia, SC",No,Pb,Undetermined/Insufficient Data,,
45-079-0014,450790014,33.984969,-81.019667,ENRIGHT (REX) ATHLETIC CENTER (USC),Southeast,0,RQMAX,,,,0.03,0.02,,,,,,0.01,0.01,0.01,,,,,,,,,,,,,,,0,5,6,South Carolina,"Columbia, SC",No,Pb,Undetermined/Insufficient Data,,
45-079-0019,450790019,33.991509001,-81.024141,BATES HOUSE,Southeast,0,RQMAX,,,,,,,,,,,,,0,0.01,,,,,,,,0.02,,,,,,0,3,6,South Carolina,"Columbia, SC",No,Pb,Undetermined/Insufficient Data,,
45-079-0021,450790021,33.814680001,-80.781135,CONGAREE BLUFF,Southeast,0,RQMAX,,,,,,,,,,,0,0,0,0,0,0,0,0,,,,,,,,,,0,8,6,South Carolina,"Columbia, SC",No,Pb,Undetermined/Insufficient Data,,
45-079-1003,450791003,34.024497001,-81.036248,DHEC,Southeast,0,RQMAX,,,0.03,0.02,0.02,0.01,0.01,0.01,0.01,,,,,,,,,,,,,,,,,,,0,7,6,South Carolina,"Columbia, SC",No,Pb,Undetermined/Insufficient Data,,
45-079-1006,450791006,33.817902,-80.826596,CONGAREE NATIONAL PARK,Southeast,0,RQMAX,,,,,0.01,,,,,,,,,,,,,,,,,,,,,,,0,1,6,South Carolina,"Columbia, SC",No,Pb,Undetermined/Insufficient Data,,
45-083-0001,450830001,34.947726001,-81.932555,SPARTANBURG CITY HALL,Southeast,0,RQMAX,,,,0.01,0.01,0.01,,,0.01,0.01,0.01,,0,0,0,0,0,0,,,,,,,,,,0,12,6,South Carolina,"Spartanburg, SC",No,Pb,Undetermined/Insufficient Data,,
45-083-0007,450830007,34.883731,-81.974068,CROMER,Southeast,0,RQMAX,,,0.01,0.01,0.01,,,,,,,,,,,,,,,,,,,,,,,0,3,6,South Carolina,"Spartanburg, SC",No,Pb,Undetermined/Insufficient Data,,
45-083-0008,450830008,34.879311,-81.965825,PECAN,Southeast,0,RQMAX,,,0.01,0.01,0.01,,,,,,,,,,,,,,,,,,,,,,,0,3,6,South Carolina,"Spartanburg, SC",No,Pb,Undetermined/Insufficient Data,,
45-085-0001,450850001,33.922369001,-80.337735,SUMTER FAMILY COURT,Southeast,0,RQMAX,,,,0.01,0.02,,0.01,,0.01,,0.01,,0,0.01,0.01,0,0,0,,,,,,,,,,0,11,6,South Carolina,"Sumter, SC",No,Pb,Undetermined/Insufficient Data,,
45-091-0005,450910005,34.963013001,-81.000894,ROCK HILL Water Treatment PLANT,Southeast,0,RQMAX,,,0.1,0.01,0.03,0.01,0.01,,0.02,0.02,0.04,0.01,0.01,0,0,0,0,0,,,,,,,,,,0,15,6,South Carolina,"Charlotte-Concord-Gastonia, NC-SC",No,Pb,Undetermined/Insufficient Data,,
47-037-0006,470370006,36.176723328,-86.79360991,,Central,0,RQMAX,0.1,0.11,0.1,0.09,0.08,0.08,0.07,0.07,,,,,,,,,,,,,,,,,,,,0,8,1,Tennessee,"Nashville-Davidson--Murfreesboro--Franklin, TN",No,Pb,Undetermined/Insufficient Data,,
47-037-0035,470370035,36.160278,-86.791667,,Central,0,RQMAX,0.13,,0.11,0.1,0.09,0.08,0.08,0.08,,,,,,,,,,,,,,,,,,,,0,7,1,Tennessee,"Nashville-Davidson--Murfreesboro--Franklin, TN",No,Pb,Undetermined/Insufficient Data,,
47-043-0008,470430008,36.047839219,-87.34278929,SITE LOCATED NEXT TO OLD COLUMBIA RD AND ADJACENT TO AN OPEN FIELD,Central,0,RQMAX,,,,,,0.02,0.01,,,,,,,,,,,,,,,,,,,,,0,2,1,Tennessee,"Nashville-Davidson--Murfreesboro--Franklin, TN",No,Pb,Undetermined/Insufficient Data,,
47-047-0101,470470101,35.043702058,-89.54646771,,Central,0,RQMAX,0.39,0.47,,,,,,,,,,,,,,,,,,,,,,,,,,0,2,1,Tennessee,"Memphis, TN-MS-AR",No,Pb,Undetermined/Insufficient Data,,
47-047-0102,470470102,35.049534944,-89.54813471,,Central,0,RQMAX,0.57,2.55,2.23,,,,,,,,,,,,,,,,,,,,,,,,,0,3,1,Tennessee,"Memphis, TN-MS-AR",No,Pb,Undetermined/Insufficient Data,,
47-047-0104,470470104,35.048423981,-89.55118981,,Central,0,RQMAX,,2.8,2.67,0.05,0.53,0.09,,,,,,,,,,,,,,,,,,,,,,0,5,1,Tennessee,"Memphis, TN-MS-AR",No,Pb,Undetermined/Insufficient Data,,
47-093-0027,470930027,35.983056001,-83.952253,Burnside,Central,0,RQMAX,,,,,,,,,,,,,,0.01,0.02,0.01,,0.03,0.07,0.02,0.02,0.04,0.03,0.03,,,,0,10,1,Tennessee,"Knoxville, TN",No,Pb,Undetermined/Insufficient Data,,
47-093-1017,470931017,35.978074001,-83.950666,Rule High School (relo),Central,0,RQMAX,,,,,,,,,,,,,,0.01,0.02,0.01,,0.02,0.03,0.03,0.03,0.04,0.03,0.02,,,,0,10,1,Tennessee,"Knoxville, TN",No,Pb,Undetermined/Insufficient Data,,
47-113-0005,471130005,35.725556,-88.798889,LOCATED 45 METERS SW OF OAKFIELD BAPTIST CHURCH,Central,0,RQMAX,,,,,,,0.02,0.01,,,,,,,,,,,,,,,,,,,,0,2,1,Tennessee,"Jackson, TN",No,Pb,Undetermined/Insufficient Data,,
47-119-0105,471190105,35.731179532,-86.9530589,,Central,0,RQMAX,,0.02,,,,,,,,,,,,,,,,,,,,,,,,,,0,1,1,Tennessee,"Nashville-Davidson--Murfreesboro--Franklin, TN",No,Pb,Undetermined/Insufficient Data,,
47-145-0104,471450104,35.87315247,-84.68964623,,Central,0,RQMAX,,,,0.08,0.07,0.05,0.04,,,,,,,,,,,,,,,,,,,,,0,4,1,Tennessee,"Knoxville, TN",No,Pb,Undetermined/Insufficient Data,,
47-145-1007,471451007,35.868889,-84.698056,,Central,0,RQMAX,,,,0.62,0.38,0.24,0.23,0.17,0.34,,,,,,,,,,,,,,,,,,,0,6,1,Tennessee,"Knoxville, TN",No,Pb,Undetermined/Insufficient Data,,
47-157-0014,471570014,35.085923835,-89.94953321,,Central,0,RQMAX,,,,,0.09,0.03,0.03,0.02,,,,,,,,,,,,,,,,,,,,0,4,1,Tennessee,"Memphis, TN-MS-AR",No,Pb,Undetermined/Insufficient Data,,
47-157-0038,471570038,35.184167,-89.930278,,Central,0,RQMAX,0.18,0.04,0.09,0.12,0.11,0.03,0.03,0.03,,,,,,,,,,,,,,,,,,,,0,8,1,Tennessee,"Memphis, TN-MS-AR",No,Pb,Undetermined/Insufficient Data,,
47-157-0043,471570043,35.087868937,-90.02536898,,Central,0,RQMAX,0.21,0.07,0.46,0.11,0.12,0.06,0.04,0.03,0.03,0.04,0.03,,,,,,,,,,,,,,,,,0,11,1,Tennessee,"Memphis, TN-MS-AR",No,Pb,Undetermined/Insufficient Data,,
47-157-0044,471570044,35.0875,-90.0725,,Central,0,RQMAX,4.59,1.99,2.3,2.37,2.81,1.67,3.09,1.5,2.14,0.75,0.72,0.06,0.01,0.01,0.01,,,,,,,,,,,,,0,15,1,Tennessee,"Memphis, TN-MS-AR",No,Pb,Undetermined/Insufficient Data,,
47-157-0045,471570045,35.086480328,-90.07175898,,Central,0,RQMAX,,1.32,1.84,1.79,1.78,1.22,1.49,1.51,1.63,,0.63,0.05,,,,,,,,,,,,,,,,0,10,1,Tennessee,"Memphis, TN-MS-AR",No,Pb,Undetermined/Insufficient Data,,
47-163-3001,471633001,36.525556,-82.273333,UPWIND MONITOR FROM DOMINANT WIND DIRECTION,Central,0,RQMAX,,,,,,0.19,0.14,0.27,0.28,0.18,0.22,0.17,0.23,0.19,0.17,0.2,0.16,0.26,0.17,0.09,0.08,,0.07,0.06,,,,0,18,1,Tennessee,"Kingsport-Bristol-Bristol, TN-VA",No,Pb,Undetermined/Insufficient Data,,
47-163-3002,471633002,36.524722,-82.268056,Blountville ozone monitoring site,Central,0,RQMAX,,,,,,0.12,0.09,0.18,0.18,0.07,0.11,0.07,0.06,0.07,0.1,0.1,0.09,0.08,0.06,0.06,0.04,,0.04,0.03,,,,0,18,1,Tennessee,"Kingsport-Bristol-Bristol, TN-VA",No,Pb,Undetermined/Insufficient Data,,
47-163-3003,471633003,36.528056,-82.268333,SECONDARY PREDOMINANT DOWNWIND MONITOR,Central,0,RQMAX,,,,,,0.11,0.12,0.2,0.29,0.08,0.09,0.07,0.05,0.07,0.13,0.12,0.18,0.11,0.08,0.06,0.04,,0.04,0.03,,,,0,18,1,Tennessee,"Kingsport-Bristol-Bristol, TN-VA",No,Pb,Undetermined/Insufficient Data,,
47-163-4002,471634002,36.524722,-82.268056,State of TN SLAMS Lead Monitor,Central,0,RQMAX,,,,,,0.03,0.03,0.08,0.11,0.05,0.08,0.04,0.07,0.07,0.11,0.15,0.14,0.08,0.08,0.04,,,,,,,,0,15,1,Tennessee,"Kingsport-Bristol-Bristol, TN-VA",No,Pb,Undetermined/Insufficient Data,,
47-187-0100,471870100,35.802320596,-86.66026324,,Central,0,RQMAX,1.24,1.09,1.49,1.49,1.82,3.44,0.77,0.97,1.24,1.02,1.5,0.93,0.74,0.89,,,,,,,,,,,,,,0,14,1,Tennessee,"Nashville-Davidson--Murfreesboro--Franklin, TN",No,Pb,Undetermined/Insufficient Data,,
47-187-0102,471870102,35.802320596,-86.66026324,,Central,0,RQMAX,2.1,1.57,1.01,1.08,1.5,2.62,1.24,0.94,0.71,0.82,1.1,1.34,1.39,0.71,0.25,,,,,,,,,,,,,0,15,1,Tennessee,"Nashville-Davidson--Murfreesboro--Franklin, TN",No,Pb,Undetermined/Insufficient Data,,
47-187-0104,471870104,35.801765607,-86.65859618,,Central,0,RQMAX,,0.52,0.98,0.91,1.13,1.11,0.59,0.57,0.89,0.42,1.2,1.08,,,,,,,,,,,,,,,,0,11,1,Tennessee,"Nashville-Davidson--Murfreesboro--Franklin, TN",No,Pb,Undetermined/Insufficient Data,,
47-187-1101,471871101,35.799542651,-86.66498538,,Central,0,RQMAX,2.25,2.32,1.48,1.54,1.33,2.85,0.81,0.81,0.95,,,0.77,0.13,0.09,0.3,,,,,,,,,,,,,0,13,1,Tennessee,"Nashville-Davidson--Murfreesboro--Franklin, TN",No,Pb,Undetermined/Insufficient Data,,
48-029-0034,480290034,29.415511348,-98.48501662,NW OF BOWIE & DURANGO STREETS INTERSECTION,South,0,RQMAX,0.08,0.03,0.04,0.04,0.03,0.03,0.02,,,,,,,,,,,,,,,,,,,,,0,7,5,Texas,"San Antonio-New Braunfels, TX",No,Pb,Undetermined/Insufficient Data,,
48-029-0050,480290050,29.530278,-98.478333,,South,0,RQMAX,,0.02,0.02,0.03,0.03,0.03,0.02,,,,,,,,,,,,,,,,,,,,,0,6,5,Texas,"San Antonio-New Braunfels, TX",No,Pb,Undetermined/Insufficient Data,,
48-029-1052,480291052,29.342,-98.472,San Antonio 99th Street,South,0,RQMAX,,,,,,,,,,,,,,,,,,,,,,,,0.02,,,,0,1,5,Texas,"San Antonio-New Braunfels, TX",No,Pb,Undetermined/Insufficient Data,,
48-085-0001,480850001,33.145,-96.822778,SE OF HICKORY STREET & 6TH STREET INTERSECTION,South,0,RQMAX,0.29,0.13,0.21,0.22,0.17,0.2,0.09,0.15,0.14,0.06,,,,,,,,,,,,,,,,,,0,10,5,Texas,"Dallas-Fort Worth-Arlington, TX",No,Pb,Undetermined/Insufficient Data,,
48-085-0002,480850002,33.139008061,-96.82777856,,South,0,RQMAX,1.68,1.99,,,,,,,,,,,,,,,,,,,,,,,,,,0,2,5,Texas,"Dallas-Fort Worth-Arlington, TX",No,Pb,Undetermined/Insufficient Data,,
48-085-0006,480850006,33.134444,-96.825,,South,0,RQMAX,,,0.23,0.41,0.35,0.25,0.2,,,,,,,,,,,,,,,,,,,,,0,5,5,Texas,"Dallas-Fort Worth-Arlington, TX",No,Pb,Undetermined/Insufficient Data,,
48-085-0008,480850008,33.147618887,-96.82916756,NEAR PROPERTY LINE OF GLOBE UNION BATTERY,South,0,RQMAX,,,,,0.3,0.29,0.26,,,,,,,,,,,,,,,,,,,,,0,3,5,Texas,"Dallas-Fort Worth-Arlington, TX",No,Pb,Undetermined/Insufficient Data,,
48-113-0018,481130018,32.744981,-96.781883,Morrell,South,0,RQMAX,0.16,0.19,0.06,0.1,0.05,0.07,0.18,0.09,0.06,0.06,0.02,0.05,0.02,0.02,0.1,0.06,0.04,,,,,,,,,,,0,17,5,Texas,"Dallas-Fort Worth-Arlington, TX",No,Pb,Undetermined/Insufficient Data,,
48-113-0029,481130029,32.865,-96.808611,N OF DOUGLAS & BERKSHIRE INTERSECTION,South,0,RQMAX,0.04,0.04,0.04,0.04,0.03,0.03,0.01,0.01,0,,,,,,,,,,,,,,,,,,,0,9,5,Texas,"Dallas-Fort Worth-Arlington, TX",No,Pb,Undetermined/Insufficient Data,,
48-113-0045,481130045,32.919722,-96.808056,SW OF BONNARD & WOZENCRAFT INTERSECTION,South,0,RQMAX,0.03,0.02,0.06,0.02,0.02,0.02,0.02,,,,,,,,,,,,,,,,,,,,,0,7,5,Texas,"Dallas-Fort Worth-Arlington, TX",No,Pb,Undetermined/Insufficient Data,,
48-113-0046,481130046,32.770278,-96.765833,S OF MEYERS & MARTIN LUTHER KING JR. INTERSECTION,South,0,RQMAX,0.06,0.07,0.05,0.05,0.05,0.04,0.02,0.03,0.02,0.03,,,,,,,,,,,,,,,,,,0,10,5,Texas,"Dallas-Fort Worth-Arlington, TX",No,Pb,Undetermined/Insufficient Data,,
48-113-0050,481130050,32.774262,-96.797686,Convention Center,South,0,RQMAX,0.09,0.07,0.04,0.04,0.04,0.06,0.03,0.02,0,,,,,,,,,,,,,,,,,,,0,9,5,Texas,"Dallas-Fort Worth-Arlington, TX",No,Pb,Undetermined/Insufficient Data,,
48-113-0057,481130057,32.778889,-96.873056,BOY'S  CLUB,South,0,RQMAX,0.46,0.11,0.22,0.11,0.1,0.23,0.12,0.06,0.1,0.06,0.13,1.75,0.04,0.06,0.05,0.06,0.04,,,,,,,,,,,0,17,5,Texas,"Dallas-Fort Worth-Arlington, TX",No,Pb,Undetermined/Insufficient Data,,
48-113-0060,481130060,32.736241602,-96.78194541,,South,0,RQMAX,0.32,,,,,,,,,,,,,,,,,,,,,,,,,,,0,1,5,Texas,"Dallas-Fort Worth-Arlington, TX",No,Pb,Undetermined/Insufficient Data,,
48-113-0061,481130061,32.785359,-96.876571,Earhart,South,0,RQMAX,,,0.06,0.04,0.04,0.07,0.04,0.02,0.03,0.03,0.02,0.1,0.01,,,,,,,,,,,,,,,0,11,5,Texas,"Dallas-Fort Worth-Arlington, TX",No,Pb,Undetermined/Insufficient Data,,
48-113-0064,481130064,32.737908539,-96.78000039,,South,0,RQMAX,0.22,0.18,0.05,0.06,0.05,,,,,,,,,,,,,,,,,,,,,,,0,5,5,Texas,"Dallas-Fort Worth-Arlington, TX",No,Pb,Undetermined/Insufficient Data,,
48-113-0065,481130065,32.737630558,-96.78250045,,South,0,RQMAX,0.58,0.17,0.06,0.09,0.06,,,,,,,,,,,,,,,,,,,,,,,0,5,5,Texas,"Dallas-Fort Worth-Arlington, TX",No,Pb,Undetermined/Insufficient Data,,
48-113-0066,481130066,32.739852487,-96.78305651,EAST OF GLOYD & NOLEN INTERSECTION,South,0,RQMAX,0.27,0.15,0.12,0.15,0.05,0.05,0.03,0.01,0.03,0.04,0.02,0.03,0.01,0.02,0.02,,,,,,,,,,,,,0,15,5,Texas,"Dallas-Fort Worth-Arlington, TX",No,Pb,Undetermined/Insufficient Data,,
48-113-0070,481130070,32.764722,-96.929444,,South,0,RQMAX,,,0.02,0.03,0.02,0.02,0.02,,,,,,,,,,,,,,,,,,,,,0,5,5,Texas,"Dallas-Fort Worth-Arlington, TX",No,Pb,Undetermined/Insufficient Data,,
48-113-0071,481130071,32.921667,-96.916111,,South,0,RQMAX,,,0.03,0.02,0.02,0.02,0.03,,,,,,,,,,,,,,,,,,,,,0,5,5,Texas,"Dallas-Fort Worth-Arlington, TX",No,Pb,Undetermined/Insufficient Data,,
48-113-0073,481130073,32.809850544,-96.87000305,,South,0,RQMAX,,,0.05,0.14,,,,,,,,,,,,,,,,,,,,,,,,0,2,5,Texas,"Dallas-Fort Worth-Arlington, TX",No,Pb,Undetermined/Insufficient Data,,
48-113-0074,481130074,32.906791336,-96.66638446,,South,0,RQMAX,,,0.1,,,,,,,,,,,,,,,,,,,,,,,,,0,1,5,Texas,"Dallas-Fort Worth-Arlington, TX",No,Pb,Undetermined/Insufficient Data,,
48-113-1047,481131047,32.773739303,-96.55304618,,South,0,RQMAX,,,0.03,,,,,,,,,,,,,,,,,,,,,,,,,0,1,5,Texas,"Dallas-Fort Worth-Arlington, TX",No,Pb,Undetermined/Insufficient Data,,
48-139-0012,481390012,32.462361628,-97.03750547,NEAR CHAPARRAL STEEL CO.,South,0,RQMAX,,,,0.35,,0.44,0.36,0.29,0.3,,,,,,,,,,,,,,,,,,,0,5,5,Texas,"Dallas-Fort Worth-Arlington, TX",No,Pb,Undetermined/Insufficient Data,,
48-141-0002,481410002,31.757654,-106.482922,Tillman,South,0,RQMAX,0.42,0.46,0.27,0.23,0.2,0.19,0.14,0.11,0.15,0.15,0.1,0.09,0.06,,,,0.04,0.05,0.02,0.04,0.04,0.03,0.03,,,,,0,20,5,Texas,"El Paso, TX",No,Pb,Undetermined/Insufficient Data,,
48-141-0010,481410010,31.899722,-106.4125,N OF ALCAN & WOODROW BEAN TRANS MOUNTAIN INTERSECTION,South,0,RQMAX,0.11,0.15,0.09,0.1,0.09,0.06,0.13,0.06,0.08,0.06,0.05,0.05,,,,,,,,,,,,,,,,0,12,5,Texas,"El Paso, TX",No,Pb,Undetermined/Insufficient Data,,
48-141-0027,481410027,31.763076,-106.486712,NORTH OF CAMPBELL & FRANKLIN INTERSECTION,South,0,RQMAX,0.26,0.28,0.24,0.17,0.19,0.14,0.14,0.12,0.13,,,,,,,,,,,,,,,,,,,0,9,5,Texas,"El Paso, TX",No,Pb,Undetermined/Insufficient Data,,
48-141-0033,481410033,31.776944,-106.501667,Kern,South,0,RQMAX,0.32,0.28,0.22,0.22,0.14,0.14,0.44,0.12,0.13,0.09,0.08,0.07,0.05,0.06,0.02,0.02,0.03,0.02,0.03,0.04,0.02,0.02,,,,,,0,22,5,Texas,"El Paso, TX",No,Pb,Undetermined/Insufficient Data,,
48-141-0058,481410058,31.893913,-106.425827,Skyline Park,South,0,RQMAX,,,,,,,,,,,,,0.04,,,,0.01,0.02,0.02,0.03,0.02,0.02,0.02,,,,,0,8,5,Texas,"El Paso, TX",No,Pb,Undetermined/Insufficient Data,,
48-167-1002,481671002,29.398611,-94.933333,WEST OF 15TH AVE. N & NORTH LOGAN INTERSECTION,South,0,RQMAX,0.03,,0.02,0.02,0.02,0.03,0.02,,,,,,,,,,,,,,,,,,,,,0,6,5,Texas,"Houston-The Woodlands-Sugar Land, TX",No,Pb,Undetermined/Insufficient Data,,
48-201-0045,482010045,29.834444,-95.493889,S OF MALIBU & BINGLE INTERSECTION,South,0,RQMAX,0.01,0.01,0.01,0,0.01,0,0,,,,,,,,,,,,,,,,,,,,,0,7,5,Texas,"Houston-The Woodlands-Sugar Land, TX",No,Pb,Undetermined/Insufficient Data,,
48-201-0048,482010048,29.856667,-95.382778,,South,0,RQMAX,0.01,0.02,0.01,0.01,0.02,,,,,,,,,,,,,,,,,,,,,,,0,5,5,Texas,"Houston-The Woodlands-Sugar Land, TX",No,Pb,Undetermined/Insufficient Data,,
48-201-0054,482010054,29.775833,-95.3075,,South,0,RQMAX,,0.03,0.03,0.02,0.01,0.02,0.02,,,,,,,,,,,,,,,,,,,,,0,6,5,Texas,"Houston-The Woodlands-Sugar Land, TX",No,Pb,Undetermined/Insufficient Data,,
48-201-1034,482011034,29.767997,-95.220582,Houston East,South,0,RQMAX,,0.03,0.03,,,,0.02,,,0.02,0.01,0.01,0.01,0.01,0.02,0.01,0.01,0.01,0.01,0.01,0.01,0.01,0.01,0.01,0,,,0,19,5,Texas,"Houston-The Woodlands-Sugar Land, TX",No,Pb,Undetermined/Insufficient Data,,
48-201-1035,482011035,29.733726,-95.257593,Clinton,South,0,RQMAX,,0.03,0.02,,,,,,,,,,,,,,,,,,,,,,,,,0,2,5,Texas,"Houston-The Woodlands-Sugar Land, TX",No,Pb,Undetermined/Insufficient Data,,
48-245-0009,482450009,30.036422,-94.071061,Beaumont Downtown,South,0,RQMAX,0.02,0.03,0.02,0.02,0.02,0.02,0.02,,,,,,,,,,,,,,,,,,,,,0,7,5,Texas,"Beaumont-Port Arthur, TX",No,Pb,Undetermined/Insufficient Data,,
48-245-1010,482451010,30.097156318,-94.09573525,,South,0,RQMAX,,,,0.03,0.04,0.02,0.02,,,,,,,,,,,,,,,,,,,,,0,4,5,Texas,"Beaumont-Port Arthur, TX",No,Pb,Undetermined/Insufficient Data,,
48-257-0003,482570003,32.724444,-96.276667,,South,0,RQMAX,,,,0.1,0.05,0.04,0.03,,,,,,,,,,,,,,,,,,,,,0,4,5,Texas,"Dallas-Fort Worth-Arlington, TX",No,Pb,Undetermined/Insufficient Data,,
48-439-0023,484390023,32.695278,-97.321944,,South,0,RQMAX,0.03,0.03,0.02,0.02,0.02,0.02,0.02,,,,,,,,,,,,,,,,,,,,,0,7,5,Texas,"Dallas-Fort Worth-Arlington, TX",No,Pb,Undetermined/Insufficient Data,,
48-439-1003,484391003,32.759722,-97.328056,NE OF N. PECAN ST. & E. WEATHERFORD ST. INTERSECTION,South,0,RQMAX,0.03,0.03,0.03,0.04,0.03,0.04,0.02,,,,,,,,,,,,,,,,,,,,,0,7,5,Texas,"Dallas-Fort Worth-Arlington, TX",No,Pb,Undetermined/Insufficient Data,,
49-035-0010,490350010,40.758333,-111.898056,UTM COORDINATES = NORTH END OF BLDG. ROOF (METAL TAG MARKER),Southwest,0,RQMAX,,,0.04,0.05,0.05,0.04,0.03,0.04,0.04,,,,,,,,,,,,,,,,,,,0,7,7,Utah,"Salt Lake City, UT",No,Pb,Undetermined/Insufficient Data,,
49-035-3001,490353001,40.755278,-111.885556,UTM COORDINATES = INLET PROBE LOCATION ON ROOF OF BUILDING,Southwest,0,RQMAX,,,0.05,0.05,0.04,,,,,,,,,,,,,,,,,,,,,,,0,3,7,Utah,"Salt Lake City, UT",No,Pb,Undetermined/Insufficient Data,,
49-035-3007,490353007,40.704444,-111.968611,UTM COORDINATES = PROBE LOCATION,Southwest,0,RQMAX,,,,,,,,,,,,,0.03,,,,,,,,,,,,,,,0,1,7,Utah,"Salt Lake City, UT",No,Pb,Undetermined/Insufficient Data,,
51-027-0006,510270006,37.247778001,-82.0180556,Vansant,Southeast,0,RQMAX,,,,,,,,,,,,,,,,,,,,,,0.01,0.01,0.01,,,,0,3,6,Virginia,,No,Pb,Undetermined/Insufficient Data,,
51-059-0018,510590018,38.742320001,-77.07743,,Southeast,0,RQMAX,,,0.02,0.01,0.02,0.01,0.01,0.01,0.01,,,,,,,,,,,,,,,,,,,0,7,6,Virginia,"Washington-Arlington-Alexandria, DC-VA-MD-WV",No,Pb,Undetermined/Insufficient Data,,
51-059-0029,510590029,38.69205967,-77.23859396,,Southeast,0,RQMAX,,,,0.02,0.03,0.03,0.03,0.02,0.03,,,,,,,,,,,,,,,,,,,0,6,6,Virginia,"Washington-Arlington-Alexandria, DC-VA-MD-WV",No,Pb,Undetermined/Insufficient Data,,
51-059-3002,510593002,38.783724469,-77.18220353,,Southeast,0,RQMAX,,,0.02,0.01,0.02,0.01,0.01,0.01,0.01,,,,,,,,,,,,,,,,,,,0,7,6,Virginia,"Washington-Arlington-Alexandria, DC-VA-MD-WV",No,Pb,Undetermined/Insufficient Data,,
51-059-6001,510596001,38.995942692,-77.31331667,,Southeast,0,RQMAX,,,0.02,,,,,,,,,,,,,,,,,,,,,,,,,0,1,6,Virginia,"Washington-Arlington-Alexandria, DC-VA-MD-WV",No,Pb,Undetermined/Insufficient Data,,
51-087-0014,510870014,37.556520001,-77.40027,MathScience Innovation Center,Southeast,0,RQMAX,,,,,,,,,,,,,,,,,,,,,,0,0.01,0,0,0,,0,5,6,Virginia,"Richmond, VA",No,Pb,Undetermined/Insufficient Data,,
51-510-0004,515100004,38.807613182,-77.1219235,,Southeast,0,RQMAX,,,0.02,,,,,,,,,,,,,,,,,,,,,,,,,0,1,6,Virginia,"Washington-Arlington-Alexandria, DC-VA-MD-WV",No,Pb,Undetermined/Insufficient Data,,
51-550-0010,515500010,36.800426124,-76.27216189,,Southeast,0,RQMAX,0.05,0.02,0.03,0.02,0.02,0.02,,,,,,,,,,,,,,,,,,,,,,0,6,6,Virginia,"Virginia Beach-Norfolk-Newport News, VA-NC",No,Pb,Undetermined/Insufficient Data,,
51-550-0012,515500012,36.804037102,-76.27216191,MONITORS ON GROUND IN FENCED COMPOUND AT O.F. SMITH STADIUM,Southeast,0,RQMAX,,,,,,,0.03,0.01,,,,,,,,,,,,,,,,,,,,0,2,6,Virginia,"Virginia Beach-Norfolk-Newport News, VA-NC",No,Pb,Undetermined/Insufficient Data,,
51-610-0004,516100004,38.893722591,-77.18914685,,Southeast,0,RQMAX,,,0.03,0.01,,,,,,,,,,,,,,,,,,,,,,,,0,2,6,Virginia,"Washington-Arlington-Alexandria, DC-VA-MD-WV",No,Pb,Undetermined/Insufficient Data,,
51-710-0019,517100019,36.853480815,-76.27827344,,Southeast,0,RQMAX,0.17,0.17,0.03,0.03,0.03,0.03,,,,,,,,,,,,,,,,,,,,,,0,6,6,Virginia,"Virginia Beach-Norfolk-Newport News, VA-NC",No,Pb,Undetermined/Insufficient Data,,
51-760-0020,517600020,37.510703312,-77.49804066,,Southeast,0,RQMAX,,,,,,,0.01,0.01,,,,,,,,,,,,,,,,,,,,0,2,6,Virginia,"Richmond, VA",No,Pb,Undetermined/Insufficient Data,,
51-770-0011,517700011,37.273994001,-79.999448,Cherry Hill,Southeast,0,RQMAX,,,,,,,,,,,,,,,,,,,,,0.11,0.05,0.05,0.11,,,,0,4,6,Virginia,"Roanoke, VA",No,Pb,Undetermined/Insufficient Data,,
53-011-0013,530110013,45.648333,-122.586944,VANCOUVER - 4TH PL BLVD E,Northwest,0,RQMAX,,,,,,,,,,,,0.01,,,,,,,,,,,,,,,,0,1,4,Washington,"Portland-Vancouver-Hillsboro, OR-WA",No,Pb,Undetermined/Insufficient Data,,
53-033-0010,530330010,47.5525,-122.064722,ISSAQUAH -  LAKE SAMMAMISH (Wiithin Lake Sammamish State Park),Northwest,0,RQMAX,,,,,,,,,,,,0,,,,,,,,,,,,,,,,0,1,4,Washington,"Seattle-Tacoma-Bellevue, WA",No,Pb,Undetermined/Insufficient Data,,
53-033-0011,530330011,47.669820353,-122.320127,,Northwest,0,RQMAX,0.07,0.05,0.05,0.03,0.03,,,,,,,,,,,,,,,,,,,,,,,0,5,4,Washington,"Seattle-Tacoma-Bellevue, WA",No,Pb,Undetermined/Insufficient Data,,
53-033-0020,530330020,47.468154499,-122.3006788,2501 S 150TH SEATAC N - BETWEEN 24TH AND 26TH AVENUES,Northwest,0,RQMAX,,,,,,,,,,,,0.01,,,,,,,,,,,,,,,,0,1,4,Washington,"Seattle-Tacoma-Bellevue, WA",No,Pb,Undetermined/Insufficient Data,,
53-033-0024,530330024,47.755,-122.2806,LAKE FOREST PARK TOWNE CENTER,Northwest,0,RQMAX,,,,,,,,,,,,0.01,,,,,,,,,,,,,,,,0,1,4,Washington,"Seattle-Tacoma-Bellevue, WA",No,Pb,Undetermined/Insufficient Data,,
53-033-0026,530330026,47.617877399,-122.1962343,LOCATED AT ECOLOGY'S NORTHWEST REGIONAL OFFICE,Northwest,0,RQMAX,,,,,,0.01,,,,,,,,,,,,,,,,,,,,,,0,1,4,Washington,"Seattle-Tacoma-Bellevue, WA",No,Pb,Undetermined/Insufficient Data,,
53-033-0029,530330029,47.3223,-122.22604,Auburn-23rd St,Northwest,0,RQMAX,,,,,,,,,,,,,,,,,,,,,,,0.06,,,,,0,1,4,Washington,"Seattle-Tacoma-Bellevue, WA",No,Pb,Undetermined/Insufficient Data,,
53-033-0038,530330038,47.688683287,-122.314584,,Northwest,0,RQMAX,,,,,,,,,,,,0,,,,,,,,,,,,,,,,0,1,4,Washington,"Seattle-Tacoma-Bellevue, WA",No,Pb,Undetermined/Insufficient Data,,
53-033-0065,530330065,47.580653606,-122.3523488,,Northwest,0,RQMAX,0.55,0.56,0.62,0.37,0.61,0.65,0.66,0.84,2.03,0.05,,,,,,,,,,,,,,,,,,0,10,4,Washington,"Seattle-Tacoma-Bellevue, WA",No,Pb,Undetermined/Insufficient Data,,
53-053-0023,530530023,47.299820556,-122.5106815,,Northwest,0,RQMAX,0.03,0.02,,,,,,,,,,,,,,,,,,,,,,,,,,0,2,4,Washington,"Seattle-Tacoma-Bellevue, WA",No,Pb,Undetermined/Insufficient Data,,
53-061-0013,530610013,47.90208,-122.10039,Snohomish-Airport Way (Harvey Field),Northwest,0,RQMAX,,,,,,,,,,,,,,,,,,,,,,,0.02,,,,,0,1,4,Washington,"Seattle-Tacoma-Bellevue, WA",No,Pb,Undetermined/Insufficient Data,,
54-003-0002,540030002,39.465654629,-77.95805314,,Central,0,RQMAX,0.02,0.02,0.02,0.01,0.01,0.02,0.01,0.01,,,,,,,,,,,,,,,,,,,,0,8,1,West Virginia,"Hagerstown-Martinsburg, MD-WV",No,Pb,Undetermined/Insufficient Data,,
54-011-0003,540110003,38.419804907,-82.44737634,,Central,0,RQMAX,,,0.03,,0.03,0.04,0.04,0.02,,,,,,,,,,,,,,,,,,,,0,5,1,West Virginia,"Huntington-Ashland, WV-KY-OH",No,Pb,Undetermined/Insufficient Data,,
54-029-0007,540290007,40.460138433,-80.57656719,,Central,0,RQMAX,0.08,0.11,0.18,0.08,0.09,0.05,0.05,0.03,,,,,,,,,,,,,,,,,,,,0,8,1,West Virginia,"Weirton-Steubenville, WV-OH",No,Pb,Undetermined/Insufficient Data,,
54-029-0008,540290008,40.61571972,-80.56000015,,Central,0,RQMAX,,,,,0.04,0.04,0.03,0.03,,,,,,,,,,,,,,,,,,,,0,4,1,West Virginia,"Weirton-Steubenville, WV-OH",No,Pb,Undetermined/Insufficient Data,,
54-029-0015,540290015,40.618352655,-80.54061551,STD AM SHELTER LOCATED ON WEST SIDE OF CMNTY PARK NEAR TYRONE RD,Central,0,RQMAX,,,,,,0.03,0.04,0.04,,,,,,,,,,,,,,,,,,,,0,3,1,West Virginia,"Weirton-Steubenville, WV-OH",No,Pb,Undetermined/Insufficient Data,,
54-029-1002,540291002,40.400623992,-80.58840556,,Central,0,RQMAX,0.08,0.08,0.16,0.05,0.08,0.06,0.04,0.03,,,,,,,,,,,,,,,,,,,,0,8,1,West Virginia,"Weirton-Steubenville, WV-OH",No,Pb,Undetermined/Insufficient Data,,
54-033-1001,540331001,39.249812471,-80.31620054,,Central,0,RQMAX,0.01,0.01,0.03,0.01,0.01,0.01,0.01,0.01,,,,,,,,,,,,,,,,,,,,0,8,1,West Virginia,"Clarksburg, WV",No,Pb,Undetermined/Insufficient Data,,
54-039-0004,540390004,38.343986649,-81.61928926,,Central,0,RQMAX,0.03,0.04,0.03,0.02,0.05,0.01,0.01,,,,,,,,,,,,,,,,,,,,,0,7,1,West Virginia,"Charleston, WV",No,Pb,Undetermined/Insufficient Data,,
54-039-1005,540391005,38.366183001,-81.693717,,Central,0,RQMAX,,0.02,0.03,0.02,0.02,0.02,0.02,0.01,,,,,,,,,,,,,,,,,,,,0,7,1,West Virginia,"Charleston, WV",No,Pb,Undetermined/Insufficient Data,,
54-039-2002,540392002,38.417036359,-81.8462421,,Central,0,RQMAX,0.02,0.02,0.02,0.01,0.02,0.02,0.02,0.01,,,,,,,,,,,,,,,,,,,,0,8,1,West Virginia,"Charleston, WV",No,Pb,Undetermined/Insufficient Data,,
54-049-0003,540490003,39.501473237,-80.13702156,,Central,0,RQMAX,0.02,0.02,0.03,0.02,0.02,0.03,0.03,0.02,,,,,,,,,,,,,,,,,,,,0,8,1,West Virginia,"Fairmont, WV",No,Pb,Undetermined/Insufficient Data,,
54-061-0001,540610001,39.623970742,-79.95561889,,Central,0,RQMAX,0.05,0.05,0.02,0.02,0.02,0.02,0.01,0.02,,,,,,,,,,,,,,,,,,,,0,8,1,West Virginia,"Morgantown, WV",No,Pb,Undetermined/Insufficient Data,,
54-069-0008,540690008,40.063902679,-80.72030781,,Central,0,RQMAX,0.06,0.05,,,,,,,,,,,,,,,,,,,,,,,,,,0,2,1,West Virginia,"Wheeling, WV-OH",No,Pb,Undetermined/Insufficient Data,,
54-099-0001,540990001,38.371749456,-82.58488064,,Central,0,RQMAX,,0.03,0.03,0.02,,,,,,,,,,,,,,,,,,,,,,,,0,3,1,West Virginia,"Huntington-Ashland, WV-KY-OH",No,Pb,Undetermined/Insufficient Data,,
54-107-0003,541070003,39.250353148,-81.54679016,,Central,0,RQMAX,0.02,0.02,0.03,0.02,0.01,0.02,0.03,0.01,,,,,,,,,,,,,,,,,,,,0,8,1,West Virginia,"Parkersburg-Vienna, WV",No,Pb,Undetermined/Insufficient Data,,
55-009-0021,550090021,44.513048316,-88.01843683,LOCATED AT 8' BY 16' MOBILE SHELTER AT WEST END OF PARKING LOT,Upper Midwest,0,RQMAX,,,,0.6,0.59,0.58,0.53,,,,,,,,,,,,,,,,,,,,,0,4,2,Wisconsin,"Green Bay, WI",No,Pb,Undetermined/Insufficient Data,,
55-009-0023,550090023,44.534714629,-87.99149262,PORTABLE SHELTER BETWEEN SAUK AND OTTAWA AVES ALONG BAY BEACH RD,Upper Midwest,0,RQMAX,,,0.62,,,,,,,,,,,,,,,,,,,,,,,,,0,1,2,Wisconsin,"Green Bay, WI",No,Pb,Undetermined/Insufficient Data,,
55-025-0025,550250025,43.081939962,-89.3767856,DAYTON RESERVOIR SITE,Upper Midwest,0,RQMAX,,,,,,,,,,,,0.01,0.01,,,,,,,,,,,,,,,0,2,2,Wisconsin,"Madison, WI",No,Pb,Undetermined/Insufficient Data,,
55-025-0041,550250041,43.100837945,-89.35729822,MADISON EAST,Upper Midwest,0,RQMAX,,,,,,,,,,,,,,0.01,,,,,,,,,,,,,,0,1,2,Wisconsin,"Madison, WI",No,Pb,Undetermined/Insufficient Data,,
55-027-0007,550270007,43.434996361,-88.52787891,MAYVILLE,Upper Midwest,0,RQMAX,,,,,,,,,,,,,,,0.01,,,,,,,,,,,,,0,1,2,Wisconsin,"Beaver Dam, WI",No,Pb,Undetermined/Insufficient Data,,
55-071-0011,550710011,44.0876,-87.6589,MANITOWOC METALS,Upper Midwest,0,RQMAX,,,,,,,,,,,,,0.01,,,,,,,,,,,,,,,0,1,2,Wisconsin,"Manitowoc, WI",No,Pb,Undetermined/Insufficient Data,,
55-079-0099,550790099,43.039871,-87.920794,MILWAUKEE - FIRE DEPT. HQ,Upper Midwest,0,RQMAX,,0.06,0.04,0.04,0.03,0.05,0.03,0.03,,,,,,,,,,,,,,,,,,,,0,7,2,Wisconsin,"Milwaukee-Waukesha-West Allis, WI",No,Pb,Undetermined/Insufficient Data,,
55-079-0127,550790127,43.035013685,-87.92230707,,Upper Midwest,0,RQMAX,0.07,0.06,0.06,0.05,0.04,,,,,,,,,,,,,,,,,,,,,,,0,5,2,Wisconsin,"Milwaukee-Waukesha-West Allis, WI",No,Pb,Undetermined/Insufficient Data,,
72-013-0001,720130001,18.457039071,-66.69669257,,None,0,RQMAX,,,,,,,,,,,,,,,,,,,,,0.25,0.34,0.2,0.13,0.12,0.01,,0,6,0,Puerto Rico,"Arecibo, PR",No,Pb,Undetermined/Insufficient Data,,
72-021-0010,720210010,18.420089117,-66.1506155,,None,0,RQMAX,,,,,,,,,,,,,,,,,,,,,,,0,0.01,0.01,,,0,3,0,Puerto Rico,"San Juan-Carolina-Caguas, PR",No,Pb,Undetermined/Insufficient Data,,
72-061-0001,720610001,18.425651916,-66.11584553,,None,0,RQMAX,0.01,,,,,,,,,,,,,,,,,,,,,,,,,,,0,1,0,Puerto Rico,"San Juan-Carolina-Caguas, PR",No,Pb,Undetermined/Insufficient Data,,
72-123-0002,721230002,17.953005792,-66.26146111,,None,0,RQMAX,,,,,,,,,,,,,,,,,,,,,,,0.02,0.01,0.01,,,0,3,0,Puerto Rico,"Coco, PR",No,Pb,Undetermined/Insufficient Data,,
72-127-0003,721270003,18.449814499,-66.05250955,San Juan,None,0,RQMAX,0.03,0.03,0.05,0.03,,,,0,0.02,0.02,0.02,,0.01,0.01,0,0.01,0,0.02,0.05,,,,,,,,,0,15,0,Puerto Rico,"San Juan-Carolina-Caguas, PR",No,Pb,Undetermined/Insufficient Data,,
72-127-0004,721270004,18.401892376,-66.05238824,,None,0,RQMAX,0.03,0.01,,,,,,,,,,,,,,,,,,,,,,,,,,0,2,0,Puerto Rico,"San Juan-Carolina-Caguas, PR",No,Pb,Undetermined/Insufficient Data,,
72-127-0007,721270007,18.421335465,-66.05933224,,None,0,RQMAX,0.02,0,,,,,,,,,,,,,,,,,,,,,,,,,,0,2,0,Puerto Rico,"San Juan-Carolina-Caguas, PR",No,Pb,Undetermined/Insufficient Data,,
13-089-0003,130890003,33.698610844,-84.27260763,DMRC,Southeast,0,RQMAX,,,,,,,,,,,,,,,,,,,,,0,0,0,0,0,0,0,0,7,6,Georgia,"Atlanta-Sandy Springs-Roswell, GA",No,Pb,Undetermined/Insufficient Data,,
15-003-0010,150030010,21.32374479,-158.0886127,Kapolei,None,0,RQMAX,,,,,,,,,,,,,,,,,,,,,,,0,0,0,0,0,0,5,0,Hawaii,"Urban Honolulu, HI",No,Pb,Undetermined/Insufficient Data,,
26-081-0020,260810020,42.984173043,-85.67133874,GR-Monroe,Upper Midwest,0,RQMAX,,,,,,,,,,,,,,,,0.01,0.01,,,,0.01,0.01,0.01,0.01,0.01,0.01,0,0,9,2,Michigan,"Grand Rapids-Wyoming, MI",No,Pb,Undetermined/Insufficient Data,,
27-037-0470,270370470,44.738460001,-93.23725,Apple Valley,Upper Midwest,0,RQMAX,,,,,,,,,,,,,,,,,,,,,,,0,0,0,0,0,0,5,2,Minnesota,"Minneapolis-St. Paul-Bloomington, MN-WI",No,Pb,Undetermined/Insufficient Data,,
27-053-0962,270530962,44.965242001,-93.254759,Near Road I-35/I-94,Upper Midwest,0,RQMAX,,,,,,,,,,,,,,,,,,,,,,,,,0.01,0,0,0,3,2,Minnesota,"Minneapolis-St. Paul-Bloomington, MN-WI",No,Pb,Undetermined/Insufficient Data,,
27-053-0963,270530963,44.953660001,-93.25821,HC Anderson School,Upper Midwest,0,RQMAX,,,,,,,,,,,,,,0.01,0.01,0.01,0.01,0.01,0.01,,,,0,0,0,0,0,0,11,2,Minnesota,"Minneapolis-St. Paul-Bloomington, MN-WI",No,Pb,Undetermined/Insufficient Data,,
27-053-0966,270530966,44.979440001,-93.26613,City of Lakes Building,Upper Midwest,0,RQMAX,,,,,,,,,,,,,,0.01,0.01,0.01,0.01,0.01,0.01,,,,0,0.01,0,0,0,0,11,2,Minnesota,"Minneapolis-St. Paul-Bloomington, MN-WI",No,Pb,Undetermined/Insufficient Data,,
27-053-1007,270531007,45.039720001,-93.29874,Humboldt Ave,Upper Midwest,0,RQMAX,,,,,,,,,,,,,,0.01,0.01,0,0.01,0.01,0.01,,,,0,0,0,0,0,0,11,2,Minnesota,"Minneapolis-St. Paul-Bloomington, MN-WI",No,Pb,Undetermined/Insufficient Data,,
27-137-7001,271377001,47.523355001,-92.536305,City Hall,Upper Midwest,0,RQMAX,,,,,,,,,,,,,0,0.03,0,0.01,0,0,0,,,,0.01,0,0,0,0,0,12,2,Minnesota,"Duluth, MN-WI",No,Pb,Undetermined/Insufficient Data,,
27-137-7549,271377549,46.771070001,-92.11732,Michigan St.,Upper Midwest,0,RQMAX,,,,,,,,,,,,,,,,,,,,,,,,,,,0,0,1,2,Minnesota,"Duluth, MN-WI",No,Pb,Undetermined/Insufficient Data,,
27-137-7555,271377555,46.729380001,-92.15998,Waseca Rd.,Upper Midwest,0,RQMAX,,,,,,,,,,,,,0,0,0,0,0,0,0,,,,0,0,0,0,0,0,12,2,Minnesota,"Duluth, MN-WI",No,Pb,Undetermined/Insufficient Data,,
27-163-0438,271630438,44.857110001,-93.00352,MPC 438,Upper Midwest,0,RQMAX,,,,,,,,,,,,,,,,,,,,,,,0,0,0.01,0,0,0,5,2,Minnesota,"Minneapolis-St. Paul-Bloomington, MN-WI",No,Pb,Undetermined/Insufficient Data,,
27-163-0446,271630446,45.027980001,-92.77415,Point Rd.,Upper Midwest,0,RQMAX,,,,,,,,,,,,,,,,,,,0,,,,0,0,0,0,0,0,6,2,Minnesota,"Minneapolis-St. Paul-Bloomington, MN-WI",No,Pb,Undetermined/Insufficient Data,,
31-055-0019,310550019,41.247486001,-95.973142,4102 Woolworth Ave. on Healthcenter Warehouse,Northern Rockies,0,RQMAX,0.03,0.03,0.03,0.02,,,,,,,,,,,,,,,,,,,0.01,0.01,0.01,0,0,0,9,9,Nebraska,"Omaha-Council Bluffs, NE-IA",No,Pb,Undetermined/Insufficient Data,,
32-003-0540,320030540,36.141895,-115.078725,Jerome Mack-NCore,West,0,RQMAX,,,,,,,,,,,,,,,,,,,,,,,,0.01,0.01,0.01,0,0,4,8,Nevada,"Las Vegas-Henderson-Paradise, NV",No,Pb,Undetermined/Insufficient Data,,
35-001-0023,350010023,35.134300001,-106.5852,DEL NORTE HIGH SCHOOL,Southwest,0,RQMAX,,,,,,,,,,,,,,,,,,,,,,,0.01,0.01,0,0,0,0,5,7,New Mexico,"Albuquerque, NM",No,Pb,Undetermined/Insufficient Data,,
39-091-0006,390910006,40.341467001,-83.7585,BELLEFONTAINE,Central,0,RQMAX,0.69,0.51,0.24,,,,,,,,,,,,,,,,,,0.01,0,0,0,0,0,0,0,10,1,Ohio,"Bellefontaine, OH",No,Pb,Undetermined/Insufficient Data,,
39-113-7001,391137001,39.714510001,-84.21804,MORAIINE FS,Central,0,RQMAX,,,,,,,,,,,,,,,,,,,,,,,0.01,0.01,0.01,0.01,0,0,5,1,Ohio,"Dayton, OH",No,Pb,Undetermined/Insufficient Data,,
39-167-0008,391670008,39.431470001,-81.50131,WASHINGTON COUNTY CAREER CENTER,Central,0,RQMAX,,,,,,,,,,,,,,,,,,,,,0.01,0.01,0.01,0.01,0,0,0,0,7,1,Ohio,"Marietta, OH",No,Pb,Undetermined/Insufficient Data,,
40-143-1127,401431127,36.204902001,-95.976537,NORTH TULSA - FIRE STATION#24,South,0,RQMAX,,,,,,,,,,,,,,,,,,,,,,,0.01,0.01,0,0,0,0,5,5,Oklahoma,"Tulsa, OK",No,Pb,Undetermined/Insufficient Data,,
45-079-0007,450790007,34.093959,-80.962304,PARKLANE,Southeast,0,RQMAX,,,0.01,0.02,0.01,0.01,0,0,0.01,0.01,0.06,0.02,0,0,0,0,0,0,,,,0.01,0,0,0,0,0,0,22,6,South Carolina,"Columbia, SC",No,Pb,Undetermined/Insufficient Data,,
47-157-0075,471570075,35.151699,-89.850249,Memphis NCORE site,Central,0,RQMAX,,,,,,,,,,,,,,,,,,,,,,,0,0,0,0,0,0,5,1,Tennessee,"Memphis, TN-MS-AR",No,Pb,Undetermined/Insufficient Data,,
47-163-3004,471633004,36.524433001,-82.27261,,Central,0,RQMAX,,,,,,,,,,,,,,,,,,,,,0.05,0.08,0.07,0.05,0,0.01,0,0,7,1,Tennessee,"Kingsport-Bristol-Bristol, TN-VA",No,Pb,Undetermined/Insufficient Data,,
48-061-0006,480610006,25.892518,-97.49383,Brownsville,South,0,RQMAX,,,,,,,0.02,0.01,0.01,0.01,0.01,0.01,0.01,0.01,0.01,0,0.01,0.01,0.01,0.01,0,0.01,0.01,0,0.01,0,0,0,21,5,Texas,"Brownsville-Harlingen, TX",No,Pb,Undetermined/Insufficient Data,,
48-141-1021,481411021,31.86247,-106.5473,Ojo De Agua,South,0,RQMAX,,,,,,,,,,,,,,,,,,,,,,,,0.02,,0,0,0,3,5,Texas,"El Paso, TX",No,Pb,Undetermined/Insufficient Data,,
48-201-1039,482011039,29.670025,-95.128508,Houston Deer Park #2,South,0,RQMAX,,,,,,,,,,,,,,,,,,,,,,,0,0,0,0,0,0,5,5,Texas,"Houston-The Woodlands-Sugar Land, TX",No,Pb,Undetermined/Insufficient Data,,
48-375-0024,483750024,35.280273,-101.71564,Amarillo SH 136,South,0,RQMAX,,,,,,,,,,,,,,,,,,,,,,0.01,0.02,0,0,0,0,0,6,5,Texas,"Amarillo, TX",No,Pb,Undetermined/Insufficient Data,,
06-019-0011,060190011,36.78532176,-119.7741739,Fresno - Garland,West,0,RQMAX,,,,,,,,,,,,,,,,,,,,,,,0.01,0.01,0.01,0.01,0.01,0,5,8,California,"Fresno, CA",No,Pb,Undetermined/Insufficient Data,,
06-037-1103,060371103,34.066590001,-118.22688,Los Angeles-North Main Street,West,0,RQMAX,0.09,0.14,0.12,0.07,0.07,0.07,0.06,0.07,0.05,0.07,0.05,0.05,0.04,0.06,0.06,0.02,0.01,,0.02,0.02,0.01,0.01,0.01,0.01,0.01,0.01,0.01,1,26,8,California,"Los Angeles-Long Beach-Anaheim, CA",Yes,Pb,Decreasing,-0.003529412,1.269302E-10
06-037-1302,060371302,33.901389001,-118.205,Compton,West,0,RQMAX,,,,,,,,,,,,,,,,,,,,0.02,0.02,0.01,0.01,0.01,0.01,0.01,0.01,0,8,8,California,"Los Angeles-Long Beach-Anaheim, CA",No,Pb,Undetermined/Insufficient Data,,
06-037-1602,060371602,34.011940001,-118.06995,Pico Rivera #2,West,0,RQMAX,,,,,,,,,,,,,,,,,0.02,0.03,0.02,0.02,0.01,0.01,0.01,0.01,0.01,0.01,0.01,0,11,8,California,"Los Angeles-Long Beach-Anaheim, CA",No,Pb,Undetermined/Insufficient Data,,
06-037-4004,060374004,33.79236,-118.17533,Long Beach (South),West,0,RQMAX,,,,,,,,,,,,,,,0.07,0.01,0.01,0.02,0.01,0.01,0.01,0.01,0.01,0.01,0.01,0.01,0.01,0,13,8,California,"Los Angeles-Long Beach-Anaheim, CA",No,Pb,Undetermined/Insufficient Data,,
06-037-5005,060375005,33.9508,-118.43043,LAX Hastings,West,0,RQMAX,,,,,,,,,,,,,,,0.01,0.01,0.01,0.01,0.01,,0.01,0.01,0,0,0.01,0.01,0.01,0,12,8,California,"Los Angeles-Long Beach-Anaheim, CA",No,Pb,Undetermined/Insufficient Data,,
06-065-8001,060658001,33.999580001,-117.41601,Rubidoux,West,0,RQMAX,0.05,0.05,0.03,0.04,0.04,0.04,0.05,0.04,0.05,0.05,0.05,0.05,0.02,0.02,0.02,0.02,0.02,,0.01,0.01,0.01,0.01,0.01,0.01,0.01,0.01,0.01,1,26,8,California,"Riverside-San Bernardino-Ontario, CA",Yes,Pb,Decreasing,-0.001666667,3.8030962E-7
06-071-1004,060711004,34.10374,-117.62914,Upland,West,0,RQMAX,,0.07,0.05,0.04,0.04,0.04,0.04,0.04,0.04,0.05,0.05,0.04,0.02,0.04,0.03,0.02,0.01,0.02,0.01,0.01,0.01,0.01,0.01,0.01,0.01,0.01,0.01,1,26,8,California,"Riverside-San Bernardino-Ontario, CA",Yes,Pb,Decreasing,-0.002,1.7849425E-8
06-071-9004,060719004,34.10688,-117.27411,San Bernardino,West,0,RQMAX,0.06,0.05,0.04,0.04,0.04,0.04,0.05,0.03,0.04,0.05,0.05,0.05,0.03,0.08,0.08,0.01,0.02,0.02,0.02,0.01,0.01,0.01,0.01,0.01,0.01,0.01,0.01,1,27,8,California,"Riverside-San Bernardino-Ontario, CA",Yes,Pb,Decreasing,-0.001666667,0.0000297232
06-073-1018,060731018,32.817978,-116.968133,El Cajon - Floyd Smith Dr.,West,0,RQMAX,,,,,,,,,,,,,,,,,,,,,,,,,,0.01,0.01,0,2,8,California,"San Diego-Carlsbad, CA",No,Pb,Undetermined/Insufficient Data,,
06-073-1023,060731023,33.130822,-117.272686,Palomar Airport,West,0,RQMAX,,,,,,,,,,,,,,,,,,,,,,,,,,0.02,0.01,0,2,8,California,"San Diego-Carlsbad, CA",No,Pb,Undetermined/Insufficient Data,,
11-001-0043,110010043,38.921847001,-77.013178,MCMILLAN  NCore-PAMS,Northeast,0,RQMAX,,,,,,,,,,,,,,,,,,,,,,,0,0,0,0,0.01,0,5,3,District of Columbia,"Washington-Arlington-Alexandria, DC-VA-MD-WV",No,Pb,Undetermined/Insufficient Data,,
12-057-0100,120570100,27.970328001,-82.38005,KENLY,Southeast,0,RQMAX,,,,,,,,,,,,,,,,,,,,,0.04,0.04,0.04,0.01,0.01,0.01,0.01,0,7,6,Florida,"Tampa-St. Petersburg-Clearwater, FL",No,Pb,Undetermined/Insufficient Data,,
17-031-0110,170310110,41.855770378,-87.65792758,PEREZ ELEMENTRY SCHOOL,Central,0,RQMAX,,,,,,,,,,,,,,,,,,,,,0.24,0.29,0.05,0.04,0.03,0.03,0.01,0,7,1,Illinois,"Chicago-Naperville-Elgin, IL-IN-WI",No,Pb,Undetermined/Insufficient Data,,
18-089-0033,180890033,41.649211001,-87.447464,Abraham Linc. Elem. School,Central,0,RQMAX,,,,,,,,,,,,,,,,,,,,,0.13,0.14,0.13,0.1,0.15,0.42,0.01,0,7,1,Indiana,"Chicago-Naperville-Elgin, IL-IN-WI",No,Pb,Undetermined/Insufficient Data,,
18-089-0034,180890034,41.653479574,-87.43558403,East Chicago-Marina,Central,0,RQMAX,,,,,,,,,,,,,,,,,,,,,,,,0.02,0.06,0.05,0.01,0,4,1,Indiana,"Chicago-Naperville-Elgin, IL-IN-WI",No,Pb,Undetermined/Insufficient Data,,
18-097-0063,180970063,39.760868515,-86.29719458,Indpls.- Rockville Rd.,Central,0,RQMAX,0.94,0.79,0.63,0.25,0.2,0.09,0.07,0.09,0.09,0.12,0.14,0.07,0.04,0.06,0.07,0.03,0.04,0.04,0.05,0.03,0.08,0.06,0.04,0.02,0.02,0.02,0.01,1,27,1,Indiana,"Indianapolis-Carmel-Anderson, IN",Yes,Pb,Decreasing,-0.006666667,9.927182E-10
18-097-0078,180970078,39.811097001,-86.114469,Indpls- Washington Park/  in parking lot next to police station,Central,0,RQMAX,,,,,,,,,,,,,0.01,0.01,0.01,0.03,0.01,0.02,0.01,0.01,0.01,0.01,0.01,0.01,0.01,0.01,0.01,0,15,1,Indiana,"Indianapolis-Carmel-Anderson, IN",No,Pb,Undetermined/Insufficient Data,,
18-127-0027,181270027,41.635181178,-87.15036734,Burns Harbor- Port of Indiana,Central,0,RQMAX,,,,,,,,,,,,,,,,,,,,,,,0.04,0.08,,0.02,0.01,0,4,1,Indiana,"Chicago-Naperville-Elgin, IL-IN-WI",No,Pb,Undetermined/Insufficient Data,,
26-067-0003,260670003,43.099943001,-85.222266,,Upper Midwest,0,RQMAX,,,,,,,,,,,,,,,,,,,,,0.28,0.11,0.06,0.05,0.05,0.04,0.01,0,7,2,Michigan,"Ionia, MI",No,Pb,Undetermined/Insufficient Data,,
26-163-0001,261630001,42.228620136,-83.20820002,Allen Park,Upper Midwest,0,RQMAX,,,,,,,,,,,,0.08,0.01,0.01,0.01,0.01,0.01,,,,0.01,0.01,0.01,0.01,0.01,0,0.01,0,13,2,Michigan,"Detroit-Warren-Dearborn, MI",No,Pb,Undetermined/Insufficient Data,,
26-163-0033,261630033,42.30667449,-83.14875385,PROPERTY OWNED BY DEARBORN PUBLIC SCHOOLS,Upper Midwest,0,RQMAX,,,,,,,,,,,,0.03,0.04,0.04,0.03,0.03,0.03,0.03,0.02,,0.01,0.02,0.01,0.01,0.02,0.02,0.01,0,15,2,Michigan,"Detroit-Warren-Dearborn, MI",No,Pb,Undetermined/Insufficient Data,,
27-037-0020,270370020,44.763230001,-93.03255,FHR 420,Upper Midwest,0,RQMAX,,,,,,,,,,,,,,0.01,0.01,0.01,0.1,0.01,0.01,,,,0,0.01,0.01,0.01,0.01,0,11,2,Minnesota,"Minneapolis-St. Paul-Bloomington, MN-WI",No,Pb,Undetermined/Insufficient Data,,
27-123-0818,271230818,44.926753,-93.059292,Hollman Field,Upper Midwest,0,RQMAX,,,,,,,,,,,,,,,,,,,,,,,,,,,0.01,0,1,2,Minnesota,"Minneapolis-St. Paul-Bloomington, MN-WI",No,Pb,Undetermined/Insufficient Data,,
27-123-0871,271230871,44.959390001,-93.03587,HARDING SENIOR HIGH SCHOOL,Upper Midwest,0,RQMAX,,,,,,,,,,,,,,,,,,,,,,,0.01,0.01,0,0,0.01,0,5,2,Minnesota,"Minneapolis-St. Paul-Bloomington, MN-WI",No,Pb,Undetermined/Insufficient Data,,
27-123-1908,271231908,44.973096,-93.199879,,Upper Midwest,0,RQMAX,,,,,,,,,,,,,,,,,,,,,,,,,,,0.01,0,1,2,Minnesota,"Minneapolis-St. Paul-Bloomington, MN-WI",No,Pb,Undetermined/Insufficient Data,,
29-099-0025,290990025,38.243054872,-90.3738233,Ursuline North,Central,0,RQMAX,,,,,,,,,,,,,,,,,,,,,0.08,0.05,0.08,0.07,0.05,0.01,0.01,0,7,1,Missouri,"St. Louis, MO-IL",No,Pb,Undetermined/Insufficient Data,,
29-099-0026,290990026,38.296054058,-90.393104,Pevely North,Central,0,RQMAX,,,,,,,,,,,,,,,,,,,,,0.07,0.04,0.08,0.06,0.03,0.01,0.01,0,7,1,Missouri,"St. Louis, MO-IL",No,Pb,Undetermined/Insufficient Data,,
39-029-0020,390290020,40.639595001,-80.524019,WATER PLANT,Central,0,RQMAX,,,,,,,,,,,,,,,,,,,,,0.02,0.02,0.02,0.02,0.02,0.01,0.01,0,7,1,Ohio,"Salem, OH",No,Pb,Undetermined/Insufficient Data,,
39-029-0023,390290023,40.634688,-80.545695,SCHOOL EASTSIDE,Central,0,RQMAX,,,,,,,,,,,,,,,,,,,,,,,,,,,0.01,0,1,1,Ohio,"Salem, OH",No,Pb,Undetermined/Insufficient Data,,
39-035-0038,390350038,41.477011001,-81.682383,ST. THEODO,Central,0,RQMAX,,,,,,,,,,,,,,,,,,,,,0.02,0.01,0.01,0.01,0.02,0.01,0.01,0,7,1,Ohio,"Cleveland-Elyria, OH",No,Pb,Undetermined/Insufficient Data,,
39-035-0042,390350042,41.482300001,-81.708906,FS  4,Central,0,RQMAX,,,,,,,,,,,,,,,,,,,,,0.03,0.01,0.01,0.01,0.01,0.01,0.01,0,7,1,Ohio,"Cleveland-Elyria, OH",No,Pb,Undetermined/Insufficient Data,,
39-035-0060,390350060,41.492117001,-81.678449,GT CRAIG,Central,0,RQMAX,,,,,,,,,,,,,,,,,,,,,,,0.03,0.02,0.03,0.02,0.01,0,5,1,Ohio,"Cleveland-Elyria, OH",No,Pb,Undetermined/Insufficient Data,,
39-035-0072,390350072,41.425850001,-81.49078,CENTURY,Central,0,RQMAX,,,,,,,,,,,,,,,,,,,,,0.02,0.04,0.02,0.02,0.01,0.01,0.01,0,7,1,Ohio,"Cleveland-Elyria, OH",No,Pb,Undetermined/Insufficient Data,,
39-049-0039,390490039,39.928531,-82.980105,,Central,0,RQMAX,,,,,,,,,,,,,,,,,,,,,,,,,,0.01,0.01,0,2,1,Ohio,"Columbus, OH",No,Pb,Undetermined/Insufficient Data,,
39-101-0004,391010004,40.57665,-83.14022,STORAGE RENTAL,Central,0,RQMAX,,,,,,,,,,,,,,,,,,,,,,,0.02,0.02,0.01,0.01,0.01,0,5,1,Ohio,"Marion, OH",No,Pb,Undetermined/Insufficient Data,,
40-037-0146,400370146,36.013567164,-96.09914381,,South,0,RQMAX,,,,,,,,,,,,,,,,,,,,,,,,,,,0.01,0,1,5,Oklahoma,"Tulsa, OK",No,Pb,Undetermined/Insufficient Data,,
40-115-9006,401159006,36.9846,-94.8249,,South,0,RQMAX,,,,,,,,,,,,,,,,0.03,,0.01,,,0.02,0.02,0.02,0.01,0.04,0.01,0.01,0,9,5,Oklahoma,"Miami, OK",No,Pb,Undetermined/Insufficient Data,,
42-003-0008,420030008,40.465420328,-79.96075745,Lawrenceville,Northeast,0,RQMAX,,,,,,,,,,,,,,,,,,,,,,0.01,0.01,0.01,0.01,0.01,0.01,0,6,3,Pennsylvania,"Pittsburgh, PA",No,Pb,Undetermined/Insufficient Data,,
42-003-0070,420030070,40.363016001,-80.102156,Bridgeville,Northeast,0,RQMAX,,,,,,,,,,,,,,,,,,,,,0.05,0.06,0.02,0.03,0.19,0.01,0.01,0,7,3,Pennsylvania,"Pittsburgh, PA",No,Pb,Undetermined/Insufficient Data,,
42-007-0006,420070006,40.638936,-80.365653,,Northeast,0,RQMAX,,,,,,,,,,,,,,,,,,,,,0.07,0.08,0.07,0.08,0.02,0.01,0.01,0,7,3,Pennsylvania,"Pittsburgh, PA",No,Pb,Undetermined/Insufficient Data,,
42-007-0007,420070007,40.673656,-80.317731,,Northeast,0,RQMAX,,,,,,,,,,,,,,,,,,,,,0.24,0.25,0.19,0.22,0.2,0.01,0.01,0,7,3,Pennsylvania,"Pittsburgh, PA",No,Pb,Undetermined/Insufficient Data,,
42-011-1717,420111717,40.377222,-75.914444,A420111717LAT/LON POINT IS OF SAMPLING INLET,Northeast,0,RQMAX,0.62,0.6,0.43,0.57,0.84,0.53,0.27,0.33,0.33,0.29,0.33,0.32,0.24,0.41,0.43,0.4,0.36,0.36,0.24,0.25,0.2,0.18,0.22,0.17,0.03,0.03,0.01,1,27,3,Pennsylvania,"Reading, PA",Yes,Pb,Decreasing,-0.019444444,3.4409604E-8
42-045-0002,420450002,39.835556,-75.3725,A420450002LAT/LON POINT IS OF CORNER OF TRAILER,Northeast,0,RQMAX,,,,,,0.05,0.04,0.05,0.04,0.05,0.05,0.04,0.04,0.04,0.04,0.04,0.05,0.04,,0.04,0.05,,0.01,0.01,0.01,0.01,0.01,0,20,3,Pennsylvania,"Philadelphia-Camden-Wilmington, PA-NJ-DE-MD",No,Pb,Undetermined/Insufficient Data,,
42-045-0004,420450004,39.862928,-75.325689,,Northeast,0,RQMAX,,,,,,,,,,,,,,,,,,,,,0.05,0.04,0.01,0.01,0.01,0.01,0.01,0,7,3,Pennsylvania,"Philadelphia-Camden-Wilmington, PA-NJ-DE-MD",No,Pb,Undetermined/Insufficient Data,,
42-055-0002,420550002,40.059828,-77.710608,,Northeast,0,RQMAX,,,,,,,,,,,,,,,,,,,,,0.05,,0.01,0.01,0.01,0.01,0.01,0,6,3,Pennsylvania,"Chambersburg-Waynesboro, PA",No,Pb,Undetermined/Insufficient Data,,
42-063-0005,420630005,40.652511,-79.292769,,Northeast,0,RQMAX,,,,,,,,,,,,,,,,,,,,,0.05,,0.02,0.01,0.01,0.01,0.01,0,6,3,Pennsylvania,"Indiana, PA",No,Pb,Undetermined/Insufficient Data,,
42-079-0036,420790036,41.348869,-75.747322,,Northeast,0,RQMAX,,,,,,,,,,,,,,,,,,,,,0.14,,0.01,0.06,0.06,0.02,0.01,0,6,3,Pennsylvania,"Scranton--Wilkes-Barre--Hazleton, PA",No,Pb,Undetermined/Insufficient Data,,
42-129-0009,421290009,40.392922,-79.024456,,Northeast,0,RQMAX,,,,,,,,,,,,,,,,,,,,,0.05,0.03,0.02,0.02,0.01,0.01,0.01,0,7,3,Pennsylvania,"Pittsburgh, PA",No,Pb,Undetermined/Insufficient Data,,
48-085-0003,480850003,33.142336,-96.824683,Frisco 5th St,South,0,RQMAX,1.05,0.67,1.1,1.05,0.58,0.51,0.25,0.35,0.46,0.62,0.49,0.39,0.27,0.34,0.24,0.36,0.39,0.27,0.26,0.32,0.37,0.19,0.12,0.05,0.01,0.01,0.01,1,27,5,Texas,"Dallas-Fort Worth-Arlington, TX",Yes,Pb,Decreasing,-0.028,4.4517617E-9
48-085-0007,480850007,33.147414,-96.825769,Frisco 7,South,0,RQMAX,,,,,0.18,0.26,0.15,,,,0.14,0.1,0.11,0.2,0.15,0.22,0.23,0.11,0.17,0.12,0.2,0.19,0.07,0.02,0.02,0,0.01,0,20,5,Texas,"Dallas-Fort Worth-Arlington, TX",No,Pb,Undetermined/Insufficient Data,,
48-085-0009,480850009,33.144662,-96.828809,Frisco Eubanks,South,0,RQMAX,,,,,,,,,,,,,,,,,,,,,,0.52,0.31,0.08,0.02,0.01,0.01,0,6,5,Texas,"Dallas-Fort Worth-Arlington, TX",No,Pb,Undetermined/Insufficient Data,,
48-085-0029,480850029,33.136025,-96.824473,Frisco Stonebrook,South,0,RQMAX,,,,,,,,,,,,,,,,,,,,,,0.18,0.05,0.07,0.01,0.01,0.01,0,6,5,Texas,"Dallas-Fort Worth-Arlington, TX",No,Pb,Undetermined/Insufficient Data,,
48-113-0069,481130069,32.820061,-96.860117,Dallas Hinton,South,0,RQMAX,,,,,,,,,,,,,,,,,,,,,,,0.01,0.01,0,0.01,0.01,0,5,5,Texas,"Dallas-Fort Worth-Arlington, TX",No,Pb,Undetermined/Insufficient Data,,
48-141-0037,481410037,31.768291,-106.50126,El Paso UTEP,South,0,RQMAX,,,,,,,,,,,,,,,,,,,,,,,,,,,0.01,0,1,5,Texas,"El Paso, TX",No,Pb,Undetermined/Insufficient Data,,
48-141-0055,481410055,31.746775,-106.402806,Ascarate Park SE,South,0,RQMAX,,,,,,,,,,,,,,,,,,,,,,0.01,0.02,0.01,0.01,0.01,0.01,0,6,5,Texas,"El Paso, TX",No,Pb,Undetermined/Insufficient Data,,
48-479-0016,484790016,27.517449,-99.515219,Laredo Vidaurri,South,0,RQMAX,,,,,,,,0.02,0.02,0.02,0.04,0.02,0.01,0.01,0.02,0.02,0.01,0.01,0.01,0.01,0.03,,,0.01,0,0.01,0.01,0,18,5,Texas,"Laredo, TX",No,Pb,Undetermined/Insufficient Data,,
51-770-0016,517700016,37.27494,-79.98567,Roanoke - Mario Industries,Southeast,0,RQMAX,,,,,,,,,,,,,,,,,,,,,,,,,,0.01,0.01,0,2,6,Virginia,"Roanoke, VA",No,Pb,Undetermined/Insufficient Data,,
54-011-0006,540110006,38.424133001,-82.4259,HENDERSON CENTER/MARSHALL UNIVERSITY - MOVED FROM WATER CO. 5/98,Central,0,RQMAX,,,,,,,,,,,,,,,,,,,,,,,0.01,0.01,0.01,0.01,0.01,0,5,1,West Virginia,"Huntington-Ashland, WV-KY-OH",No,Pb,Undetermined/Insufficient Data,,
06-037-1404,060371404,34.026111001,-117.981667,Closet World (Quemetco),West,0,RQMAX,,,,,,,,,,,,,,,,,,,,0.1,0.11,0.06,0.03,0.04,0.03,0.01,0.02,0,8,8,California,"Los Angeles-Long Beach-Anaheim, CA",No,Pb,Undetermined/Insufficient Data,,
06-037-1406,060371406,34.008333001,-118.190556,ATSF (Exide),West,0,RQMAX,,,,,,,,,,,,,,,,,,,0.22,0.08,0.06,0.07,0.03,0.02,0.02,0.02,0.02,0,9,8,California,"Los Angeles-Long Beach-Anaheim, CA",No,Pb,Undetermined/Insufficient Data,,
17-031-0022,170310022,41.687165438,-87.53931548,WASHINGTON HS,Central,0,RQMAX,,0.08,0.1,0.07,0.09,0.07,0.05,0.05,0.04,0.04,0.05,0.04,0.03,0.03,0.04,0.04,0.03,0.05,0.05,,0.05,0.05,0.04,0.05,0.04,0.04,0.02,1,25,1,Illinois,"Chicago-Naperville-Elgin, IL-IN-WI",Yes,Pb,Decreasing,-0.001428571,0.0012483469
17-119-0010,171190010,38.694438305,-90.15395426,AIR PRODUCTS,Central,0,RQMAX,0.5,0.16,0.26,0.16,0.28,0.24,0.13,0.17,0.14,0.11,0.1,0.07,0.05,0.33,0.43,0.1,0.14,0.2,0.28,,0.44,0.21,0.36,0.06,0.04,0.02,0.02,1,26,1,Illinois,"St. Louis, MO-IL",Yes,Pb,No Trend,-0.005294118,0.0618362709
18-089-0032,180890032,41.603581701,-87.3326576,Gary- 4th Ave./ Railcats,Central,0,RQMAX,,,,,,,,,,,,,,,,,,,,,,0.06,0.02,0.01,0.01,0.02,0.02,0,6,1,Indiana,"Chicago-Naperville-Elgin, IL-IN-WI",No,Pb,Undetermined/Insufficient Data,,
18-089-2008,180892008,41.639460104,-87.49362295,HAMMOND CAAP- Hammond- 141st St.,Central,0,RQMAX,,,0.04,0.04,0.05,0.06,0.08,0.04,0.05,0.09,0.14,0.02,0.04,0.03,0.04,0.03,0.02,0.03,0.02,0.01,0.04,0.03,0.05,0.03,0.03,0.02,0.02,1,25,1,Indiana,"Chicago-Naperville-Elgin, IL-IN-WI",Yes,Pb,Decreasing,-0.000869565,0.0033778993
21-151-0003,211510003,37.738458,-84.284952,MAYFIELD ELEMENTARY,Central,0,RQMAX,,,,,,,,,,,,,,,,,,,,,0.05,0.07,0.25,0.01,0.01,0.02,0.02,0,7,1,Kentucky,"Richmond-Berea, KY",No,Pb,Undetermined/Insufficient Data,,
26-067-0002,260670002,43.101720001,-85.22327,Belding,Upper Midwest,0,RQMAX,,,,,,,,,,,,,,,,,,,,,,,0.05,0.06,0.04,0.03,0.02,0,5,2,Michigan,"Ionia, MI",No,Pb,Undetermined/Insufficient Data,,
27-003-1002,270031002,45.137679536,-93.20761498,Anoka Airport,Upper Midwest,0,RQMAX,,,,,,,,,,,,,,,,,,,,,,,0.01,0.02,0.01,0.01,0.02,0,5,2,Minnesota,"Minneapolis-St. Paul-Bloomington, MN-WI",No,Pb,Undetermined/Insufficient Data,,
29-087-0008,290870008,40.027222,-95.235833,"Forest City, Exide Levee (ESP SCHULYKILL WEST SITE LOCATED ON A LEVEE)",Central,0,RQMAX,,,,,,,1.02,0.85,0.66,0.34,,,,,,,,,,,,,1.34,0.73,0.15,0.02,0.02,0,9,1,Missouri,,No,Pb,Undetermined/Insufficient Data,,
29-093-0029,290930029,37.472176782,-90.68930219,Doe Run Glover - Big Creek #5,Central,0,RQMAX,,,9.58,25.38,15.13,8.07,9.89,3.45,0.92,1.32,1.23,1.22,0.98,0.99,0.21,0.11,0.07,0.08,0.05,0.03,0.11,0.11,0.05,0.06,0.06,0.03,0.02,1,25,1,Missouri,,Yes,Pb,Decreasing,-0.224,1.280108E-11
29-099-0009,290990009,38.286154217,-90.3810436,Pevely,Central,0,RQMAX,0.79,0.56,0.63,0.3,0.44,0.77,0.74,0.59,0.41,0.34,0.34,0.56,0.1,0.13,0.15,0.11,,,,,0.07,0.05,0.19,0.07,0.04,0.01,0.02,0,23,1,Missouri,"St. Louis, MO-IL",No,Pb,Undetermined/Insufficient Data,,
29-179-0001,291790001,37.534735285,-91.14869678,Bill's Creek,Central,0,RQMAX,,,,,,,,,,,,,,,,,,,,,0.05,0.06,0.04,0.05,0.03,0.02,0.02,0,7,1,Missouri,,No,Pb,Undetermined/Insufficient Data,,
29-187-0007,291870007,37.8141914,-90.50748694,St. Joe State Park,Central,0,RQMAX,,,,,,,,,,,,,,,,,,,,,0.04,,0.13,0.08,0.05,0.03,0.02,0,6,1,Missouri,"Farmington, MO",No,Pb,Undetermined/Insufficient Data,,
36-071-3001,360713001,41.46107,-74.36343,WALLKILL BALLARD ROAD,Northeast,0,RQMAX,0.63,0.33,0.29,0.3,0.06,0.05,0.07,0.12,0.07,0.19,0.07,0.12,0.1,0.09,0.08,,0.04,0.03,0.04,0.04,0.04,0.1,0.02,0.03,0.02,0.02,0.02,1,26,3,New York,"New York-Newark-Jersey City, NY-NJ-PA",Yes,Pb,Decreasing,-0.006363636,2.1518005E-7
39-029-0019,390290019,40.631545001,-80.547181,PORT (AUTHORITY),Central,0,RQMAX,,,,,,,,,,,,,,,,,,,,,0.06,0.05,0.02,0.02,0.01,0.01,0.02,0,7,1,Ohio,"Salem, OH",No,Pb,Undetermined/Insufficient Data,,
39-035-0049,390350049,41.446342001,-81.6507,FERRO,Central,0,RQMAX,,,,,,,,,,,,,,,,,,,,,0.53,0.41,0.03,0.02,0.02,0.02,0.02,0,7,1,Ohio,"Cleveland-Elyria, OH",No,Pb,Undetermined/Insufficient Data,,
39-101-0003,391010003,40.57158,-83.1356,PROSPECT,Central,0,RQMAX,,,,,,,,,,,,,,,,,,,,,0.05,0.06,0.09,0.03,0.03,0.03,0.02,0,7,1,Ohio,"Marion, OH",No,Pb,Undetermined/Insufficient Data,,
40-115-9007,401159007,36.985702,-94.83931,,South,0,RQMAX,,,,,,,,,,,,,,,,0.06,,0.02,,,0.02,0.03,0.03,0.02,0.04,0.02,0.02,0,9,5,Oklahoma,"Miami, OK",No,Pb,Undetermined/Insufficient Data,,
42-007-0505,420070505,40.685018535,-80.3247752,,Northeast,0,RQMAX,0.25,0.19,0.16,0.15,,,0.06,0.08,0.06,,0.08,0.06,,0.1,0.09,0.15,0.2,0.12,0.17,,0.09,,0.15,0.13,0.05,0.02,0.02,1,21,3,Pennsylvania,"Pittsburgh, PA",Yes,Pb,No Trend,-0.002142857,0.0990883313
42-011-0022,420110022,40.478319,-75.753947,,Northeast,0,RQMAX,,,,,,,,,,,,,,,,,,,,,0.12,0.04,0.03,0.02,0.02,0.02,0.02,0,7,3,Pennsylvania,"Reading, PA",No,Pb,Undetermined/Insufficient Data,,
06-037-1405,060371405,34.006389001,-118.193056,Rehrig (Exide),West,0,RQMAX,,,,,,,,,,,,,,,,,,,2.49,0.5,0.39,0.46,0.15,0.1,0.07,0.02,0.03,0,9,8,California,"Los Angeles-Long Beach-Anaheim, CA",No,Pb,Undetermined/Insufficient Data,,
06-081-2004,060812004,37.508162,-122.246305,San Carlos Airport II,West,0,RQMAX,,,,,,,,,,,,,,,,,,,,,,,,,,0.02,0.03,0,2,8,California,"San Francisco-Oakland-Hayward, CA",No,Pb,Undetermined/Insufficient Data,,
29-099-0013,290990013,38.271814436,-90.37658343,"Herculaneum, Sherman",Central,0,RQMAX,1.54,1.38,1.28,0.85,1.13,1.74,1,0.84,0.78,0.92,1.08,1.81,0.65,0.32,1.44,0.39,0.29,0.28,0.37,,0.2,0.17,0.3,0.24,0.13,0.04,0.03,1,26,1,Missouri,"St. Louis, MO-IL",Yes,Pb,Decreasing,-0.054,2.1337272E-9
29-099-9004,290999004,38.271814436,-90.37658343,"Herculaneum, Sherman",Central,0,RQMAX,,,,,,,,,,,,,,,,,,,,0.16,0.26,0.24,0.44,0.26,0.15,0.04,0.03,0,8,1,Missouri,"St. Louis, MO-IL",No,Pb,Undetermined/Insufficient Data,,
29-179-0034,291790034,37.564914826,-91.11435575,Oates,Central,0,RQMAX,,,,,,,,,,,,,,,,,,,,,0.09,0.09,0.16,0.09,0.06,0.04,0.03,0,7,1,Missouri,,No,Pb,Undetermined/Insufficient Data,,
36-071-3002,360713002,41.45869,-74.35404,WALLKILL WAKEFERN,Northeast,0,RQMAX,1.76,1.06,1.09,0.52,0.11,0.11,0.07,0.29,0.14,0.22,0.17,0.19,0.13,0.3,0.24,,0.07,0.06,0.09,0.08,0.08,1.03,0.06,0.11,0.02,0.03,0.03,1,26,3,New York,"New York-Newark-Jersey City, NY-NJ-PA",Yes,Pb,Decreasing,-0.011875,0.0000448384
39-035-0061,390350061,41.473092001,-81.6765956,OLD ASPHALT PLANT,Central,0,RQMAX,,,,3.17,0.32,,,,,,,,,,,,,,,,0.02,0.02,0.02,0.06,0.03,0.03,0.03,0,9,1,Ohio,"Cleveland-Elyria, OH",No,Pb,Undetermined/Insufficient Data,,
42-011-0020,420110020,40.385981,-75.912856,,Northeast,0,RQMAX,,,,,,,,,,,,,,,,,,,,,0.19,0.2,0.51,0.12,0.02,0.02,0.03,0,7,3,Pennsylvania,"Reading, PA",No,Pb,Undetermined/Insufficient Data,,
42-011-0021,420110021,40.477075,-75.756919,,Northeast,0,RQMAX,,,,,,,,,,,,,,,,,,,,,0.14,0.04,0.05,0.04,0.03,0.04,0.03,0,7,3,Pennsylvania,"Reading, PA",No,Pb,Undetermined/Insufficient Data,,
42-073-0011,420730011,40.860031,-80.279092,,Northeast,0,RQMAX,,,,,,,,,,,,,,,,,,,,,,,0.02,0.02,0.02,0.02,0.03,0,5,3,Pennsylvania,"New Castle, PA",No,Pb,Undetermined/Insufficient Data,,
51-009-0007,510090007,37.412220001,-79.116233,Central Virginia Training Center - Solid Rock Academy ELC*,Southeast,0,RQMAX,,,,,,,,,,,,,,,,,,,,,,0.02,0.01,0.01,0.01,0.01,0.03,0,6,6,Virginia,"Lynchburg, VA",No,Pb,Undetermined/Insufficient Data,,
04-007-8000,040078000,33.4190167,-110.82967,MIAMI GOLF COURSE,Southwest,0,RQMAX,,,,,,,,,,,,,,,,,,,,,,0.06,0.04,0.03,0.05,0.03,0.04,0,6,7,Arizona,"Payson, AZ",No,Pb,Undetermined/Insufficient Data,,
12-057-1073,120571073,27.966132374,-82.37925935,OPEN GRASSY AREA APP 60FT S OF 14TH AVE BETWEEN 70TH & 66TH STREET,Southeast,0,RQMAX,,,,,,,,,,,,,,,,,,0.4,0.4,0.11,0.13,0.42,0.39,0.11,0.06,0.15,0.04,0,10,6,Florida,"Tampa-St. Petersburg-Clearwater, FL",No,Pb,Undetermined/Insufficient Data,,
17-115-0110,171150110,39.862576,-88.940748,MUELLER,Central,0,RQMAX,,,,,,,,,,,,,,,,,,,,,0.12,0.2,0.08,0.05,0.05,0.04,0.04,0,7,1,Illinois,"Decatur, IL",No,Pb,Undetermined/Insufficient Data,,
42-101-0048,421010048,39.991389,-75.080833,North East Waste (NEW),Northeast,0,RQMAX,,,,,,,,,,,,,,,,,,,,,,,,,0.02,0.02,0.04,0,3,3,Pennsylvania,"Philadelphia-Camden-Wilmington, PA-NJ-DE-MD",No,Pb,Undetermined/Insufficient Data,,
04-013-4018,040134018,33.684627,-112.08635,Deer Valley,Southwest,0,RQMAX,,,,,,,,,,,,,,,,,,,,,,,0.04,0.04,0.05,0.05,0.05,0,5,7,Arizona,"Phoenix-Mesa-Scottsdale, AZ",No,Pb,Undetermined/Insufficient Data,,
13-215-0010,132150010,32.43628,-84.934155,Fort Benning,Southeast,0,RQMAX,,,,,,,,,,,,,,,,,,,,,,,0.17,0.12,0.05,0.05,0.05,0,5,6,Georgia,"Columbus, GA-AL",No,Pb,Undetermined/Insufficient Data,,
17-089-0113,170890113,41.884417,-88.282692,Johnson Controls,Central,0,RQMAX,,,,,,,,,,,,,,,,,,,,,,,,,0.03,0.05,0.05,0,3,1,Illinois,"Chicago-Naperville-Elgin, IL-IN-WI",No,Pb,Undetermined/Insufficient Data,,
21-151-0005,211510005,37.736349,-84.291774,EASTERN KENTUCKY UNIVERSITY (EKU),Central,0,RQMAX,,,,,,,,,,,,,,,,,,,,,,,2.24,0.08,0.05,0.11,0.05,0,5,1,Kentucky,"Richmond-Berea, KY",No,Pb,Undetermined/Insufficient Data,,
29-099-9002,290999002,38.267084506,-90.3788535,"Herculaneum, Dunklin High School",Central,0,RQMAX,,,,,,,,,,,,,,,,,,,,0.38,0.33,0.43,0.35,0.31,0.12,0.06,0.05,0,8,1,Missouri,"St. Louis, MO-IL",No,Pb,Undetermined/Insufficient Data,,
29-179-0002,291790002,37.468956434,-91.08859478,Fletcher,Central,0,RQMAX,,,,,,,,,,,,,,,,,,,,,0.04,0.07,0.04,0.03,0.03,0.02,0.05,0,7,1,Missouri,,No,Pb,Undetermined/Insufficient Data,,
49-035-1001,490351001,40.708611,-112.094722,Magna,Southwest,0,RQMAX,,,0.06,0.1,0.08,0.07,0.04,0.11,0.12,0.1,0.07,0.07,0.06,0.07,0.08,0.1,,,,,0.04,0.06,0.05,0.08,0.1,0.07,0.05,0,21,7,Utah,"Salt Lake City, UT",No,Pb,Undetermined/Insufficient Data,,
55-117-0008,551170008,43.743950001,-87.7763,KOHLER,Upper Midwest,0,RQMAX,,,,,,,,,,,,,,,,,,,,,0.15,0.07,0.1,0.11,0.09,0.05,0.05,0,7,2,Wisconsin,"Sheboygan, WI",No,Pb,Undetermined/Insufficient Data,,
06-071-1407,060711407,34.093979,-117.527254,SA Recycling,West,0,RQMAX,,,,,,,,,,,,,,,,,,,,,,,,,,0.03,0.06,0,2,8,California,"Riverside-San Bernardino-Ontario, CA",No,Pb,Undetermined/Insufficient Data,,
27-053-0909,270530909,45.012102001,-93.276699,Lowry Avenue,Upper Midwest,0,RQMAX,,,,,,,,,,,,,,,,,,,,,,,,,,0.12,0.06,0,2,2,Minnesota,"Minneapolis-St. Paul-Bloomington, MN-WI",No,Pb,Undetermined/Insufficient Data,,
29-099-0005,290990005,38.267084506,-90.3788535,,Central,0,RQMAX,2.26,1.92,3.17,2.16,1.99,2.13,2.28,1.59,1.62,1.5,1.85,4.34,1.09,0.48,0.9,0.37,0.43,0.73,0.52,0.39,0.33,0.4,0.29,0.31,0.14,0.06,0.06,1,27,1,Missouri,"St. Louis, MO-IL",Yes,Pb,Decreasing,-0.095,5.229987E-11
31-053-0005,310530005,41.424819,-96.480819,,Northern Rockies,0,RQMAX,,,,,,,,,,,,,,,,,,,,,0.07,,0.14,0.11,0.09,0.08,0.06,0,6,9,Nebraska,"Fremont, NE",No,Pb,Undetermined/Insufficient Data,,
48-257-0020,482570020,32.731919,-96.317911,Terrell Temtex,South,0,RQMAX,,,,,,,,,,,,,,,,,,,,,,0.1,0.04,0.05,0.04,0.04,0.06,0,6,5,Texas,"Dallas-Fort Worth-Arlington, TX",No,Pb,Undetermined/Insufficient Data,,
19-155-0011,191550011,41.254250001,-95.887249,,Upper Midwest,0,RQMAX,,,,,,,,,,,,,,,,,,,,,0.26,0.14,0.2,0.13,0.1,0.07,0.07,0,7,2,Iowa,"Omaha-Council Bluffs, NE-IA",No,Pb,Undetermined/Insufficient Data,,
26-147-0031,261470031,42.982093089,-82.4500805,,Upper Midwest,0,RQMAX,,,,,,,,,,,,,,,,,,,,,,,,0.04,0.03,0.05,0.07,0,4,2,Michigan,"Detroit-Warren-Dearborn, MI",No,Pb,Undetermined/Insufficient Data,,
29-093-0027,290930027,37.485386562,-90.69002223,Doe Run Glover - Post Office #2,Central,0,RQMAX,,,10.65,9.58,10.95,6.8,4.15,1.17,0.83,0.89,0.97,0.99,0.87,1.07,0.45,0.13,0.1,0.13,0.06,0.06,0.07,0.08,0.04,0.63,0.1,0.04,0.07,1,25,1,Missouri,,Yes,Pb,Decreasing,-0.143333333,2.966211E-10
29-093-0033,290930033,37.489726488,-90.69257232,Glover,Central,0,RQMAX,,,,,,,,,,,,,,,,,,,,,0.05,0.06,0.03,0.26,0.08,0.06,0.07,0,7,1,Missouri,,No,Pb,Undetermined/Insufficient Data,,
42-071-0009,420710009,40.108944,-76.472235,,Northeast,0,RQMAX,,,,,,,,,,,,,,,,,,,,,,,0.07,0.07,0.23,0.23,0.07,0,5,3,Pennsylvania,"Lancaster, PA",No,Pb,Undetermined/Insufficient Data,,
72-013-0002,720130002,18.453389233,-66.69498698,,None,0,RQMAX,,,,,,,,,,,,,,,,,,,,,,,,2.5,2.04,0.41,0.07,0,4,0,Puerto Rico,"Arecibo, PR",No,Pb,Undetermined/Insufficient Data,,
06-085-2011,060852011,37.329841,-121.815438,Reid Hillview Airport,West,0,RQMAX,,,,,,,,,,,,,,,,,,,,,,,0.09,0.1,0.1,0.1,0.08,0,5,8,California,"San Jose-Sunnyvale-Santa Clara, CA",No,Pb,Undetermined/Insufficient Data,,
13-215-0011,132150011,32.42905,-84.9316,Columbus-Cusseta Road Elementary,Southeast,0,RQMAX,,,,,,,,,,,,,,,,,,,,,0.07,0.07,0.03,0.02,0.02,0.01,0.08,0,7,6,Georgia,"Columbus, GA-AL",No,Pb,Undetermined/Insufficient Data,,
27-053-0910,270530910,45.008297001,-93.277041,Pacific Street,Upper Midwest,0,RQMAX,,,,,,,,,,,,,,,,,,,,,,,,,,,0.08,0,1,2,Minnesota,"Minneapolis-St. Paul-Bloomington, MN-WI",No,Pb,Undetermined/Insufficient Data,,
01-109-0003,011090003,31.790560001,-85.97917,TROY LEAD,Southeast,0,RQMAX,3.09,1.93,,,,,,,,,,,,,,,0.67,1.35,1.18,0.91,0.89,1.03,1.3,0.26,0.08,0.07,0.09,0,13,6,Alabama,"Troy, AL",No,Pb,Undetermined/Insufficient Data,,
12-057-1066,120571066,27.960577539,-82.3823154,GULF COAST LEAD,Southeast,0,RQMAX,,,,,,,,,,,,,,,,,,1.65,1.77,0.25,0.73,0.98,0.98,0.49,0.13,0.06,0.09,0,10,6,Florida,"Tampa-St. Petersburg-Clearwater, FL",No,Pb,Undetermined/Insufficient Data,,
18-035-0009,180350009,40.158417101,-85.4150209,Muncie- Mt. Pleasant Blvd.  LOCATED NE OF PLANT - DOWNWIND SITE,Central,0,RQMAX,,,,0.73,1.39,1.2,1.14,0.9,1.03,0.77,0.65,1.08,1,0.92,3.5,1.39,0.89,0.93,2.14,0.26,0.26,0.25,0.34,0.06,0.05,0.11,0.11,0,24,1,Indiana,"Muncie, IN",No,Pb,Undetermined/Insufficient Data,,
27-037-0465,270370465,44.834310001,-93.11622,Gopher Resources,Upper Midwest,0,RQMAX,,,,,,,,,,,,,,,,,0.37,0.7,0.4,,0.26,0.11,0.11,0.11,0.12,0.13,0.11,0,10,2,Minnesota,"Minneapolis-St. Paul-Bloomington, MN-WI",No,Pb,Undetermined/Insufficient Data,,
29-099-0020,290990020,38.26351,-90.37993,"Herculaneum, City Hall (Mott Street)",Central,0,RQMAX,,,,,,,,,,,,,,,,,,,1.02,0.94,0.86,,0.52,0.66,0.36,0.11,0.11,0,8,1,Missouri,"St. Louis, MO-IL",No,Pb,Undetermined/Insufficient Data,,
29-099-0023,290990023,38.26216,-90.38126,"Herculaneum, North Cross",Central,0,RQMAX,,,,,,,,,,,,,,,,,,,0.52,0.59,0.52,0.56,0.44,0.45,0.16,0.06,0.11,0,9,1,Missouri,"St. Louis, MO-IL",No,Pb,Undetermined/Insufficient Data,,
42-025-0214,420250214,40.814204,-75.580448,,Northeast,0,RQMAX,,,,,,,,,,,,,,,,,,,,,,,,0.15,0.15,0.16,0.11,0,4,3,Pennsylvania,"Allentown-Bethlehem-Easton, PA-NJ",No,Pb,Undetermined/Insufficient Data,,
39-051-0001,390510001,41.57588,-83.9959,DELTA,Central,0,RQMAX,,,,,,,,,,,,,,,,,,,,,0.08,0.18,0.08,0.06,0.09,0.07,0.12,0,7,1,Ohio,"Toledo, OH",No,Pb,Undetermined/Insufficient Data,,
47-093-0023,470930023,35.98104,-83.954311,,Central,0,RQMAX,,,,,,,,,,,,,,,,,,,,,,0.17,0.16,0.11,,,0.13,0,4,1,Tennessee,"Knoxville, TN",No,Pb,Undetermined/Insufficient Data,,
04-007-1002,040071002,33.002516667,-110.7654667,Globe Highway,Southwest,0,RQMAX,,,,,,,,,,,,,,,,,,,,,,0.27,0.2,0.12,0.17,0.12,0.14,0,6,7,Arizona,"Payson, AZ",No,Pb,Undetermined/Insufficient Data,,
29-099-0027,290990027,38.263394,-90.379667,"Herculaneum, Mott Street",Central,0,RQMAX,,,,,,,,,,,,,,,,,,,,,,0.7,0.59,0.57,0.32,0.11,0.14,0,6,1,Missouri,"St. Louis, MO-IL",No,Pb,Undetermined/Insufficient Data,,
29-093-9008,290939008,37.652140001,-91.11689,Doe Run Buick - Buick NE,Central,0,RQMAX,,,,,,,,,,,,,,,,,,,,,,0.39,0.24,0.35,0.22,0.09,0.16,0,6,1,Missouri,,No,Pb,Undetermined/Insufficient Data,,
20-169-0004,201690004,38.776439,-97.607384,Salina lead,South,0,RQMAX,,,,,,,,,,,,,,,,,,,,,0.42,0.23,0.21,0.23,0.15,0.11,0.18,0,7,5,Kansas,"Salina, KS",No,Pb,Undetermined/Insufficient Data,,
29-093-0034,290930034,37.65214,-91.11689,Buick NE,Central,0,RQMAX,,,,,,,,,,,,,,,,,,,,,,0.4,0.37,0.33,0.26,0.14,0.19,0,6,1,Missouri,,No,Pb,Undetermined/Insufficient Data,,
04-007-1003,040071003,33.0035,-110.7822,Hillcrest AMS,Southwest,0,RQMAX,,,,,,,,,,,,,,,,,,,,,,,,,,,0.22,0,1,7,Arizona,"Payson, AZ",No,Pb,Undetermined/Insufficient Data,,
13-215-0009,132150009,32.434809,-84.929326,UPS,Southeast,0,RQMAX,,,,,,,,,,,,,,,,,,,,,,,0.23,0.06,0.08,0.04,0.36,0,5,6,Georgia,"Columbus, GA-AL",No,Pb,Undetermined/Insufficient Data,,
